<?xml version="1.0" encoding="UTF-8" standalone="no" ?>
<gpx xmlns="http://www.topografix.com/GPX/1/1" creator="MapSource 6.16.3" version="1.1" xmlns:xsi="http://www.w3.org/2001/XMLSchema-instance" xsi:schemaLocation="http://www.topografix.com/GPX/1/1 http://www.topografix.com/GPX/1/1/gpx.xsd">

  <metadata>
    <link href="http://www.garmin.com">
      <text>Garmin International</text>
    </link>
    <time>2017-12-31T11:26:11Z</time>
    <bounds maxlat="51.279594451189041" maxlon="7.223384762182832" minlat="51.2334995996207" minlon="7.072620140388608"/>
  </metadata>

  <trk>
    <name>NW 4.06 Teil 1</name>
    <trkseg>
      <trkpt lat="51.279594451189041" lon="7.223384762182832">
        <ele>198.16900000000001</ele>
      </trkpt>
      <trkpt lat="51.279466124251485" lon="7.223223829641938">
        <ele>198.16900000000001</ele>
      </trkpt>
      <trkpt lat="51.279148198664188" lon="7.222613291814923">
        <ele>197.68799999999999</ele>
      </trkpt>
      <trkpt lat="51.27896212041378" lon="7.222416484728456">
        <ele>196.727</ele>
      </trkpt>
      <trkpt lat="51.278747040778399" lon="7.222129572182894">
        <ele>197.208</ele>
      </trkpt>
      <trkpt lat="51.27857462503016" lon="7.22178834490478">
        <ele>197.208</ele>
      </trkpt>
      <trkpt lat="51.278408579528332" lon="7.22136958502233">
        <ele>196.24600000000001</ele>
      </trkpt>
      <trkpt lat="51.278365161269903" lon="7.221241593360901">
        <ele>197.68799999999999</ele>
      </trkpt>
      <trkpt lat="51.278296429663897" lon="7.221026094630361">
        <ele>197.208</ele>
      </trkpt>
      <trkpt lat="51.278119739145041" lon="7.220296198502183">
        <ele>197.208</ele>
      </trkpt>
      <trkpt lat="51.278015552088618" lon="7.219762355089188">
        <ele>196.727</ele>
      </trkpt>
      <trkpt lat="51.277838442474604" lon="7.218529880046845">
        <ele>196.727</ele>
      </trkpt>
      <trkpt lat="51.277799382805824" lon="7.218198794871569">
        <ele>195.76599999999999</ele>
      </trkpt>
      <trkpt lat="51.277762334793806" lon="7.21787097863853">
        <ele>196.24600000000001</ele>
      </trkpt>
      <trkpt lat="51.277716821059585" lon="7.217298662289977">
        <ele>196.24600000000001</ele>
      </trkpt>
      <trkpt lat="51.27767943777144" lon="7.21696849912405">
        <ele>196.24600000000001</ele>
      </trkpt>
      <trkpt lat="51.277631493285298" lon="7.216507326811552">
        <ele>195.76599999999999</ele>
      </trkpt>
      <trkpt lat="51.277603497728705" lon="7.216027295216918">
        <ele>195.76599999999999</ele>
      </trkpt>
      <trkpt lat="51.277584386989474" lon="7.21554902382195">
        <ele>195.285</ele>
      </trkpt>
      <trkpt lat="51.277576675638556" lon="7.215298656374216">
        <ele>194.32400000000001</ele>
      </trkpt>
      <trkpt lat="51.277552619576454" lon="7.214682837948203">
        <ele>194.804</ele>
      </trkpt>
      <trkpt lat="51.277535269036889" lon="7.214254187420011">
        <ele>194.804</ele>
      </trkpt>
      <trkpt lat="51.27755337394774" lon="7.213789075613022">
        <ele>195.285</ele>
      </trkpt>
      <trkpt lat="51.277574747800827" lon="7.212888272479177">
        <ele>194.32400000000001</ele>
      </trkpt>
      <trkpt lat="51.2775968760252" lon="7.212511086836457">
        <ele>194.804</ele>
      </trkpt>
      <trkpt lat="51.277612382546067" lon="7.212339593097568">
        <ele>194.804</ele>
      </trkpt>
      <trkpt lat="51.277637025341392" lon="7.212091069668531">
        <ele>194.804</ele>
      </trkpt>
      <trkpt lat="51.277664266526699" lon="7.21190289594233">
        <ele>194.32400000000001</ele>
      </trkpt>
      <trkpt lat="51.277732830494642" lon="7.211571726948023">
        <ele>194.32400000000001</ele>
      </trkpt>
      <trkpt lat="51.277777422219515" lon="7.211368046700954">
        <ele>194.32400000000001</ele>
      </trkpt>
      <trkpt lat="51.277811788022518" lon="7.21123494207859">
        <ele>194.32400000000001</ele>
      </trkpt>
      <trkpt lat="51.277905916795135" lon="7.210914753377438">
        <ele>194.32400000000001</ele>
      </trkpt>
      <trkpt lat="51.277943970635533" lon="7.210791036486626">
        <ele>193.84299999999999</ele>
      </trkpt>
      <trkpt lat="51.278022425249219" lon="7.210560031235218">
        <ele>193.84299999999999</ele>
      </trkpt>
      <trkpt lat="51.278107920661569" lon="7.210367247462273">
        <ele>193.36199999999999</ele>
      </trkpt>
      <trkpt lat="51.278143124654889" lon="7.21025618724525">
        <ele>193.84299999999999</ele>
      </trkpt>
      <trkpt lat="51.278186123818159" lon="7.210150491446257">
        <ele>193.84299999999999</ele>
      </trkpt>
      <trkpt lat="51.278211856260896" lon="7.210068264976144">
        <ele>193.84299999999999</ele>
      </trkpt>
      <trkpt lat="51.278294082731009" lon="7.209777580574155">
        <ele>193.84299999999999</ele>
      </trkpt>
      <trkpt lat="51.278352756053209" lon="7.209598962217569">
        <ele>193.36199999999999</ele>
      </trkpt>
      <trkpt lat="51.278430456295609" lon="7.20927944406867">
        <ele>193.84299999999999</ele>
      </trkpt>
      <trkpt lat="51.278474293649197" lon="7.209069896489382">
        <ele>192.88200000000001</ele>
      </trkpt>
      <trkpt lat="51.278531458228827" lon="7.208756748586893">
        <ele>193.36199999999999</ele>
      </trkpt>
      <trkpt lat="51.278589377179742" lon="7.208258779719472">
        <ele>192.102</ele>
      </trkpt>
      <trkpt lat="51.278634304180741" lon="7.207714291289449">
        <ele>191.52699999999999</ele>
      </trkpt>
      <trkpt lat="51.27858099527657" lon="7.207107525318861">
        <ele>190.47800000000001</ele>
      </trkpt>
      <trkpt lat="51.278537828475237" lon="7.206911724060774">
        <ele>190.47800000000001</ele>
      </trkpt>
      <trkpt lat="51.2784637324512" lon="7.206504782661796">
        <ele>190.47800000000001</ele>
      </trkpt>
      <trkpt lat="51.278390642255545" lon="7.206155760213733">
        <ele>189.99799999999999</ele>
      </trkpt>
      <trkpt lat="51.277965093031526" lon="7.203888790681958">
        <ele>189.99799999999999</ele>
      </trkpt>
      <trkpt lat="51.277813799679279" lon="7.203313875943422">
        <ele>189.99799999999999</ele>
      </trkpt>
      <trkpt lat="51.277600228786469" lon="7.202577777206898">
        <ele>189.036</ele>
      </trkpt>
      <trkpt lat="51.277344329282641" lon="7.201777640730143">
        <ele>188.07499999999999</ele>
      </trkpt>
      <trkpt lat="51.277078120037913" lon="7.20111982896924">
        <ele>188.55600000000001</ele>
      </trkpt>
      <trkpt lat="51.276718033477664" lon="7.200454641133547">
        <ele>187.59399999999999</ele>
      </trkpt>
      <trkpt lat="51.276617785915732" lon="7.200312484055758">
        <ele>187.59399999999999</ele>
      </trkpt>
      <trkpt lat="51.276181172579527" lon="7.199754249304533">
        <ele>188.55600000000001</ele>
      </trkpt>
      <trkpt lat="51.275677336379886" lon="7.199230045080185">
        <ele>188.07499999999999</ele>
      </trkpt>
      <trkpt lat="51.275446666404605" lon="7.198976241052151">
        <ele>187.59399999999999</ele>
      </trkpt>
      <trkpt lat="51.275325128808618" lon="7.198872556909919">
        <ele>188.07499999999999</ele>
      </trkpt>
      <trkpt lat="51.274893041700125" lon="7.198405181989074">
        <ele>188.07499999999999</ele>
      </trkpt>
      <trkpt lat="51.274523483589292" lon="7.197898663580418">
        <ele>187.114</ele>
      </trkpt>
      <trkpt lat="51.274243276566267" lon="7.197503289207816">
        <ele>187.59399999999999</ele>
      </trkpt>
      <trkpt lat="51.274130959063768" lon="7.197298519313335">
        <ele>187.59399999999999</ele>
      </trkpt>
      <trkpt lat="51.273728292435408" lon="7.196579771116376">
        <ele>187.59399999999999</ele>
      </trkpt>
      <trkpt lat="51.273605581372976" lon="7.196363685652614">
        <ele>187.59399999999999</ele>
      </trkpt>
      <trkpt lat="51.273519080132246" lon="7.196183642372489">
        <ele>187.59399999999999</ele>
      </trkpt>
      <trkpt lat="51.27329302020371" lon="7.195758428424597">
        <ele>187.59399999999999</ele>
      </trkpt>
      <trkpt lat="51.273238873109221" lon="7.195627838373184">
        <ele>187.59399999999999</ele>
      </trkpt>
      <trkpt lat="51.272974843159318" lon="7.195052336901426">
        <ele>187.59399999999999</ele>
      </trkpt>
      <trkpt lat="51.272849030792713" lon="7.194621087983251">
        <ele>187.59399999999999</ele>
      </trkpt>
      <trkpt lat="51.272717015817761" lon="7.19400929287076">
        <ele>187.59399999999999</ele>
      </trkpt>
      <trkpt lat="51.272610146552324" lon="7.193357432261109">
        <ele>187.59399999999999</ele>
      </trkpt>
      <trkpt lat="51.272534625604749" lon="7.192795760929585">
        <ele>187.59399999999999</ele>
      </trkpt>
      <trkpt lat="51.272484334185719" lon="7.192123867571354">
        <ele>187.59399999999999</ele>
      </trkpt>
      <trkpt lat="51.272465474903584" lon="7.191622378304601">
        <ele>187.59399999999999</ele>
      </trkpt>
      <trkpt lat="51.272452902048826" lon="7.190920393913984">
        <ele>187.59399999999999</ele>
      </trkpt>
      <trkpt lat="51.272452902048826" lon="7.190258475020528">
        <ele>187.59399999999999</ele>
      </trkpt>
      <trkpt lat="51.272421469911933" lon="7.189626647159457">
        <ele>187.59399999999999</ele>
      </trkpt>
      <trkpt lat="51.27239003777504" lon="7.189024910330772">
        <ele>187.59399999999999</ele>
      </trkpt>
      <trkpt lat="51.272333459928632" lon="7.188383108004928">
        <ele>187.59399999999999</ele>
      </trkpt>
      <trkpt lat="51.27219507470727" lon="7.187650948762894">
        <ele>188.07499999999999</ele>
      </trkpt>
      <trkpt lat="51.272075632587075" lon="7.187109393998981">
        <ele>188.07499999999999</ele>
      </trkpt>
      <trkpt lat="51.271836664527655" lon="7.186297019943595">
        <ele>188.07499999999999</ele>
      </trkpt>
      <trkpt lat="51.27161018550396" lon="7.185575002804399">
        <ele>188.07499999999999</ele>
      </trkpt>
      <trkpt lat="51.271296786144376" lon="7.18452743254602">
        <ele>188.07499999999999</ele>
      </trkpt>
      <trkpt lat="51.271082041785121" lon="7.183558233082295">
        <ele>188.55600000000001</ele>
      </trkpt>
      <trkpt lat="51.271003251895308" lon="7.183114076033235">
        <ele>188.07499999999999</ele>
      </trkpt>
      <trkpt lat="51.270977854728699" lon="7.182877874001861">
        <ele>185.672</ele>
      </trkpt>
      <trkpt lat="51.270925467833877" lon="7.18254067003727">
        <ele>186.15199999999999</ele>
      </trkpt>
      <trkpt lat="51.270870985463262" lon="7.182233054190874">
        <ele>186.63300000000001</ele>
      </trkpt>
      <trkpt lat="51.270743748173118" lon="7.181528052315116">
        <ele>186.63300000000001</ele>
      </trkpt>
      <trkpt lat="51.270685326308012" lon="7.181244660168886">
        <ele>186.63300000000001</ele>
      </trkpt>
      <trkpt lat="51.270626988261938" lon="7.180978199467063">
        <ele>186.63300000000001</ele>
      </trkpt>
      <trkpt lat="51.270482651889324" lon="7.180221397429705">
        <ele>186.63300000000001</ele>
      </trkpt>
      <trkpt lat="51.270350720733404" lon="7.17953072860837">
        <ele>186.63300000000001</ele>
      </trkpt>
      <trkpt lat="51.270239325240254" lon="7.178977858275175">
        <ele>187.114</ele>
      </trkpt>
      <trkpt lat="51.270167576149106" lon="7.178526660427451">
        <ele>186.15199999999999</ele>
      </trkpt>
      <trkpt lat="51.270090797916055" lon="7.178138829767704">
        <ele>186.15199999999999</ele>
      </trkpt>
      <trkpt lat="51.270039668306708" lon="7.177912434563041">
        <ele>186.15199999999999</ele>
      </trkpt>
      <trkpt lat="51.269903462380171" lon="7.177221179008484">
        <ele>185.672</ele>
      </trkpt>
      <trkpt lat="51.269773123785853" lon="7.176564792171121">
        <ele>185.672</ele>
      </trkpt>
      <trkpt lat="51.269623758271337" lon="7.175822155550122">
        <ele>185.672</ele>
      </trkpt>
      <trkpt lat="51.269561648368835" lon="7.175541026517749">
        <ele>185.191</ele>
      </trkpt>
      <trkpt lat="51.269513117149472" lon="7.175310188904405">
        <ele>184.71100000000001</ele>
      </trkpt>
      <trkpt lat="51.269363248720765" lon="7.174525894224644">
        <ele>184.71100000000001</ele>
      </trkpt>
      <trkpt lat="51.269299797713757" lon="7.174120293930173">
        <ele>185.191</ele>
      </trkpt>
      <trkpt lat="51.269258391112089" lon="7.17388023622334">
        <ele>185.191</ele>
      </trkpt>
      <trkpt lat="51.269121430814266" lon="7.173063419759274">
        <ele>185.672</ele>
      </trkpt>
      <trkpt lat="51.268982794135809" lon="7.172038396820426">
        <ele>185.191</ele>
      </trkpt>
      <trkpt lat="51.26884994097054" lon="7.171087637543678">
        <ele>185.191</ele>
      </trkpt>
      <trkpt lat="51.268785651773214" lon="7.170222876593471">
        <ele>185.672</ele>
      </trkpt>
      <trkpt lat="51.268812641501427" lon="7.169369431212544">
        <ele>186.15199999999999</ele>
      </trkpt>
      <trkpt lat="51.268824124708772" lon="7.169075980782509">
        <ele>185.672</ele>
      </trkpt>
      <trkpt lat="51.268836949020624" lon="7.168806251138449">
        <ele>186.15199999999999</ele>
      </trkpt>
      <trkpt lat="51.268853629007936" lon="7.168562673032284">
        <ele>186.15199999999999</ele>
      </trkpt>
      <trkpt lat="51.268926551565528" lon="7.167879967018962">
        <ele>185.672</ele>
      </trkpt>
      <trkpt lat="51.268954798579216" lon="7.167240846902132">
        <ele>186.15199999999999</ele>
      </trkpt>
      <trkpt lat="51.268952284008265" lon="7.166580939665437">
        <ele>185.191</ele>
      </trkpt>
      <trkpt lat="51.268913056701422" lon="7.165974760428071">
        <ele>186.15199999999999</ele>
      </trkpt>
      <trkpt lat="51.268729073926806" lon="7.164851250126958">
        <ele>185.191</ele>
      </trkpt>
      <trkpt lat="51.268596136942506" lon="7.164293685927987">
        <ele>185.672</ele>
      </trkpt>
      <trkpt lat="51.268493961542845" lon="7.1639234572649">
        <ele>185.191</ele>
      </trkpt>
      <trkpt lat="51.268205959349871" lon="7.162918383255601">
        <ele>185.191</ele>
      </trkpt>
      <trkpt lat="51.268103197216988" lon="7.162577826529741">
        <ele>185.672</ele>
      </trkpt>
      <trkpt lat="51.268034717068076" lon="7.162343384698033">
        <ele>185.672</ele>
      </trkpt>
      <trkpt lat="51.267785858362913" lon="7.161462195217609">
        <ele>185.191</ele>
      </trkpt>
      <trkpt lat="51.267502550035715" lon="7.160466844215989">
        <ele>185.191</ele>
      </trkpt>
      <trkpt lat="51.267403978854418" lon="7.16008085757494">
        <ele>184.71100000000001</ele>
      </trkpt>
      <trkpt lat="51.267325356602669" lon="7.159717166796327">
        <ele>184.71100000000001</ele>
      </trkpt>
      <trkpt lat="51.267252350226045" lon="7.158827343955636">
        <ele>185.191</ele>
      </trkpt>
      <trkpt lat="51.267229467630386" lon="7.158282855525613">
        <ele>185.191</ele>
      </trkpt>
      <trkpt lat="51.267225695773959" lon="7.158056041225791">
        <ele>185.191</ele>
      </trkpt>
      <trkpt lat="51.267280681058764" lon="7.157238051295281">
        <ele>184.71100000000001</ele>
      </trkpt>
      <trkpt lat="51.267405990511179" lon="7.156474879011512">
        <ele>183.749</ele>
      </trkpt>
      <trkpt lat="51.267493916675448" lon="7.156060645356774">
        <ele>184.71100000000001</ele>
      </trkpt>
      <trkpt lat="51.267555439844728" lon="7.155834250152111">
        <ele>184.22999999999999</ele>
      </trkpt>
      <trkpt lat="51.267675636336207" lon="7.155328067019582">
        <ele>183.268</ele>
      </trkpt>
      <trkpt lat="51.268410058692098" lon="7.152804359793663">
        <ele>182.30699999999999</ele>
      </trkpt>
      <trkpt lat="51.268511898815632" lon="7.152358861640096">
        <ele>181.346</ele>
      </trkpt>
      <trkpt lat="51.268611140549183" lon="7.15168428607285">
        <ele>181.346</ele>
      </trkpt>
      <trkpt lat="51.268646260723472" lon="7.151347668841481">
        <ele>180.86500000000001</ele>
      </trkpt>
      <trkpt lat="51.268647098913789" lon="7.151020523160696">
        <ele>180.86500000000001</ele>
      </trkpt>
      <trkpt lat="51.268642237409949" lon="7.150771161541343">
        <ele>180.38499999999999</ele>
      </trkpt>
      <trkpt lat="51.268509970977902" lon="7.14993791654706">
        <ele>179.423</ele>
      </trkpt>
      <trkpt lat="51.26828852109611" lon="7.149002579972148">
        <ele>180.38499999999999</ele>
      </trkpt>
      <trkpt lat="51.268151644617319" lon="7.148447362706065">
        <ele>179.904</ele>
      </trkpt>
      <trkpt lat="51.268023066222668" lon="7.14812901802361">
        <ele>179.904</ele>
      </trkpt>
      <trkpt lat="51.267686616629362" lon="7.147357128560543">
        <ele>180.38499999999999</ele>
      </trkpt>
      <trkpt lat="51.26734396442771" lon="7.146503096446395">
        <ele>180.38499999999999</ele>
      </trkpt>
      <trkpt lat="51.267170123755932" lon="7.145678149536252">
        <ele>180.86500000000001</ele>
      </trkpt>
      <trkpt lat="51.267126454040408" lon="7.145283361896873">
        <ele>180.38499999999999</ele>
      </trkpt>
      <trkpt lat="51.26705864444375" lon="7.145123351365328">
        <ele>180.86500000000001</ele>
      </trkpt>
      <trkpt lat="51.266839792951941" lon="7.14445942081511">
        <ele>180.86500000000001</ele>
      </trkpt>
      <trkpt lat="51.266737366095185" lon="7.144151888787746">
        <ele>180.38499999999999</ele>
      </trkpt>
      <trkpt lat="51.266429834067822" lon="7.143249157816172">
        <ele>179.904</ele>
      </trkpt>
      <trkpt lat="51.266162283718586" lon="7.142270570620894">
        <ele>179.904</ele>
      </trkpt>
      <trkpt lat="51.265954244881868" lon="7.14113675057888">
        <ele>179.904</ele>
      </trkpt>
      <trkpt lat="51.265866486355662" lon="7.140287663787603">
        <ele>180.38499999999999</ele>
      </trkpt>
      <trkpt lat="51.265840837731957" lon="7.139903772622347">
        <ele>180.38499999999999</ele>
      </trkpt>
      <trkpt lat="51.265808986499906" lon="7.138693844899535">
        <ele>180.38499999999999</ele>
      </trkpt>
      <trkpt lat="51.265805885195732" lon="7.138349935412407">
        <ele>180.38499999999999</ele>
      </trkpt>
      <trkpt lat="51.265824157744646" lon="7.137540746480227">
        <ele>180.38499999999999</ele>
      </trkpt>
      <trkpt lat="51.265819882974029" lon="7.136529972776771">
        <ele>180.38499999999999</ele>
      </trkpt>
      <trkpt lat="51.265830527991056" lon="7.135813068598509">
        <ele>180.38499999999999</ele>
      </trkpt>
      <trkpt lat="51.26583069562912" lon="7.135390872135758">
        <ele>180.38499999999999</ele>
      </trkpt>
      <trkpt lat="51.265809321776032" lon="7.134702634066343">
        <ele>180.38499999999999</ele>
      </trkpt>
      <trkpt lat="51.265752324834466" lon="7.133893612772226">
        <ele>180.38499999999999</ele>
      </trkpt>
      <trkpt lat="51.265597259625793" lon="7.133084088563919">
        <ele>179.898</ele>
      </trkpt>
      <trkpt lat="51.265377150848508" lon="7.132351929321885">
        <ele>179.90899999999999</ele>
      </trkpt>
      <trkpt lat="51.265043634921312" lon="7.131375772878528">
        <ele>179.904</ele>
      </trkpt>
      <trkpt lat="51.264953026548028" lon="7.131233531981707">
        <ele>179.904</ele>
      </trkpt>
      <trkpt lat="51.264536445960402" lon="7.1305828448385">
        <ele>180.38499999999999</ele>
      </trkpt>
      <trkpt lat="51.264321785420179" lon="7.130295848473907">
        <ele>179.904</ele>
      </trkpt>
      <trkpt lat="51.264260765165091" lon="7.130194175988436">
        <ele>179.904</ele>
      </trkpt>
      <trkpt lat="51.263952730223536" lon="7.129733674228191">
        <ele>179.904</ele>
      </trkpt>
      <trkpt lat="51.263582166284323" lon="7.129162782803178">
        <ele>179.904</ele>
      </trkpt>
      <trkpt lat="51.263232892379165" lon="7.128621898591518">
        <ele>180.38499999999999</ele>
      </trkpt>
      <trkpt lat="51.262941788882017" lon="7.128043798729777">
        <ele>180.38499999999999</ele>
      </trkpt>
      <trkpt lat="51.262684464454651" lon="7.127351956441999">
        <ele>179.904</ele>
      </trkpt>
      <trkpt lat="51.26251875422895" lon="7.126655587926507">
        <ele>180.38499999999999</ele>
      </trkpt>
      <trkpt lat="51.26241272315383" lon="7.125857546925545">
        <ele>180.38499999999999</ele>
      </trkpt>
      <trkpt lat="51.262304428964853" lon="7.125046597793698">
        <ele>180.38499999999999</ele>
      </trkpt>
      <trkpt lat="51.262209797278047" lon="7.124257776886225">
        <ele>179.904</ele>
      </trkpt>
      <trkpt lat="51.262155817821622" lon="7.123465938493609">
        <ele>180.38499999999999</ele>
      </trkpt>
      <trkpt lat="51.262167636305094" lon="7.122936453670263">
        <ele>180.38499999999999</ele>
      </trkpt>
      <trkpt lat="51.262153973802924" lon="7.122151823714376">
        <ele>179.423</ele>
      </trkpt>
      <trkpt lat="51.262121368199587" lon="7.121413964778185">
        <ele>179.904</ele>
      </trkpt>
      <trkpt lat="51.262102928012609" lon="7.120762942358851">
        <ele>179.904</ele>
      </trkpt>
      <trkpt lat="51.262051044031978" lon="7.11953348480165">
        <ele>180.39099999999999</ele>
      </trkpt>
      <trkpt lat="51.261963034048676" lon="7.11852053180337">
        <ele>180.33199999999999</ele>
      </trkpt>
      <trkpt lat="51.261818362399936" lon="7.117166602984071">
        <ele>180.34800000000001</ele>
      </trkpt>
      <trkpt lat="51.261667488142848" lon="7.11607351899147">
        <ele>180.327</ele>
      </trkpt>
      <trkpt lat="51.261529102921486" lon="7.115281177684665">
        <ele>180.62899999999999</ele>
      </trkpt>
      <trkpt lat="51.26131528057158" lon="7.114619258791208">
        <ele>180.80500000000001</ele>
      </trkpt>
      <trkpt lat="51.261070109903812" lon="7.113847034052014">
        <ele>180.83600000000001</ele>
      </trkpt>
      <trkpt lat="51.260871877893806" lon="7.113357950001955">
        <ele>181.346</ele>
      </trkpt>
      <trkpt lat="51.260839775204659" lon="7.113237669691443">
        <ele>181.346</ele>
      </trkpt>
      <trkpt lat="51.260749250650406" lon="7.112989816814661">
        <ele>180.86500000000001</ele>
      </trkpt>
      <trkpt lat="51.260437946766615" lon="7.112218597903848">
        <ele>181.346</ele>
      </trkpt>
      <trkpt lat="51.260120524093509" lon="7.111547039821744">
        <ele>180.86500000000001</ele>
      </trkpt>
      <trkpt lat="51.260006278753281" lon="7.111333552747965">
        <ele>180.38499999999999</ele>
      </trkpt>
      <trkpt lat="51.259909635409713" lon="7.111145295202732">
        <ele>180.38499999999999</ele>
      </trkpt>
      <trkpt lat="51.259614927694201" lon="7.11055931635201">
        <ele>179.904</ele>
      </trkpt>
      <trkpt lat="51.259466232731938" lon="7.110292855650187">
        <ele>179.423</ele>
      </trkpt>
      <trkpt lat="51.259124167263508" lon="7.109592547640204">
        <ele>179.423</ele>
      </trkpt>
      <trkpt lat="51.258670873939991" lon="7.108683027327061">
        <ele>179.904</ele>
      </trkpt>
      <trkpt lat="51.258367532864213" lon="7.10806586779654">
        <ele>179.904</ele>
      </trkpt>
      <trkpt lat="51.258114818483591" lon="7.107574185356498">
        <ele>179.423</ele>
      </trkpt>
      <trkpt lat="51.257845256477594" lon="7.107055597007275">
        <ele>179.904</ele>
      </trkpt>
      <trkpt lat="51.257588267326355" lon="7.106545139104128">
        <ele>179.423</ele>
      </trkpt>
      <trkpt lat="51.257392968982458" lon="7.106194524094462">
        <ele>179.423</ele>
      </trkpt>
      <trkpt lat="51.257129274308681" lon="7.105621537193656">
        <ele>179.423</ele>
      </trkpt>
      <trkpt lat="51.25678519718349" lon="7.104961629956961">
        <ele>180.38499999999999</ele>
      </trkpt>
      <trkpt lat="51.256491662934422" lon="7.104372465983033">
        <ele>180.38499999999999</ele>
      </trkpt>
      <trkpt lat="51.256198631599545" lon="7.103795874863863">
        <ele>179.904</ele>
      </trkpt>
      <trkpt lat="51.255890680477023" lon="7.103175278753042">
        <ele>179.423</ele>
      </trkpt>
      <trkpt lat="51.255581472069025" lon="7.102520568296313">
        <ele>178.94300000000001</ele>
      </trkpt>
      <trkpt lat="51.255281735211611" lon="7.10180307738483">
        <ele>178.94300000000001</ele>
      </trkpt>
      <trkpt lat="51.255047461017966" lon="7.101322375237942">
        <ele>179.904</ele>
      </trkpt>
      <trkpt lat="51.25491083599627" lon="7.101028421893716">
        <ele>179.423</ele>
      </trkpt>
      <trkpt lat="51.254630880430341" lon="7.100394666194916">
        <ele>178.94300000000001</ele>
      </trkpt>
      <trkpt lat="51.254310188814998" lon="7.099743224680424">
        <ele>178.46199999999999</ele>
      </trkpt>
      <trkpt lat="51.254025623202324" lon="7.099171495065093">
        <ele>178.94300000000001</ele>
      </trkpt>
      <trkpt lat="51.253745164722204" lon="7.098709819838405">
        <ele>179.904</ele>
      </trkpt>
      <trkpt lat="51.253379294648767" lon="7.098152590915561">
        <ele>179.904</ele>
      </trkpt>
      <trkpt lat="51.253042761236429" lon="7.09750659763813">
        <ele>179.904</ele>
      </trkpt>
      <trkpt lat="51.252716118469834" lon="7.096864124760032">
        <ele>179.904</ele>
      </trkpt>
      <trkpt lat="51.252451585605741" lon="7.096340171992779">
        <ele>179.904</ele>
      </trkpt>
      <trkpt lat="51.252204151824117" lon="7.095836754888296">
        <ele>179.423</ele>
      </trkpt>
      <trkpt lat="51.251895865425467" lon="7.095242394134402">
        <ele>179.904</ele>
      </trkpt>
      <trkpt lat="51.251601492986083" lon="7.094628419727087">
        <ele>179.904</ele>
      </trkpt>
      <trkpt lat="51.251272922381759" lon="7.093992652371526">
        <ele>180.86500000000001</ele>
      </trkpt>
      <trkpt lat="51.250935131683946" lon="7.093346659094095">
        <ele>180.38499999999999</ele>
      </trkpt>
      <trkpt lat="51.250631120055914" lon="7.092671748250723">
        <ele>179.904</ele>
      </trkpt>
      <trkpt lat="51.250364575535059" lon="7.091949563473463">
        <ele>180.38499999999999</ele>
      </trkpt>
      <trkpt lat="51.250051092356443" lon="7.091334080323577">
        <ele>180.38499999999999</ele>
      </trkpt>
      <trkpt lat="51.24980952590704" lon="7.09083192050457">
        <ele>179.904</ele>
      </trkpt>
      <trkpt lat="51.249386826530099" lon="7.089987695217133">
        <ele>180.38499999999999</ele>
      </trkpt>
      <trkpt lat="51.249009473249316" lon="7.089233994483948">
        <ele>179.904</ele>
      </trkpt>
      <trkpt lat="51.248655673116446" lon="7.088443581014872">
        <ele>179.904</ele>
      </trkpt>
      <trkpt lat="51.248297430574894" lon="7.087745955213904">
        <ele>180.38499999999999</ele>
      </trkpt>
      <trkpt lat="51.247942792251706" lon="7.087088478729129">
        <ele>180.38499999999999</ele>
      </trkpt>
      <trkpt lat="51.247593434527516" lon="7.086386159062386">
        <ele>179.904</ele>
      </trkpt>
      <trkpt lat="51.247142320498824" lon="7.085512261837721">
        <ele>179.904</ele>
      </trkpt>
      <trkpt lat="51.24676245264709" lon="7.084762584418058">
        <ele>179.423</ele>
      </trkpt>
      <trkpt lat="51.24632122926414" lon="7.083960436284542">
        <ele>178.94300000000001</ele>
      </trkpt>
      <trkpt lat="51.24592887237668" lon="7.083275467157364">
        <ele>177.501</ele>
      </trkpt>
      <trkpt lat="51.245505083352327" lon="7.08261857740581">
        <ele>177.98099999999999</ele>
      </trkpt>
      <trkpt lat="51.245023626834154" lon="7.082113064825535">
        <ele>177.501</ele>
      </trkpt>
      <trkpt lat="51.244666138663888" lon="7.081851130351424">
        <ele>177.02000000000001</ele>
      </trkpt>
      <trkpt lat="51.244170181453228" lon="7.08155089057982">
        <ele>177.501</ele>
      </trkpt>
      <trkpt lat="51.243467358872294" lon="7.081274790689349">
        <ele>177.02000000000001</ele>
      </trkpt>
      <trkpt lat="51.242796638980508" lon="7.081036744639278">
        <ele>177.02000000000001</ele>
      </trkpt>
      <trkpt lat="51.242175372317433" lon="7.080827029421926">
        <ele>176.059</ele>
      </trkpt>
      <trkpt lat="51.241814531385899" lon="7.080711778253317">
        <ele>175.578</ele>
      </trkpt>
      <trkpt lat="51.241338020190597" lon="7.080515557900071">
        <ele>176.059</ele>
      </trkpt>
      <trkpt lat="51.240733433514833" lon="7.080295449122787">
        <ele>176.059</ele>
      </trkpt>
      <trkpt lat="51.240159189328551" lon="7.080086739733815">
        <ele>176.059</ele>
      </trkpt>
      <trkpt lat="51.239709248766303" lon="7.079924549907446">
        <ele>175.578</ele>
      </trkpt>
      <trkpt lat="51.239500287920237" lon="7.079963693395257">
        <ele>175.578</ele>
      </trkpt>
      <trkpt lat="51.239427784457803" lon="7.079970734193921">
        <ele>176.059</ele>
      </trkpt>
      <trkpt lat="51.239065434783697" lon="7.07989395596087">
        <ele>177.02000000000001</ele>
      </trkpt>
      <trkpt lat="51.238766117021441" lon="7.079827236011624">
        <ele>178.94300000000001</ele>
      </trkpt>
      <trkpt lat="51.238546343520284" lon="7.079776944592595">
        <ele>180.86500000000001</ele>
      </trkpt>
      <trkpt lat="51.238318523392081" lon="7.079701591283083">
        <ele>182.30699999999999</ele>
      </trkpt>
      <trkpt lat="51.238104030489922" lon="7.079833773896098">
        <ele>179.904</ele>
      </trkpt>
      <trkpt lat="51.237698681652546" lon="7.080217665061355">
        <ele>176.53899999999999</ele>
      </trkpt>
      <trkpt lat="51.237615784630179" lon="7.080295030027628">
        <ele>176.059</ele>
      </trkpt>
      <trkpt lat="51.237301798537374" lon="7.080695517361164">
        <ele>174.136</ele>
      </trkpt>
      <trkpt lat="51.237178836017847" lon="7.080622427165508">
        <ele>173.655</ele>
      </trkpt>
      <trkpt lat="51.236846325919032" lon="7.080066287890077">
        <ele>173.655</ele>
      </trkpt>
      <trkpt lat="51.236631330102682" lon="7.07965255714953">
        <ele>173.17500000000001</ele>
      </trkpt>
      <trkpt lat="51.236265627667308" lon="7.078941268846393">
        <ele>173.17500000000001</ele>
      </trkpt>
      <trkpt lat="51.235930016264319" lon="7.078231321647763">
        <ele>173.655</ele>
      </trkpt>
      <trkpt lat="51.235536653548479" lon="7.077358094975352">
        <ele>173.17500000000001</ele>
      </trkpt>
      <trkpt lat="51.235139770433307" lon="7.076401552185416">
        <ele>173.655</ele>
      </trkpt>
      <trkpt lat="51.234904741868377" lon="7.075844323262572">
        <ele>175.578</ele>
      </trkpt>
      <trkpt lat="51.234809355810285" lon="7.075649276375771">
        <ele>175.09700000000001</ele>
      </trkpt>
      <trkpt lat="51.234719585627317" lon="7.075480632483959">
        <ele>174.61699999999999</ele>
      </trkpt>
      <trkpt lat="51.234314488247037" lon="7.07453515380621">
        <ele>173.17500000000001</ele>
      </trkpt>
      <trkpt lat="51.233906038105488" lon="7.07355497404933">
        <ele>172.69399999999999</ele>
      </trkpt>
      <trkpt lat="51.2334995996207" lon="7.072620140388608">
        <ele>172.21299999999999</ele>
      </trkpt>
    </trkseg>
  </trk>

  <trk>
    <name>NW 4.06 Teil 2*</name>
    <extensions>
      <gpxx:TrackExtension xmlns:gpxx="http://www.garmin.com/xmlschemas/GpxExtensions/v3">
        <gpxx:DisplayColor>DarkGray</gpxx:DisplayColor>
      </gpxx:TrackExtension>
    </extensions>
    <trkseg>
      <trkpt lat="51.245780009776354" lon="7.082929965108633"/>
      <trkpt lat="51.244089966639876" lon="7.079509980976582"/>
      <trkpt lat="51.242880038917065" lon="7.077079983428121"/>
      <trkpt lat="51.242409981787205" lon="7.076099971309304"/>
    </trkseg>
  </trk>

</gpx>
