<?xml version="1.0" encoding="UTF-8" standalone="no" ?>
<gpx xmlns="http://www.topografix.com/GPX/1/1" creator="MapSource 6.16.3" version="1.1" xmlns:xsi="http://www.w3.org/2001/XMLSchema-instance" xsi:schemaLocation="http://www.topografix.com/GPX/1/1 http://www.topografix.com/GPX/1/1/gpx.xsd">

  <metadata>
    <link href="http://www.garmin.com">
      <text>Garmin International</text>
    </link>
    <time>2017-12-31T10:13:11Z</time>
    <bounds maxlat="51.190097015351057" maxlon="7.266538990661502" minlat="51.06650099158287" minlon="7.006083000451326"/>
  </metadata>

  <trk>
    <name>NW 4.11</name>
    <trkseg>
      <trkpt lat="51.190097015351057" lon="7.253201035782695">
        <ele>327.55399999999997</ele>
      </trkpt>
      <trkpt lat="51.189992995932698" lon="7.253226013854146">
        <ele>327.78199999999998</ele>
      </trkpt>
      <trkpt lat="51.189593011513352" lon="7.253264989703894">
        <ele>327.75700000000001</ele>
      </trkpt>
      <trkpt lat="51.189368041232228" lon="7.253302037715912">
        <ele>327.08600000000001</ele>
      </trkpt>
      <trkpt lat="51.18887803517282" lon="7.253379989415407">
        <ele>328.31200000000001</ele>
      </trkpt>
      <trkpt lat="51.188744008541107" lon="7.25340697914362">
        <ele>327.45699999999999</ele>
      </trkpt>
      <trkpt lat="51.18814998306334" lon="7.253517033532262">
        <ele>325.86500000000001</ele>
      </trkpt>
      <trkpt lat="51.18802098557353" lon="7.253529019653797">
        <ele>325.714</ele>
      </trkpt>
      <trkpt lat="51.187938004732132" lon="7.253546034917235">
        <ele>326.23500000000001</ele>
      </trkpt>
      <trkpt lat="51.187732983380556" lon="7.253590039908886">
        <ele>327.637</ele>
      </trkpt>
      <trkpt lat="51.187667017802596" lon="7.253588028252125">
        <ele>327.59500000000003</ele>
      </trkpt>
      <trkpt lat="51.187207018956542" lon="7.253594985231757">
        <ele>327.45699999999999</ele>
      </trkpt>
      <trkpt lat="51.1865150090307" lon="7.253566989675164">
        <ele>327.12200000000001</ele>
      </trkpt>
      <trkpt lat="51.186035983264446" lon="7.253570007160306">
        <ele>326.46300000000002</ele>
      </trkpt>
      <trkpt lat="51.185908997431397" lon="7.253566989675164">
        <ele>327.16300000000001</ele>
      </trkpt>
      <trkpt lat="51.185745969414711" lon="7.253581993281841">
        <ele>327.16300000000001</ele>
      </trkpt>
      <trkpt lat="51.185605991631746" lon="7.253601020202041">
        <ele>326.35899999999998</ele>
      </trkpt>
      <trkpt lat="51.184992017224431" lon="7.253575036302209">
        <ele>327.41000000000003</ele>
      </trkpt>
      <trkpt lat="51.184729998931289" lon="7.253518039360642">
        <ele>328.529</ele>
      </trkpt>
      <trkpt lat="51.184266982600093" lon="7.253158958628774">
        <ele>329.892</ele>
      </trkpt>
      <trkpt lat="51.183770019561052" lon="7.25276299752295">
        <ele>329.14499999999998</ele>
      </trkpt>
      <trkpt lat="51.183212958276272" lon="7.252112980931997">
        <ele>331.07499999999999</ele>
      </trkpt>
      <trkpt lat="51.183036016300321" lon="7.251912988722324">
        <ele>330.90800000000002</ele>
      </trkpt>
      <trkpt lat="51.182902995496988" lon="7.251764964312315">
        <ele>331.38900000000001</ele>
      </trkpt>
      <trkpt lat="51.182550033554435" lon="7.251376966014504">
        <ele>330.69099999999997</ele>
      </trkpt>
      <trkpt lat="51.182122975587845" lon="7.250923002138734">
        <ele>332.57799999999997</ele>
      </trkpt>
      <trkpt lat="51.181901022791862" lon="7.2507209982723">
        <ele>333.358</ele>
      </trkpt>
      <trkpt lat="51.181774036958814" lon="7.250632988288999">
        <ele>332.738</ele>
      </trkpt>
      <trkpt lat="51.181288976222277" lon="7.250319002196193">
        <ele>333.57100000000003</ele>
      </trkpt>
      <trkpt lat="51.180896032601595" lon="7.250112975016236">
        <ele>333.46100000000001</ele>
      </trkpt>
      <trkpt lat="51.180538041517138" lon="7.250008033588529">
        <ele>334.37299999999999</ele>
      </trkpt>
      <trkpt lat="51.180368978530169" lon="7.249984983354807">
        <ele>334.97800000000001</ele>
      </trkpt>
      <trkpt lat="51.180217014625669" lon="7.249977020546794">
        <ele>334.572</ele>
      </trkpt>
      <trkpt lat="51.179617960005999" lon="7.249995041638613">
        <ele>334.077</ele>
      </trkpt>
      <trkpt lat="51.179026030004025" lon="7.25016301497817">
        <ele>334.78300000000002</ele>
      </trkpt>
      <trkpt lat="51.178342988714576" lon="7.250559981912375">
        <ele>336.04000000000002</ele>
      </trkpt>
      <trkpt lat="51.177758015692234" lon="7.25104596465826">
        <ele>334.28300000000002</ele>
      </trkpt>
      <trkpt lat="51.177299022674561" lon="7.251438992097974">
        <ele>334.40600000000001</ele>
      </trkpt>
      <trkpt lat="51.176790995523334" lon="7.251883987337351">
        <ele>334.34300000000002</ele>
      </trkpt>
      <trkpt lat="51.17622496560216" lon="7.252392014488578">
        <ele>334.08600000000001</ele>
      </trkpt>
      <trkpt lat="51.175661031156778" lon="7.252917978912592">
        <ele>332.97399999999999</ele>
      </trkpt>
      <trkpt lat="51.175449974834919" lon="7.253121994435787">
        <ele>332.517</ele>
      </trkpt>
      <trkpt lat="51.174863995984197" lon="7.253632033243775">
        <ele>331.15499999999997</ele>
      </trkpt>
      <trkpt lat="51.174457976594567" lon="7.253974014893174">
        <ele>329.089</ele>
      </trkpt>
      <trkpt lat="51.173960007727146" lon="7.254366958513856">
        <ele>329.38200000000001</ele>
      </trkpt>
      <trkpt lat="51.173756998032331" lon="7.254578014835715">
        <ele>328.10000000000002</ele>
      </trkpt>
      <trkpt lat="51.173260034993291" lon="7.255017980933189">
        <ele>329.46499999999997</ele>
      </trkpt>
      <trkpt lat="51.172944959253073" lon="7.255330039188266">
        <ele>330.233</ele>
      </trkpt>
      <trkpt lat="51.172631978988647" lon="7.25570403970778">
        <ele>328.84399999999999</ele>
      </trkpt>
      <trkpt lat="51.172124035656452" lon="7.256552036851645">
        <ele>327.54500000000002</ele>
      </trkpt>
      <trkpt lat="51.171845002099872" lon="7.257185038179159">
        <ele>328.12</ele>
      </trkpt>
      <trkpt lat="51.171449963003397" lon="7.258159015327692">
        <ele>327.06999999999999</ele>
      </trkpt>
      <trkpt lat="51.171027012169361" lon="7.259192001074553">
        <ele>325.34199999999998</ele>
      </trkpt>
      <trkpt lat="51.17095903493464" lon="7.259372966364026">
        <ele>325.452</ele>
      </trkpt>
      <trkpt lat="51.170571036636829" lon="7.260316014289856">
        <ele>324.029</ele>
      </trkpt>
      <trkpt lat="51.170481014996767" lon="7.260550959035754">
        <ele>324.47800000000001</ele>
      </trkpt>
      <trkpt lat="51.170183960348368" lon="7.261257972568274">
        <ele>325.32499999999999</ele>
      </trkpt>
      <trkpt lat="51.169763021171093" lon="7.262159027159214">
        <ele>325.93000000000001</ele>
      </trkpt>
      <trkpt lat="51.169376028701663" lon="7.26277501322329">
        <ele>326.84699999999998</ele>
      </trkpt>
      <trkpt lat="51.169259017333388" lon="7.262932006269693">
        <ele>326.94400000000002</ele>
      </trkpt>
      <trkpt lat="51.168961962684989" lon="7.263277005404234">
        <ele>327.49700000000001</ele>
      </trkpt>
      <trkpt lat="51.168600032106042" lon="7.263617981225252">
        <ele>327.83800000000002</ele>
      </trkpt>
      <trkpt lat="51.168454019352794" lon="7.263737004250288">
        <ele>328.08199999999999</ele>
      </trkpt>
      <trkpt lat="51.168069960549474" lon="7.263986030593514">
        <ele>328.53800000000001</ele>
      </trkpt>
      <trkpt lat="51.167639968916774" lon="7.264227010309696">
        <ele>329.053</ele>
      </trkpt>
      <trkpt lat="51.167075028643012" lon="7.264420967549086">
        <ele>329.77499999999998</ele>
      </trkpt>
      <trkpt lat="51.166589967906475" lon="7.264624983072281">
        <ele>330.178</ele>
      </trkpt>
      <trkpt lat="51.166151007637382" lon="7.264817012473941">
        <ele>330.5</ele>
      </trkpt>
      <trkpt lat="51.165650021284819" lon="7.265018010511994">
        <ele>331.274</ele>
      </trkpt>
      <trkpt lat="51.165205026045442" lon="7.265175003558397">
        <ele>331.76499999999999</ele>
      </trkpt>
      <trkpt lat="51.164885004982352" lon="7.265339037403464">
        <ele>331.779</ele>
      </trkpt>
      <trkpt lat="51.164188971742988" lon="7.265636008232832">
        <ele>331.452</ele>
      </trkpt>
      <trkpt lat="51.163662001490593" lon="7.265859972685576">
        <ele>332.99400000000003</ele>
      </trkpt>
      <trkpt lat="51.163352960720658" lon="7.265993999317288">
        <ele>332.322</ele>
      </trkpt>
      <trkpt lat="51.163178030401468" lon="7.266091983765364">
        <ele>332.61799999999999</ele>
      </trkpt>
      <trkpt lat="51.162789026275277" lon="7.266175970435143">
        <ele>331.79399999999998</ele>
      </trkpt>
      <trkpt lat="51.162244034931064" lon="7.266253000125289">
        <ele>330.88900000000001</ele>
      </trkpt>
      <trkpt lat="51.162033984437585" lon="7.266271021217108">
        <ele>331.04700000000003</ele>
      </trkpt>
      <trkpt lat="51.161866011098027" lon="7.266286024823785">
        <ele>331.35599999999999</ele>
      </trkpt>
      <trkpt lat="51.161287995055318" lon="7.266367999836803">
        <ele>331.08499999999998</ele>
      </trkpt>
      <trkpt lat="51.160511998459697" lon="7.266419967636466">
        <ele>330.39499999999998</ele>
      </trkpt>
      <trkpt lat="51.159849995747209" lon="7.266414016485214">
        <ele>330.41300000000001</ele>
      </trkpt>
      <trkpt lat="51.159162009134889" lon="7.266456009820104">
        <ele>330.613</ele>
      </trkpt>
      <trkpt lat="51.158690024167299" lon="7.266501020640135">
        <ele>331.54300000000001</ele>
      </trkpt>
      <trkpt lat="51.158303031697869" lon="7.266520969569683">
        <ele>331.714</ele>
      </trkpt>
      <trkpt lat="51.158131035044789" lon="7.266538990661502">
        <ele>330.87400000000002</ele>
      </trkpt>
      <trkpt lat="51.157556036487222" lon="7.26653496734798">
        <ele>330.37</ele>
      </trkpt>
      <trkpt lat="51.15703996270895" lon="7.266394989565015">
        <ele>331.14699999999999</ele>
      </trkpt>
      <trkpt lat="51.156836031004786" lon="7.266327012330294">
        <ele>330.69999999999999</ele>
      </trkpt>
      <trkpt lat="51.156275030225515" lon="7.266118973493576">
        <ele>330.55500000000001</ele>
      </trkpt>
      <trkpt lat="51.155725009739399" lon="7.265900960192084">
        <ele>330.51499999999999</ele>
      </trkpt>
      <trkpt lat="51.155259981751442" lon="7.265740027651191">
        <ele>330.214</ele>
      </trkpt>
      <trkpt lat="51.15499502979219" lon="7.265636008232832">
        <ele>330.70400000000001</ele>
      </trkpt>
      <trkpt lat="51.154902996495366" lon="7.265587979927659">
        <ele>330.48599999999999</ele>
      </trkpt>
      <trkpt lat="51.1545679718256" lon="7.265474991872907">
        <ele>330.89600000000002</ele>
      </trkpt>
      <trkpt lat="51.154442997649312" lon="7.265427969396114">
        <ele>330.93900000000002</ele>
      </trkpt>
      <trkpt lat="51.154117025434971" lon="7.265294026583433">
        <ele>330.822</ele>
      </trkpt>
      <trkpt lat="51.153735984116793" lon="7.265156982466579">
        <ele>329.78399999999999</ele>
      </trkpt>
      <trkpt lat="51.153189986944199" lon="7.264962019398809">
        <ele>330.02499999999998</ele>
      </trkpt>
      <trkpt lat="51.15252697840333" lon="7.264676028862596">
        <ele>329.08999999999997</ele>
      </trkpt>
      <trkpt lat="51.15235498175025" lon="7.264605034142733">
        <ele>327.32100000000003</ele>
      </trkpt>
      <trkpt lat="51.151929013431072" lon="7.264399006962776">
        <ele>327.30500000000001</ele>
      </trkpt>
      <trkpt lat="51.15136600099504" lon="7.263994999229908">
        <ele>325.71899999999999</ele>
      </trkpt>
      <trkpt lat="51.150882029905915" lon="7.263574982061982">
        <ele>326.41899999999998</ele>
      </trkpt>
      <trkpt lat="51.150523032993078" lon="7.263096962124109">
        <ele>325.61399999999998</ele>
      </trkpt>
      <trkpt lat="51.150049036368728" lon="7.262336974963546">
        <ele>326.04700000000003</ele>
      </trkpt>
      <trkpt lat="51.149950968101621" lon="7.262176964432001">
        <ele>326.35399999999998</ele>
      </trkpt>
      <trkpt lat="51.149679981172085" lon="7.261632978916168">
        <ele>324.86000000000001</ele>
      </trkpt>
      <trkpt lat="51.149421986192465" lon="7.260855976492167">
        <ele>324.86200000000002</ele>
      </trkpt>
      <trkpt lat="51.149259964004159" lon="7.260289024561644">
        <ele>323.68099999999998</ele>
      </trkpt>
      <trkpt lat="51.149189975112677" lon="7.260070005431771">
        <ele>322.73399999999998</ele>
      </trkpt>
      <trkpt lat="51.149097019806504" lon="7.259560972452164">
        <ele>322.80799999999999</ele>
      </trkpt>
      <trkpt lat="51.149084027856588" lon="7.259285962209106">
        <ele>321.90800000000002</ele>
      </trkpt>
      <trkpt lat="51.148985037580132" lon="7.258773995563388">
        <ele>322.93799999999999</ele>
      </trkpt>
      <trkpt lat="51.148940026760101" lon="7.258450035005808">
        <ele>322.63299999999998</ele>
      </trkpt>
      <trkpt lat="51.14889401011169" lon="7.258183993399143">
        <ele>321.577</ele>
      </trkpt>
      <trkpt lat="51.148836007341743" lon="7.257828013971448">
        <ele>321.10599999999999</ele>
      </trkpt>
      <trkpt lat="51.148798037320375" lon="7.257551997900009">
        <ele>320.76999999999998</ele>
      </trkpt>
      <trkpt lat="51.148634003475308" lon="7.256547007709742">
        <ele>319.37599999999998</ele>
      </trkpt>
      <trkpt lat="51.148623023182154" lon="7.256475007161498">
        <ele>319.11500000000001</ele>
      </trkpt>
      <trkpt lat="51.148447003215551" lon="7.255389969795942">
        <ele>318.84100000000001</ele>
      </trkpt>
      <trkpt lat="51.148341977968812" lon="7.254753028973937">
        <ele>318.399</ele>
      </trkpt>
      <trkpt lat="51.148150032386184" lon="7.253542011603713">
        <ele>317.67700000000002</ele>
      </trkpt>
      <trkpt lat="51.148023968562484" lon="7.252787975594401">
        <ele>316.77800000000002</ele>
      </trkpt>
      <trkpt lat="51.147881979122758" lon="7.251831013709307">
        <ele>316.786</ele>
      </trkpt>
      <trkpt lat="51.147765973582864" lon="7.25108502432704">
        <ele>315.86200000000002</ele>
      </trkpt>
      <trkpt lat="51.147636976093054" lon="7.250329982489348">
        <ele>315.685</ele>
      </trkpt>
      <trkpt lat="51.14760403521359" lon="7.250197967514396">
        <ele>315.59300000000002</ele>
      </trkpt>
      <trkpt lat="51.147562963888049" lon="7.250031000003219">
        <ele>315.61799999999999</ele>
      </trkpt>
      <trkpt lat="51.147394990548491" lon="7.24930202588439">
        <ele>314.88299999999998</ele>
      </trkpt>
      <trkpt lat="51.147175971418619" lon="7.248561987653375">
        <ele>314.83600000000001</ele>
      </trkpt>
      <trkpt lat="51.146957958117127" lon="7.247809041291475">
        <ele>314.06200000000001</ele>
      </trkpt>
      <trkpt lat="51.146701974794269" lon="7.246936988085508">
        <ele>313.84500000000003</ele>
      </trkpt>
      <trkpt lat="51.14659602753818" lon="7.24652904085815">
        <ele>313.36599999999999</ele>
      </trkpt>
      <trkpt lat="51.146526038646698" lon="7.246323013678193">
        <ele>312.92700000000002</ele>
      </trkpt>
      <trkpt lat="51.146321017295122" lon="7.245654975995421">
        <ele>312.76999999999998</ele>
      </trkpt>
      <trkpt lat="51.146099986508489" lon="7.244945028796792">
        <ele>311.666</ele>
      </trkpt>
      <trkpt lat="51.145990015938878" lon="7.244528029114008">
        <ele>311.834</ele>
      </trkpt>
      <trkpt lat="51.145842997357249" lon="7.243848005309701">
        <ele>310.73700000000002</ele>
      </trkpt>
      <trkpt lat="51.145702013745904" lon="7.243077959865332">
        <ele>310.06299999999999</ele>
      </trkpt>
      <trkpt lat="51.145625989884138" lon="7.242555012926459">
        <ele>310.35000000000002</ele>
      </trkpt>
      <trkpt lat="51.145597994327545" lon="7.242297017946839">
        <ele>309.37099999999998</ele>
      </trkpt>
      <trkpt lat="51.145560024306178" lon="7.241797959432006">
        <ele>308.91899999999998</ele>
      </trkpt>
      <trkpt lat="51.145546026527882" lon="7.241457989439368">
        <ele>309.053</ele>
      </trkpt>
      <trkpt lat="51.145534040406346" lon="7.241273000836372">
        <ele>308.84300000000002</ele>
      </trkpt>
      <trkpt lat="51.14554300904274" lon="7.240920038893819">
        <ele>308.93900000000002</ele>
      </trkpt>
      <trkpt lat="51.145595982670784" lon="7.239803988486528">
        <ele>307.375</ele>
      </trkpt>
      <trkpt lat="51.145690027624369" lon="7.238706964999437">
        <ele>307.36000000000001</ele>
      </trkpt>
      <trkpt lat="51.145743001252413" lon="7.238084021955729">
        <ele>306.774</ele>
      </trkpt>
      <trkpt lat="51.145793963223696" lon="7.237435011193156">
        <ele>305.79599999999999</ele>
      </trkpt>
      <trkpt lat="51.145873004570603" lon="7.236478971317411">
        <ele>305.87200000000001</ele>
      </trkpt>
      <trkpt lat="51.145957997068763" lon="7.235572971403599">
        <ele>305.96800000000002</ele>
      </trkpt>
      <trkpt lat="51.146066961809993" lon="7.23447703756392">
        <ele>305.90499999999997</ele>
      </trkpt>
      <trkpt lat="51.1461460031569" lon="7.2336820140481">
        <ele>306.70600000000002</ele>
      </trkpt>
      <trkpt lat="51.146190008148551" lon="7.233099974691868">
        <ele>305.97899999999998</ele>
      </trkpt>
      <trkpt lat="51.14625396206975" lon="7.232152987271547">
        <ele>305.84199999999998</ele>
      </trkpt>
      <trkpt lat="51.146238036453724" lon="7.231279006227851">
        <ele>306.83100000000002</ele>
      </trkpt>
      <trkpt lat="51.146210040897131" lon="7.231023022904992">
        <ele>306.85599999999999</ele>
      </trkpt>
      <trkpt lat="51.146181039512157" lon="7.230895031243563">
        <ele>306.33699999999999</ele>
      </trkpt>
      <trkpt lat="51.146141979843378" lon="7.230768967419863">
        <ele>305.74099999999999</ele>
      </trkpt>
      <trkpt lat="51.146052964031696" lon="7.230061031877995">
        <ele>307.03199999999998</ele>
      </trkpt>
      <trkpt lat="51.14590703509748" lon="7.229382013902068">
        <ele>306.76999999999998</ele>
      </trkpt>
      <trkpt lat="51.145918015390635" lon="7.228918997570872">
        <ele>307.25599999999997</ele>
      </trkpt>
      <trkpt lat="51.145846014842391" lon="7.228433014824987">
        <ele>306.89800000000002</ele>
      </trkpt>
      <trkpt lat="51.145760016515851" lon="7.227958012372255">
        <ele>307.565</ele>
      </trkpt>
      <trkpt lat="51.145713999867439" lon="7.227750979363918">
        <ele>306.13099999999997</ele>
      </trkpt>
      <trkpt lat="51.145597994327545" lon="7.227551992982626">
        <ele>307.19099999999997</ele>
      </trkpt>
      <trkpt lat="51.145304040983319" lon="7.227723989635706">
        <ele>304.702</ele>
      </trkpt>
      <trkpt lat="51.14522198215127" lon="7.228090027347207">
        <ele>304.11700000000002</ele>
      </trkpt>
      <trkpt lat="51.145220976322889" lon="7.228838028386235">
        <ele>303.33499999999998</ele>
      </trkpt>
      <trkpt lat="51.145130032673478" lon="7.229015976190567">
        <ele>304.01799999999997</ele>
      </trkpt>
      <trkpt lat="51.145067000761628" lon="7.228889996185899">
        <ele>304.64600000000002</ele>
      </trkpt>
      <trkpt lat="51.144770029932261" lon="7.228113999590278">
        <ele>304.55200000000002</ele>
      </trkpt>
      <trkpt lat="51.144442968070507" lon="7.227184027433395">
        <ele>303.55200000000002</ele>
      </trkpt>
      <trkpt lat="51.143964026123285" lon="7.225909978151321">
        <ele>303.29599999999999</ele>
      </trkpt>
      <trkpt lat="51.143886996433139" lon="7.225699005648494">
        <ele>301.98700000000002</ele>
      </trkpt>
      <trkpt lat="51.143557000905275" lon="7.224782025441527">
        <ele>301.56099999999998</ele>
      </trkpt>
      <trkpt lat="51.14322298206389" lon="7.223749961704016">
        <ele>301.714</ele>
      </trkpt>
      <trkpt lat="51.143003962934017" lon="7.223070021718741">
        <ele>302.44099999999997</ele>
      </trkpt>
      <trkpt lat="51.142884017899632" lon="7.222871035337448">
        <ele>303.17200000000003</ele>
      </trkpt>
      <trkpt lat="51.14266499876976" lon="7.222197968512774">
        <ele>302.46600000000001</ele>
      </trkpt>
      <trkpt lat="51.142563996836543" lon="7.221894040703774">
        <ele>302.315</ele>
      </trkpt>
      <trkpt lat="51.142610013484955" lon="7.221615007147193">
        <ele>302.57100000000003</ele>
      </trkpt>
      <trkpt lat="51.143104964867234" lon="7.221314013004303">
        <ele>305.07400000000001</ele>
      </trkpt>
      <trkpt lat="51.143602011725307" lon="7.220958033576608">
        <ele>307.35599999999999</ele>
      </trkpt>
      <trkpt lat="51.143523976206779" lon="7.220151023939252">
        <ele>306.09300000000002</ele>
      </trkpt>
      <trkpt lat="51.143311997875571" lon="7.219281988218427">
        <ele>305.495</ele>
      </trkpt>
      <trkpt lat="51.143097002059221" lon="7.218548990786076">
        <ele>306.31099999999998</ele>
      </trkpt>
      <trkpt lat="51.142747979611158" lon="7.217318024486303">
        <ele>305.31099999999998</ele>
      </trkpt>
      <trkpt lat="51.142522003501654" lon="7.216542027890682">
        <ele>302.86200000000002</ele>
      </trkpt>
      <trkpt lat="51.142504988238215" lon="7.21647497266531">
        <ele>304.18700000000001</ele>
      </trkpt>
      <trkpt lat="51.142486967146397" lon="7.216337006539106">
        <ele>302.84500000000003</ele>
      </trkpt>
      <trkpt lat="51.14242997020483" lon="7.215909026563168">
        <ele>302.517</ele>
      </trkpt>
      <trkpt lat="51.142081031575799" lon="7.215116014704108">
        <ele>301.774</ele>
      </trkpt>
      <trkpt lat="51.141777019947767" lon="7.214751988649368">
        <ele>301.94099999999997</ele>
      </trkpt>
      <trkpt lat="51.141161033883691" lon="7.214212026447058">
        <ele>303.54199999999997</ele>
      </trkpt>
      <trkpt lat="51.140699023380876" lon="7.213779017329216">
        <ele>304.96699999999998</ele>
      </trkpt>
      <trkpt lat="51.140222009271383" lon="7.213493026793003">
        <ele>305.76100000000002</ele>
      </trkpt>
      <trkpt lat="51.139804003760219" lon="7.21325296908617">
        <ele>306.108</ele>
      </trkpt>
      <trkpt lat="51.13929002545774" lon="7.212979970499873">
        <ele>306.33600000000001</ele>
      </trkpt>
      <trkpt lat="51.138766994699836" lon="7.212774027138948">
        <ele>306.98399999999998</ele>
      </trkpt>
      <trkpt lat="51.138616036623716" lon="7.212642012163997">
        <ele>307.05200000000002</ele>
      </trkpt>
      <trkpt lat="51.138556022197008" lon="7.21249901689589">
        <ele>306.84699999999998</ele>
      </trkpt>
      <trkpt lat="51.138441022485495" lon="7.212454006075859">
        <ele>306.67899999999997</ele>
      </trkpt>
      <trkpt lat="51.138244969770312" lon="7.212314028292894">
        <ele>305.94799999999998</ele>
      </trkpt>
      <trkpt lat="51.138110021129251" lon="7.212142031639814">
        <ele>305.029</ele>
      </trkpt>
      <trkpt lat="51.137987980619073" lon="7.211948996409774">
        <ele>305.29599999999999</ele>
      </trkpt>
      <trkpt lat="51.13750702701509" lon="7.211260003969073">
        <ele>303.50400000000002</ele>
      </trkpt>
      <trkpt lat="51.137394038960338" lon="7.211116002872586">
        <ele>303.92899999999997</ele>
      </trkpt>
      <trkpt lat="51.136767994612455" lon="7.210110006853938">
        <ele>301.53500000000003</ele>
      </trkpt>
      <trkpt lat="51.136401034891605" lon="7.209545988589525">
        <ele>301.80799999999999</ele>
      </trkpt>
      <trkpt lat="51.136092999950051" lon="7.209024969488382">
        <ele>301.82299999999998</ele>
      </trkpt>
      <trkpt lat="51.136069027706981" lon="7.208509985357523">
        <ele>302.63</ele>
      </trkpt>
      <trkpt lat="51.136114038527012" lon="7.208328014239669">
        <ele>301.22000000000003</ele>
      </trkpt>
      <trkpt lat="51.136053018271923" lon="7.207431988790631">
        <ele>303.71600000000001</ele>
      </trkpt>
      <trkpt lat="51.135999960824847" lon="7.20717097632587">
        <ele>303.53199999999998</ele>
      </trkpt>
      <trkpt lat="51.135806003585458" lon="7.20708497799933">
        <ele>302.49799999999999</ele>
      </trkpt>
      <trkpt lat="51.135625960305333" lon="7.207211963832378">
        <ele>303.76499999999999</ele>
      </trkpt>
      <trkpt lat="51.135545996949077" lon="7.207268960773945">
        <ele>304.40699999999998</ele>
      </trkpt>
      <trkpt lat="51.135319015011191" lon="7.207169970497489">
        <ele>303.38200000000001</ele>
      </trkpt>
      <trkpt lat="51.135237039998174" lon="7.206980036571622">
        <ele>301.71899999999999</ele>
      </trkpt>
      <trkpt lat="51.134860021993518" lon="7.206123992800713">
        <ele>297.97800000000001</ele>
      </trkpt>
      <trkpt lat="51.134668998420238" lon="7.205678997561336">
        <ele>295.50200000000001</ele>
      </trkpt>
      <trkpt lat="51.134459031745791" lon="7.20519301481545">
        <ele>291.72300000000001</ele>
      </trkpt>
      <trkpt lat="51.134398011490703" lon="7.205074997618794">
        <ele>291.42899999999997</ele>
      </trkpt>
      <trkpt lat="51.133736008778214" lon="7.204019967466593">
        <ele>290.14499999999998</ele>
      </trkpt>
      <trkpt lat="51.133154975250363" lon="7.203360982239246">
        <ele>287.13</ele>
      </trkpt>
      <trkpt lat="51.132297003641725" lon="7.202645000070334">
        <ele>283.779</ele>
      </trkpt>
      <trkpt lat="51.131330989301205" lon="7.201932035386562">
        <ele>280.50999999999999</ele>
      </trkpt>
      <trkpt lat="51.130514005199075" lon="7.201204989105463">
        <ele>279.36900000000003</ele>
      </trkpt>
      <trkpt lat="51.130228014662862" lon="7.200850015506148">
        <ele>280.42500000000001</ele>
      </trkpt>
      <trkpt lat="51.130027016624808" lon="7.200699979439378">
        <ele>280.75700000000001</ele>
      </trkpt>
      <trkpt lat="51.129705989733338" lon="7.200306029990315">
        <ele>281.76400000000001</ele>
      </trkpt>
      <trkpt lat="51.129556959494948" lon="7.199861034750938">
        <ele>281.46800000000002</ele>
      </trkpt>
      <trkpt lat="51.129326038062572" lon="7.199634974822402">
        <ele>281.85899999999998</ele>
      </trkpt>
      <trkpt lat="51.128906020894647" lon="7.199476975947619">
        <ele>283.57499999999999</ele>
      </trkpt>
      <trkpt lat="51.128604020923376" lon="7.199480999261141">
        <ele>284.14100000000002</ele>
      </trkpt>
      <trkpt lat="51.128200013190508" lon="7.199439005926251">
        <ele>284.42700000000002</ele>
      </trkpt>
      <trkpt lat="51.128027010709047" lon="7.199387038126588">
        <ele>283.983</ele>
      </trkpt>
      <trkpt lat="51.127804974094033" lon="7.199253011494875">
        <ele>282.17099999999999</ele>
      </trkpt>
      <trkpt lat="51.127332989126444" lon="7.199042038992047">
        <ele>279.16699999999997</ele>
      </trkpt>
      <trkpt lat="51.127125034108758" lon="7.198778009042144">
        <ele>276.15800000000002</ele>
      </trkpt>
      <trkpt lat="51.126858992502093" lon="7.198360003530979">
        <ele>273.56900000000002</ele>
      </trkpt>
      <trkpt lat="51.126648019999266" lon="7.198208039626479">
        <ele>273.32999999999998</ele>
      </trkpt>
      <trkpt lat="51.126052988693118" lon="7.197648966684938">
        <ele>272.06700000000001</ele>
      </trkpt>
      <trkpt lat="51.12552098929882" lon="7.197086038067937">
        <ele>271.44</ele>
      </trkpt>
      <trkpt lat="51.124830991029739" lon="7.196326972916722">
        <ele>270.70400000000001</ele>
      </trkpt>
      <trkpt lat="51.124207964166999" lon="7.195652984082699">
        <ele>269.13299999999998</ele>
      </trkpt>
      <trkpt lat="51.123506985604763" lon="7.194913029670715">
        <ele>267.755</ele>
      </trkpt>
      <trkpt lat="51.123340018093586" lon="7.194711025804281">
        <ele>267.58600000000001</ele>
      </trkpt>
      <trkpt lat="51.123165003955364" lon="7.194510027766228">
        <ele>267.82499999999999</ele>
      </trkpt>
      <trkpt lat="51.122787985950708" lon="7.194125968962908">
        <ele>266.89299999999997</ele>
      </trkpt>
      <trkpt lat="51.122419014573097" lon="7.193769989535213">
        <ele>265.601</ele>
      </trkpt>
      <trkpt lat="51.122323963791132" lon="7.193659013137221">
        <ele>266.12700000000001</ele>
      </trkpt>
      <trkpt lat="51.121762041002512" lon="7.193072028458118">
        <ele>264.50400000000002</ele>
      </trkpt>
      <trkpt lat="51.121412012726068" lon="7.192679001018405">
        <ele>264.39999999999998</ele>
      </trkpt>
      <trkpt lat="51.120995013043284" lon="7.192246997728944">
        <ele>262.96199999999999</ele>
      </trkpt>
      <trkpt lat="51.120493020862341" lon="7.191697983071208">
        <ele>262.88299999999998</ele>
      </trkpt>
      <trkpt lat="51.120010977610946" lon="7.191191967576742">
        <ele>261.40199999999999</ele>
      </trkpt>
      <trkpt lat="51.11950496211648" lon="7.190654017031193">
        <ele>260.52999999999997</ele>
      </trkpt>
      <trkpt lat="51.119272029027343" lon="7.190407002344728">
        <ele>260.90100000000001</ele>
      </trkpt>
      <trkpt lat="51.118768025189638" lon="7.189890006557107">
        <ele>259.66300000000001</ele>
      </trkpt>
      <trkpt lat="51.118290005251765" lon="7.189343003556132">
        <ele>259.57600000000002</ele>
      </trkpt>
      <trkpt lat="51.118084983900189" lon="7.189118033275008">
        <ele>258.94099999999997</ele>
      </trkpt>
      <trkpt lat="51.117917010560632" lon="7.188943019136787">
        <ele>258.99000000000001</ele>
      </trkpt>
      <trkpt lat="51.117393979802728" lon="7.188451001420617">
        <ele>256.73099999999999</ele>
      </trkpt>
      <trkpt lat="51.116760978475213" lon="7.187724960967898">
        <ele>254.84</ele>
      </trkpt>
      <trkpt lat="51.116254040971398" lon="7.187163960188627">
        <ele>253.34100000000001</ele>
      </trkpt>
      <trkpt lat="51.115561025217175" lon="7.186431968584657">
        <ele>252.99700000000001</ele>
      </trkpt>
      <trkpt lat="51.115069007501006" lon="7.185898963361979">
        <ele>251.22</ele>
      </trkpt>
      <trkpt lat="51.115031037479639" lon="7.185593023896217">
        <ele>252.99100000000001</ele>
      </trkpt>
      <trkpt lat="51.114976974204183" lon="7.185483975335956">
        <ele>253.06299999999999</ele>
      </trkpt>
      <trkpt lat="51.114731971174479" lon="7.185183987021446">
        <ele>255.52000000000001</ele>
      </trkpt>
      <trkpt lat="51.114407004788518" lon="7.185025988146663">
        <ele>253.589</ele>
      </trkpt>
      <trkpt lat="51.114311031997204" lon="7.184946024790406">
        <ele>253.25299999999999</ele>
      </trkpt>
      <trkpt lat="51.114064017310739" lon="7.184786014258862">
        <ele>250.55799999999999</ele>
      </trkpt>
      <trkpt lat="51.113823037594557" lon="7.184537993744016">
        <ele>248.797</ele>
      </trkpt>
      <trkpt lat="51.11329497769475" lon="7.183900969102979">
        <ele>247.547</ele>
      </trkpt>
      <trkpt lat="51.112932041287422" lon="7.183389002457261">
        <ele>247.07900000000001</ele>
      </trkpt>
      <trkpt lat="51.112573966383934" lon="7.182748960331082">
        <ele>246.91399999999999</ele>
      </trkpt>
      <trkpt lat="51.112433988600969" lon="7.182419970631599">
        <ele>246.322</ele>
      </trkpt>
      <trkpt lat="51.112342961132526" lon="7.182259038090706">
        <ele>246.465</ele>
      </trkpt>
      <trkpt lat="51.112057976424694" lon="7.181570967659354">
        <ele>245.78700000000001</ele>
      </trkpt>
      <trkpt lat="51.111899977549911" lon="7.181238038465381">
        <ele>245.053</ele>
      </trkpt>
      <trkpt lat="51.111832000315189" lon="7.181114992126823">
        <ele>244.07400000000001</ele>
      </trkpt>
      <trkpt lat="51.111662015318871" lon="7.180757001042366">
        <ele>244.05699999999999</ele>
      </trkpt>
      <trkpt lat="51.111527988687158" lon="7.180276969447732">
        <ele>246.55000000000001</ele>
      </trkpt>
      <trkpt lat="51.111316010355949" lon="7.179753016680479">
        <ele>249.042</ele>
      </trkpt>
      <trkpt lat="51.111065978184342" lon="7.179371975362301">
        <ele>246.04900000000001</ele>
      </trkpt>
      <trkpt lat="51.110894987359643" lon="7.178958998993039">
        <ele>242.744</ele>
      </trkpt>
      <trkpt lat="51.110692983493209" lon="7.178496988490224">
        <ele>239.73400000000001</ele>
      </trkpt>
      <trkpt lat="51.110251005738974" lon="7.177513036876917">
        <ele>238.61500000000001</ele>
      </trkpt>
      <trkpt lat="51.109865019097924" lon="7.176590021699667">
        <ele>237.197</ele>
      </trkpt>
      <trkpt lat="51.109451036900282" lon="7.175640016794205">
        <ele>235.458</ele>
      </trkpt>
      <trkpt lat="51.109236041083932" lon="7.175126960501075">
        <ele>236.304</ele>
      </trkpt>
      <trkpt lat="51.108973016962409" lon="7.174564031884074">
        <ele>236.06</ele>
      </trkpt>
      <trkpt lat="51.108791967853904" lon="7.174140997231007">
        <ele>236.24799999999999</ele>
      </trkpt>
      <trkpt lat="51.108521986752748" lon="7.173510007560253">
        <ele>234.27000000000001</ele>
      </trkpt>
      <trkpt lat="51.108403969556093" lon="7.173254024237394">
        <ele>233.54300000000001</ele>
      </trkpt>
      <trkpt lat="51.107986969873309" lon="7.172259008511901">
        <ele>233.23599999999999</ele>
      </trkpt>
      <trkpt lat="51.107841962948442" lon="7.171916021034122">
        <ele>233.45699999999999</ele>
      </trkpt>
      <trkpt lat="51.107763005420566" lon="7.171734971925616">
        <ele>231.911</ele>
      </trkpt>
      <trkpt lat="51.107524037361145" lon="7.171273967251182">
        <ele>232.43899999999999</ele>
      </trkpt>
      <trkpt lat="51.107210973277688" lon="7.170584974810481">
        <ele>231.34100000000001</ele>
      </trkpt>
      <trkpt lat="51.107025984674692" lon="7.170113995671272">
        <ele>230.26900000000001</ele>
      </trkpt>
      <trkpt lat="51.106836972758174" lon="7.169626001268625">
        <ele>229.49100000000001</ele>
      </trkpt>
      <trkpt lat="51.106431037187576" lon="7.168631991371512">
        <ele>227.33600000000001</ele>
      </trkpt>
      <trkpt lat="51.106315031647682" lon="7.168339965865016">
        <ele>227.17400000000001</ele>
      </trkpt>
      <trkpt lat="51.105887973681092" lon="7.167134983465076">
        <ele>225.905</ele>
      </trkpt>
      <trkpt lat="51.105616986751556" lon="7.166292015463114">
        <ele>225.94300000000001</ele>
      </trkpt>
      <trkpt lat="51.105591002851725" lon="7.166216997429729">
        <ele>225.98699999999999</ele>
      </trkpt>
      <trkpt lat="51.105384975671768" lon="7.165407976135612">
        <ele>225.25200000000001</ele>
      </trkpt>
      <trkpt lat="51.105028996244073" lon="7.164269965142012">
        <ele>224.435</ele>
      </trkpt>
      <trkpt lat="51.10476303845644" lon="7.163480976596475">
        <ele>223.97999999999999</ele>
      </trkpt>
      <trkpt lat="51.104489034041762" lon="7.162677990272641">
        <ele>223.95500000000001</ele>
      </trkpt>
      <trkpt lat="51.104200026020408" lon="7.161823036149144">
        <ele>225.03299999999999</ele>
      </trkpt>
      <trkpt lat="51.103956028819084" lon="7.161330012604594">
        <ele>225.773</ele>
      </trkpt>
      <trkpt lat="51.103796018287539" lon="7.160846963524818">
        <ele>225.77699999999999</ele>
      </trkpt>
      <trkpt lat="51.10296000726521" lon="7.157980017364025"/>
      <trkpt lat="51.102769989520311" lon="7.157060019671917"/>
      <trkpt lat="51.102500008419156" lon="7.156050000339747"/>
      <trkpt lat="51.102300016209483" lon="7.155299987643957"/>
      <trkpt lat="51.10205995850265" lon="7.154570007696748"/>
      <trkpt lat="51.101680006831884" lon="7.153120022267103"/>
      <trkpt lat="51.101380018517375" lon="7.152070021256805"/>
      <trkpt lat="51.101120011880994" lon="7.151269968599081"/>
      <trkpt lat="51.100869979709387" lon="7.150520039722323"/>
      <trkpt lat="51.100579965859652" lon="7.149830041453242"/>
      <trkpt lat="51.10031995922327" lon="7.149199973791838"/>
      <trkpt lat="51.100139999762177" lon="7.1488600037992"/>
      <trkpt lat="51.09990899451077" lon="7.148465970531106">
        <ele>216.768</ele>
      </trkpt>
      <trkpt lat="51.099787037819624" lon="7.148248963057995">
        <ele>217.375</ele>
      </trkpt>
      <trkpt lat="51.099627027288079" lon="7.148001026362181">
        <ele>216.92599999999999</ele>
      </trkpt>
      <trkpt lat="51.099466010928154" lon="7.147767003625631">
        <ele>216.87299999999999</ele>
      </trkpt>
      <trkpt lat="51.099390992894769" lon="7.147673964500427">
        <ele>216.59299999999999</ele>
      </trkpt>
      <trkpt lat="51.098882965743542" lon="7.147173983976245">
        <ele>215.863</ele>
      </trkpt>
      <trkpt lat="51.098671993240714" lon="7.146966028958559">
        <ele>216.202</ele>
      </trkpt>
      <trkpt lat="51.098187016323209" lon="7.14651701040566">
        <ele>214.47800000000001</ele>
      </trkpt>
      <trkpt lat="51.097448989748955" lon="7.145837992429733">
        <ele>212.995</ele>
      </trkpt>
      <trkpt lat="51.096714986488223" lon="7.145166015252471">
        <ele>211.28200000000001</ele>
      </trkpt>
      <trkpt lat="51.096393037587404" lon="7.144897039979696">
        <ele>210.815</ele>
      </trkpt>
      <trkpt lat="51.096226992085576" lon="7.144748009741306">
        <ele>210.81399999999999</ele>
      </trkpt>
      <trkpt lat="51.096092965453863" lon="7.144615994766355">
        <ele>210.43299999999999</ele>
      </trkpt>
      <trkpt lat="51.095970002934337" lon="7.144475011155009">
        <ele>210.30099999999999</ele>
      </trkpt>
      <trkpt lat="51.095649981871247" lon="7.144193965941668">
        <ele>210.19200000000001</ele>
      </trkpt>
      <trkpt lat="51.095413025468588" lon="7.144086007028818">
        <ele>209.75399999999999</ele>
      </trkpt>
      <trkpt lat="51.095136003568769" lon="7.143589965999126">
        <ele>209.45599999999999</ele>
      </trkpt>
      <trkpt lat="51.09481799416244" lon="7.143093002960086">
        <ele>208.49100000000001</ele>
      </trkpt>
      <trkpt lat="51.094681033864617" lon="7.142855962738395">
        <ele>208.57499999999999</ele>
      </trkpt>
      <trkpt lat="51.094561005011201" lon="7.142625041306019">
        <ele>208.21700000000001</ele>
      </trkpt>
      <trkpt lat="51.094452040269971" lon="7.142458995804191">
        <ele>207.619</ele>
      </trkpt>
      <trkpt lat="51.094208965077996" lon="7.141836974769831">
        <ele>207.048</ele>
      </trkpt>
      <trkpt lat="51.094014002010226" lon="7.141292989253998">
        <ele>207.01900000000001</ele>
      </trkpt>
      <trkpt lat="51.093793977051973" lon="7.140390006825328">
        <ele>205.06899999999999</ele>
      </trkpt>
      <trkpt lat="51.093604965135455" lon="7.139461040496826">
        <ele>204.33199999999999</ele>
      </trkpt>
      <trkpt lat="51.09337898902595" lon="7.138344990089536">
        <ele>202.46700000000001</ele>
      </trkpt>
      <trkpt lat="51.09314102679491" lon="7.137125004082918">
        <ele>201.369</ele>
      </trkpt>
      <trkpt lat="51.09301102347672" lon="7.136444980278611">
        <ele>199.553</ele>
      </trkpt>
      <trkpt lat="51.092946985736489" lon="7.136188996955752">
        <ele>200.44900000000001</ele>
      </trkpt>
      <trkpt lat="51.092865010723472" lon="7.135894037783146">
        <ele>199.96799999999999</ele>
      </trkpt>
      <trkpt lat="51.092601986601949" lon="7.135185012593865">
        <ele>198.27000000000001</ele>
      </trkpt>
      <trkpt lat="51.092521017417312" lon="7.134994994848967">
        <ele>197.88</ele>
      </trkpt>
      <trkpt lat="51.092046014964581" lon="7.134098969399929">
        <ele>198.21899999999999</ele>
      </trkpt>
      <trkpt lat="51.091696992516518" lon="7.133595971390605">
        <ele>197.864</ele>
      </trkpt>
      <trkpt lat="51.091184020042419" lon="7.132893986999989">
        <ele>196.864</ele>
      </trkpt>
      <trkpt lat="51.090656965970993" lon="7.132169036194682">
        <ele>195.648</ele>
      </trkpt>
      <trkpt lat="51.090076016262174" lon="7.13143402710557">
        <ele>194.31899999999999</ele>
      </trkpt>
      <trkpt lat="51.089651975780725" lon="7.130870008841157">
        <ele>193.596</ele>
      </trkpt>
      <trkpt lat="51.089414013549685" lon="7.130547976121306">
        <ele>192.791</ele>
      </trkpt>
      <trkpt lat="51.089259032160044" lon="7.130352007225156">
        <ele>193.02099999999999</ele>
      </trkpt>
      <trkpt lat="51.08914302662015" lon="7.130185039713979">
        <ele>192.37200000000001</ele>
      </trkpt>
      <trkpt lat="51.088976981118321" lon="7.129980018362403">
        <ele>191.911</ele>
      </trkpt>
      <trkpt lat="51.08841497451067" lon="7.129305023699999">
        <ele>190.39099999999999</ele>
      </trkpt>
      <trkpt lat="51.087818015366793" lon="7.128563979640603">
        <ele>190.19800000000001</ele>
      </trkpt>
      <trkpt lat="51.087467987090349" lon="7.128046983852983">
        <ele>189.85300000000001</ele>
      </trkpt>
      <trkpt lat="51.08719197101891" lon="7.127641970291734">
        <ele>189.93000000000001</ele>
      </trkpt>
      <trkpt lat="51.086767008528113" lon="7.126992959529162">
        <ele>189.95500000000001</ele>
      </trkpt>
      <trkpt lat="51.086366018280387" lon="7.12630002759397">
        <ele>189.952</ele>
      </trkpt>
      <trkpt lat="51.086289994418621" lon="7.126143034547567">
        <ele>190.24100000000001</ele>
      </trkpt>
      <trkpt lat="51.085997968912125" lon="7.125400984659791">
        <ele>190.96100000000001</ele>
      </trkpt>
      <trkpt lat="51.085748020559549" lon="7.124621970579028">
        <ele>190.71700000000001</ele>
      </trkpt>
      <trkpt lat="51.085521038621664" lon="7.123818984255195">
        <ele>190.63900000000001</ele>
      </trkpt>
      <trkpt lat="51.085377037525177" lon="7.123316992074251">
        <ele>190.91</ele>
      </trkpt>
      <trkpt lat="51.085178973153234" lon="7.122635962441564">
        <ele>191.39099999999999</ele>
      </trkpt>
      <trkpt lat="51.085038995370269" lon="7.122212005779147">
        <ele>191.35300000000001</ele>
      </trkpt>
      <trkpt lat="51.084807990118861" lon="7.121472973376513">
        <ele>191.381</ele>
      </trkpt>
      <trkpt lat="51.084640016779304" lon="7.120997970923781">
        <ele>192.79499999999999</ele>
      </trkpt>
      <trkpt lat="51.084531974047422" lon="7.120668981224299">
        <ele>193.79300000000001</ele>
      </trkpt>
      <trkpt lat="51.084470031782985" lon="7.120377961546183">
        <ele>191.542</ele>
      </trkpt>
      <trkpt lat="51.084240032359958" lon="7.119620991870761">
        <ele>191.553</ele>
      </trkpt>
      <trkpt lat="51.083915987983346" lon="7.118645003065467">
        <ele>191.178</ele>
      </trkpt>
      <trkpt lat="51.083637960255146" lon="7.117831958457828">
        <ele>189.786</ele>
      </trkpt>
      <trkpt lat="51.083351969718933" lon="7.116915984079242">
        <ele>189.22499999999999</ele>
      </trkpt>
      <trkpt lat="51.083275023847818" lon="7.116724960505962">
        <ele>189.36699999999999</ele>
      </trkpt>
      <trkpt lat="51.082998001947999" lon="7.115860031917691">
        <ele>188.21100000000001</ele>
      </trkpt>
      <trkpt lat="51.082755010575056" lon="7.114907009527087">
        <ele>186.471</ele>
      </trkpt>
      <trkpt lat="51.082639005035162" lon="7.114222962409258">
        <ele>186.25</ele>
      </trkpt>
      <trkpt lat="51.082599023357034" lon="7.113790037110448">
        <ele>185.49000000000001</ele>
      </trkpt>
      <trkpt lat="51.082534985616803" lon="7.112942961975932">
        <ele>184.989</ele>
      </trkpt>
      <trkpt lat="51.082588965073228" lon="7.11175499483943">
        <ele>183.375</ele>
      </trkpt>
      <trkpt lat="51.08263598755002" lon="7.111129034310579">
        <ele>182.411</ele>
      </trkpt>
      <trkpt lat="51.082659037783742" lon="7.110954020172358">
        <ele>182.78299999999999</ele>
      </trkpt>
      <trkpt lat="51.082802033051848" lon="7.11010099388659">
        <ele>180.25899999999999</ele>
      </trkpt>
      <trkpt lat="51.082989033311605" lon="7.109054010361433">
        <ele>180.13900000000001</ele>
      </trkpt>
      <trkpt lat="51.083243004977703" lon="7.107683988288045">
        <ele>178.31899999999999</ele>
      </trkpt>
      <trkpt lat="51.083478033542633" lon="7.106372974812985">
        <ele>177.161</ele>
      </trkpt>
      <trkpt lat="51.083689006045461" lon="7.105262037366629">
        <ele>176.398</ele>
      </trkpt>
      <trkpt lat="51.083795037120581" lon="7.104730037972331">
        <ele>179.64099999999999</ele>
      </trkpt>
      <trkpt lat="51.083891009911895" lon="7.104198960587382">
        <ele>181.30799999999999</ele>
      </trkpt>
      <trkpt lat="51.083962004631758" lon="7.103764023631811">
        <ele>181.929</ele>
      </trkpt>
      <trkpt lat="51.084043979644775" lon="7.103282986208797">
        <ele>180.18000000000001</ele>
      </trkpt>
      <trkpt lat="51.084163002669811" lon="7.102582007646561">
        <ele>176.773</ele>
      </trkpt>
      <trkpt lat="51.084244977682829" lon="7.10208697244525">
        <ele>173.215</ele>
      </trkpt>
      <trkpt lat="51.084269033744931" lon="7.101952023804188">
        <ele>173.02699999999999</ele>
      </trkpt>
      <trkpt lat="51.084376992657781" lon="7.101388005539775">
        <ele>171.167</ele>
      </trkpt>
      <trkpt lat="51.084625013172626" lon="7.100029969587922">
        <ele>169.44900000000001</ele>
      </trkpt>
      <trkpt lat="51.084835985675454" lon="7.098856000229716">
        <ele>169.708</ele>
      </trkpt>
      <trkpt lat="51.085080988705158" lon="7.097511040046811">
        <ele>168.32900000000001</ele>
      </trkpt>
      <trkpt lat="51.085303025320172" lon="7.0963270124048">
        <ele>166.292</ele>
      </trkpt>
      <trkpt lat="51.085381982848048" lon="7.095843041315675">
        <ele>166.411</ele>
      </trkpt>
      <trkpt lat="51.085539981722832" lon="7.094563040882349">
        <ele>164.72999999999999</ele>
      </trkpt>
      <trkpt lat="51.085550962015986" lon="7.094126008450985">
        <ele>164.285</ele>
      </trkpt>
      <trkpt lat="51.085558002814651" lon="7.092946004122496">
        <ele>162.56399999999999</ele>
      </trkpt>
      <trkpt lat="51.08553403057158" lon="7.091949982568622">
        <ele>161.13900000000001</ele>
      </trkpt>
      <trkpt lat="51.085505029186606" lon="7.090748017653823">
        <ele>160.149</ele>
      </trkpt>
      <trkpt lat="51.085494970902801" lon="7.089821984991431">
        <ele>159.94499999999999</ele>
      </trkpt>
      <trkpt lat="51.085484996438026" lon="7.089598020538688">
        <ele>160.14699999999999</ele>
      </trkpt>
      <trkpt lat="51.085484996438026" lon="7.089253021404147">
        <ele>160.13</ele>
      </trkpt>
      <trkpt lat="51.085463035851717" lon="7.088813977316022">
        <ele>160.01400000000001</ele>
      </trkpt>
      <trkpt lat="51.085454989224672" lon="7.087783003225923">
        <ele>159.505</ele>
      </trkpt>
      <trkpt lat="51.085433028638363" lon="7.086536027491093">
        <ele>158.33699999999999</ele>
      </trkpt>
      <trkpt lat="51.085495976731181" lon="7.085507987067103">
        <ele>156.63999999999999</ele>
      </trkpt>
      <trkpt lat="51.085696974769235" lon="7.084455974400044">
        <ele>155.428</ele>
      </trkpt>
      <trkpt lat="51.085865031927824" lon="7.083872007206082">
        <ele>155.86500000000001</ele>
      </trkpt>
      <trkpt lat="51.085981959477067" lon="7.083520973101258">
        <ele>154.72900000000001</ele>
      </trkpt>
      <trkpt lat="51.086209025233984" lon="7.083011018112302">
        <ele>153.49700000000001</ele>
      </trkpt>
      <trkpt lat="51.086497027426958" lon="7.082430990412831">
        <ele>152.61000000000001</ele>
      </trkpt>
      <trkpt lat="51.086972029879689" lon="7.081687012687326">
        <ele>150.977</ele>
      </trkpt>
      <trkpt lat="51.087574018165469" lon="7.080984022468329">
        <ele>149.31899999999999</ele>
      </trkpt>
      <trkpt lat="51.088039968162775" lon="7.080435007810593">
        <ele>149.251</ele>
      </trkpt>
      <trkpt lat="51.088622007519007" lon="7.079725982621312">
        <ele>148.529</ele>
      </trkpt>
      <trkpt lat="51.08916599303484" lon="7.078961972147226">
        <ele>146.84200000000001</ele>
      </trkpt>
      <trkpt lat="51.089626997709274" lon="7.078013978898525">
        <ele>145.886</ele>
      </trkpt>
      <trkpt lat="51.089964034035802" lon="7.076962972059846">
        <ele>144.84100000000001</ele>
      </trkpt>
      <trkpt lat="51.090185986831784" lon="7.075815992429853">
        <ele>143.48500000000001</ele>
      </trkpt>
      <trkpt lat="51.090301992371678" lon="7.074669012799859">
        <ele>142.483</ele>
      </trkpt>
      <trkpt lat="51.090384973213077" lon="7.073422959074378">
        <ele>142.375</ele>
      </trkpt>
      <trkpt lat="51.090388996526599" lon="7.073213998228312">
        <ele>142.47399999999999</ele>
      </trkpt>
      <trkpt lat="51.09041397459805" lon="7.072876961901784">
        <ele>142.05799999999999</ele>
      </trkpt>
      <trkpt lat="51.090424032881856" lon="7.07267596386373">
        <ele>141.41900000000001</ele>
      </trkpt>
      <trkpt lat="51.09049703925848" lon="7.071657981723547">
        <ele>139.59399999999999</ele>
      </trkpt>
      <trkpt lat="51.090569961816072" lon="7.070694984868169">
        <ele>138.10599999999999</ele>
      </trkpt>
      <trkpt lat="51.090639028698206" lon="7.069538030773401">
        <ele>137.51900000000001</ele>
      </trkpt>
      <trkpt lat="51.090731984004378" lon="7.068174965679646">
        <ele>135.762</ele>
      </trkpt>
      <trkpt lat="51.0907999612391" lon="7.067348007112742">
        <ele>134.43700000000001</ele>
      </trkpt>
      <trkpt lat="51.090858969837427" lon="7.066616015508771">
        <ele>134.595</ele>
      </trkpt>
      <trkpt lat="51.090891994535923" lon="7.066190969198942">
        <ele>133.53899999999999</ele>
      </trkpt>
      <trkpt lat="51.090914960950613" lon="7.065524021163583">
        <ele>132.553</ele>
      </trkpt>
      <trkpt lat="51.090960977599025" lon="7.065001996234059">
        <ele>132.68000000000001</ele>
      </trkpt>
      <trkpt lat="51.090971035882831" lon="7.064835028722882">
        <ele>131.75899999999999</ele>
      </trkpt>
      <trkpt lat="51.091039013117552" lon="7.063906984403729">
        <ele>130.85599999999999</ele>
      </trkpt>
      <trkpt lat="51.091087041422725" lon="7.063301978632808">
        <ele>130.37299999999999</ele>
      </trkpt>
      <trkpt lat="51.09112199395895" lon="7.062561018392444">
        <ele>129.298</ele>
      </trkpt>
      <trkpt lat="51.091158036142588" lon="7.061989037320018">
        <ele>129.08000000000001</ele>
      </trkpt>
      <trkpt lat="51.091245962306857" lon="7.060595965012908">
        <ele>128.24299999999999</ele>
      </trkpt>
      <trkpt lat="51.091331038624048" lon="7.059708992019296">
        <ele>127.657</ele>
      </trkpt>
      <trkpt lat="51.091361967846751" lon="7.05928998067975">
        <ele>127.247</ele>
      </trkpt>
      <trkpt lat="51.091441009193659" lon="7.058228999376297">
        <ele>126.001</ele>
      </trkpt>
      <trkpt lat="51.091478979215026" lon="7.057574959471822">
        <ele>126.22199999999999</ele>
      </trkpt>
      <trkpt lat="51.091464981436729" lon="7.056873980909586">
        <ele>125.852</ele>
      </trkpt>
      <trkpt lat="51.0913369897753" lon="7.055775029584765">
        <ele>124.217</ele>
      </trkpt>
      <trkpt lat="51.091115036979318" lon="7.054859977215529">
        <ele>122.123</ele>
      </trkpt>
      <trkpt lat="51.090810019522905" lon="7.053974010050297">
        <ele>120.922</ele>
      </trkpt>
      <trkpt lat="51.090676998719573" lon="7.053666980937123">
        <ele>120.702</ele>
      </trkpt>
      <trkpt lat="51.090575996786356" lon="7.053479980677366">
        <ele>120.76000000000001</ele>
      </trkpt>
      <trkpt lat="51.090257987380028" lon="7.052940018475056">
        <ele>119.492</ele>
      </trkpt>
      <trkpt lat="51.090012984350324" lon="7.052600970491767">
        <ele>119.289</ele>
      </trkpt>
      <trkpt lat="51.089459024369717" lon="7.051909966394305">
        <ele>118.259</ele>
      </trkpt>
      <trkpt lat="51.088946973904967" lon="7.051298003643751">
        <ele>117.258</ele>
      </trkpt>
      <trkpt lat="51.088719991967082" lon="7.051046965643764">
        <ele>116.569</ele>
      </trkpt>
      <trkpt lat="51.088440036401153" lon="7.050697021186352">
        <ele>116.322</ele>
      </trkpt>
      <trkpt lat="51.088185980916023" lon="7.050364008173347">
        <ele>115.423</ele>
      </trkpt>
      <trkpt lat="51.087740985676646" lon="7.049880037084222">
        <ele>114.148</ele>
      </trkpt>
      <trkpt lat="51.087677031755447" lon="7.049788003787398">
        <ele>114.104</ele>
      </trkpt>
      <trkpt lat="51.087241005152464" lon="7.049299003556371">
        <ele>113.87</ele>
      </trkpt>
      <trkpt lat="51.086963983252645" lon="7.049032961949706">
        <ele>112.249</ele>
      </trkpt>
      <trkpt lat="51.086433995515108" lon="7.048644041642547">
        <ele>111.241</ele>
      </trkpt>
      <trkpt lat="51.085784984752536" lon="7.048282027244568">
        <ele>109.89400000000001</ele>
      </trkpt>
      <trkpt lat="51.085515003651381" lon="7.048155963420868">
        <ele>109.45399999999999</ele>
      </trkpt>
      <trkpt lat="51.084871022030711" lon="7.047916995361447">
        <ele>109.307</ele>
      </trkpt>
      <trkpt lat="51.084556030109525" lon="7.0478589925915">
        <ele>109.72799999999999</ele>
      </trkpt>
      <trkpt lat="51.083998968824744" lon="7.047616001218557">
        <ele>108.06999999999999</ele>
      </trkpt>
      <trkpt lat="51.083910958841443" lon="7.047582976520062">
        <ele>107.973</ele>
      </trkpt>
      <trkpt lat="51.083682971075177" lon="7.04749396070838">
        <ele>106.197</ele>
      </trkpt>
      <trkpt lat="51.083588004112244" lon="7.047463031485677">
        <ele>106.68000000000001</ele>
      </trkpt>
      <trkpt lat="51.083310982212424" lon="7.04736596904695">
        <ele>106.357</ele>
      </trkpt>
      <trkpt lat="51.083001019433141" lon="7.047225991263986">
        <ele>106.20099999999999</ele>
      </trkpt>
      <trkpt lat="51.082447981461883" lon="7.0469990093261">
        <ele>105.22</ele>
      </trkpt>
      <trkpt lat="51.081779021769762" lon="7.046736991032958">
        <ele>103.983</ele>
      </trkpt>
      <trkpt lat="51.081596966832876" lon="7.046659961342812">
        <ele>103.496</ele>
      </trkpt>
      <trkpt lat="51.081455983221531" lon="7.046599024906755">
        <ele>103.342</ele>
      </trkpt>
      <trkpt lat="51.080884002149105" lon="7.046373970806599">
        <ele>102.331</ele>
      </trkpt>
      <trkpt lat="51.080286037176847" lon="7.046066019684076">
        <ele>100.614</ele>
      </trkpt>
      <trkpt lat="51.079946989193559" lon="7.045807018876076">
        <ele>100.55800000000001</ele>
      </trkpt>
      <trkpt lat="51.079429993405938" lon="7.045315001159906">
        <ele>98.840999999999994</ele>
      </trkpt>
      <trkpt lat="51.078983992338181" lon="7.044734973460436">
        <ele>98.379999999999995</ele>
      </trkpt>
      <trkpt lat="51.078628012910485" lon="7.044122004881501">
        <ele>97.372</ele>
      </trkpt>
      <trkpt lat="51.078386027365923" lon="7.043644990772009">
        <ele>96.875</ele>
      </trkpt>
      <trkpt lat="51.078275972977281" lon="7.043353971093893">
        <ele>96.718000000000004</ele>
      </trkpt>
      <trkpt lat="51.078043961897492" lon="7.042664978653193">
        <ele>96.426000000000002</ele>
      </trkpt>
      <trkpt lat="51.077870959416032" lon="7.042117975652218">
        <ele>95.704999999999998</ele>
      </trkpt>
      <trkpt lat="51.077728969976306" lon="7.041603997349739">
        <ele>95.897000000000006</ele>
      </trkpt>
      <trkpt lat="51.077644983306527" lon="7.041300991550088">
        <ele>95.897999999999996</ele>
      </trkpt>
      <trkpt lat="51.077509028837085" lon="7.040925985202193">
        <ele>95.400000000000006</ele>
      </trkpt>
      <trkpt lat="51.077212980017066" lon="7.040107995271683">
        <ele>94.436999999999998</ele>
      </trkpt>
      <trkpt lat="51.076819030568004" lon="7.039023041725159">
        <ele>92.992999999999995</ele>
      </trkpt>
      <trkpt lat="51.076440000906587" lon="7.038163980469108">
        <ele>91.147000000000006</ele>
      </trkpt>
      <trkpt lat="51.075993999838829" lon="7.03733098693192">
        <ele>90.906999999999996</ele>
      </trkpt>
      <trkpt lat="51.075528971850872" lon="7.036516014486551">
        <ele>89.263999999999996</ele>
      </trkpt>
      <trkpt lat="51.075095040723681" lon="7.035766001790762">
        <ele>88.052000000000007</ele>
      </trkpt>
      <trkpt lat="51.074775019660592" lon="7.035154039040208">
        <ele>86.756</ele>
      </trkpt>
      <trkpt lat="51.074592964723706" lon="7.034831000491977">
        <ele>85.540999999999997</ele>
      </trkpt>
      <trkpt lat="51.074093990027905" lon="7.033988032490015">
        <ele>84.718000000000004</ele>
      </trkpt>
      <trkpt lat="51.073768017813563" lon="7.03340096399188">
        <ele>82.501999999999995</ele>
      </trkpt>
      <trkpt lat="51.073466017842293" lon="7.03283904120326">
        <ele>81.930000000000007</ele>
      </trkpt>
      <trkpt lat="51.073090005666018" lon="7.031930023804307">
        <ele>81.209000000000003</ele>
      </trkpt>
      <trkpt lat="51.072695972397923" lon="7.030900977551937">
        <ele>80.224999999999994</ele>
      </trkpt>
      <trkpt lat="51.072602011263371" lon="7.03060501255095">
        <ele>80.210999999999999</ele>
      </trkpt>
      <trkpt lat="51.072358014062047" lon="7.029775036498904">
        <ele>79.322999999999993</ele>
      </trkpt>
      <trkpt lat="51.072186017408967" lon="7.029024017974734">
        <ele>79.557000000000002</ele>
      </trkpt>
      <trkpt lat="51.072022989392281" lon="7.028188006952405">
        <ele>78.084999999999994</ele>
      </trkpt>
      <trkpt lat="51.071869013831019" lon="7.027158960700035">
        <ele>77.408000000000001</ele>
      </trkpt>
      <trkpt lat="51.071790978312492" lon="7.026440966874361">
        <ele>76.560000000000002</ele>
      </trkpt>
      <trkpt lat="51.071715038269758" lon="7.025525998324156">
        <ele>75.908000000000001</ele>
      </trkpt>
      <trkpt lat="51.071678996086121" lon="7.025179993361235">
        <ele>75.566000000000003</ele>
      </trkpt>
      <trkpt lat="51.071613030508161" lon="7.024542968720198">
        <ele>75.498999999999995</ele>
      </trkpt>
      <trkpt lat="51.071628034114838" lon="7.023828998208046">
        <ele>75.039000000000001</ele>
      </trkpt>
      <trkpt lat="51.071654018014669" lon="7.023132964968681">
        <ele>74.778999999999996</ele>
      </trkpt>
      <trkpt lat="51.071726018562913" lon="7.022044993937016">
        <ele>74.436000000000007</ele>
      </trkpt>
      <trkpt lat="51.071840012446046" lon="7.021002033725381">
        <ele>72.436999999999998</ele>
      </trkpt>
      <trkpt lat="51.071858033537865" lon="7.020839005708695">
        <ele>72.370000000000005</ele>
      </trkpt>
      <trkpt lat="51.072016032412648" lon="7.019977010786533">
        <ele>70.682000000000002</ele>
      </trkpt>
      <trkpt lat="51.072220969945192" lon="7.01908802613616">
        <ele>70.034000000000006</ele>
      </trkpt>
      <trkpt lat="51.072385003790259" lon="7.018543034791946">
        <ele>69.649000000000001</ele>
      </trkpt>
      <trkpt lat="51.072616009041667" lon="7.017710041254759">
        <ele>68.545000000000002</ele>
      </trkpt>
      <trkpt lat="51.07283603399992" lon="7.016972014680505">
        <ele>67.861999999999995</ele>
      </trkpt>
      <trkpt lat="51.072947010397911" lon="7.016677977517247">
        <ele>67.483999999999995</ele>
      </trkpt>
      <trkpt lat="51.073225038126111" lon="7.015654966235161">
        <ele>67.046000000000006</ele>
      </trkpt>
      <trkpt lat="51.073409020900726" lon="7.014896990731359">
        <ele>66.462999999999994</ele>
      </trkpt>
      <trkpt lat="51.073508011177182" lon="7.013985961675644">
        <ele>65.150999999999996</ele>
      </trkpt>
      <trkpt lat="51.073530977591872" lon="7.013725033029914">
        <ele>65.238</ele>
      </trkpt>
      <trkpt lat="51.073527038097382" lon="7.013153973966837">
        <ele>64.763999999999996</ele>
      </trkpt>
      <trkpt lat="51.073581017553806" lon="7.012906959280372">
        <ele>64.381</ele>
      </trkpt>
      <trkpt lat="51.073640026152134" lon="7.012825990095735">
        <ele>63.837000000000003</ele>
      </trkpt>
      <trkpt lat="51.073849992826581" lon="7.013216000050306">
        <ele>66.450000000000003</ele>
      </trkpt>
      <trkpt lat="51.07419197447598" lon="7.013490004464984">
        <ele>67.122</ele>
      </trkpt>
      <trkpt lat="51.074441000819206" lon="7.013755962252617">
        <ele>66.338999999999999</ele>
      </trkpt>
      <trkpt lat="51.074551977217197" lon="7.013619001954794">
        <ele>65.384</ele>
      </trkpt>
      <trkpt lat="51.074725985527039" lon="7.012933026999235">
        <ele>61.561</ele>
      </trkpt>
      <trkpt lat="51.074797986075282" lon="7.012690035626292">
        <ele>60.646999999999998</ele>
      </trkpt>
      <trkpt lat="51.075153965502977" lon="7.011162014678121">
        <ele>57.488</ele>
      </trkpt>
      <trkpt lat="51.075207022950053" lon="7.010935032740235">
        <ele>57.597000000000001</ele>
      </trkpt>
      <trkpt lat="51.075228983536363" lon="7.010517027229071">
        <ele>56.097999999999999</ele>
      </trkpt>
      <trkpt lat="51.075284974649549" lon="7.008942989632487">
        <ele>53.243000000000002</ele>
      </trkpt>
      <trkpt lat="51.075237030163407" lon="7.008574018254876">
        <ele>53.820999999999998</ele>
      </trkpt>
      <trkpt lat="51.075232001021504" lon="7.008204963058233">
        <ele>52.494</ele>
      </trkpt>
      <trkpt lat="51.075324034318328" lon="7.007385967299342">
        <ele>50.142000000000003</ele>
      </trkpt>
      <trkpt lat="51.074885744601488" lon="7.007174240425229">
        <ele>51.203000000000003</ele>
      </trkpt>
      <trkpt lat="51.073807748034596" lon="7.006894871592522">
        <ele>52.789000000000001</ele>
      </trkpt>
      <trkpt lat="51.072972323745489" lon="7.006722958758473">
        <ele>53.558999999999997</ele>
      </trkpt>
      <trkpt lat="51.07248717918992" lon="7.006679959595203">
        <ele>53.953000000000003</ele>
      </trkpt>
      <trkpt lat="51.071826936677098" lon="7.006722958758473">
        <ele>53.948999999999998</ele>
      </trkpt>
      <trkpt lat="51.071476573124528" lon="7.006787415593863">
        <ele>53.988</ele>
      </trkpt>
      <trkpt lat="51.071193600073457" lon="7.007561065256596">
        <ele>54.534999999999997</ele>
      </trkpt>
      <trkpt lat="51.070857988670468" lon="7.00755100697279">
        <ele>51.406999999999996</ele>
      </trkpt>
      <trkpt lat="51.070622038096189" lon="7.007548995316029">
        <ele>51.618000000000002</ele>
      </trkpt>
      <trkpt lat="51.070233033969998" lon="7.007310027256608">
        <ele>52.085000000000001</ele>
      </trkpt>
      <trkpt lat="51.070060031488538" lon="7.006976008415222">
        <ele>52.558</ele>
      </trkpt>
      <trkpt lat="51.069847969338298" lon="7.00673502869904">
        <ele>53.063000000000002</ele>
      </trkpt>
      <trkpt lat="51.069655017927289" lon="7.00639103539288">
        <ele>52.590000000000003</ele>
      </trkpt>
      <trkpt lat="51.069645965471864" lon="7.006320040673018">
        <ele>52.393000000000001</ele>
      </trkpt>
      <trkpt lat="51.069624004885554" lon="7.006190959364176">
        <ele>51.768999999999998</ele>
      </trkpt>
      <trkpt lat="51.069590980187058" lon="7.006141003221273">
        <ele>51.896000000000001</ele>
      </trkpt>
      <trkpt lat="51.069406997412443" lon="7.006083000451326">
        <ele>51.201999999999998</ele>
      </trkpt>
      <trkpt lat="51.069302977994084" lon="7.006299002096057">
        <ele>52.307000000000002</ele>
      </trkpt>
      <trkpt lat="51.068972982466221" lon="7.006805017590523">
        <ele>52.659999999999997</ele>
      </trkpt>
      <trkpt lat="51.068662013858557" lon="7.006923034787178">
        <ele>53.304000000000002</ele>
      </trkpt>
      <trkpt lat="51.068264041095972" lon="7.006858997046948">
        <ele>54.332999999999998</ele>
      </trkpt>
      <trkpt lat="51.067860033363104" lon="7.006772998720408">
        <ele>54.905999999999999</ele>
      </trkpt>
      <trkpt lat="51.067369021475315" lon="7.006679959595203">
        <ele>54.883000000000003</ele>
      </trkpt>
      <trkpt lat="51.067033996805549" lon="7.006702004000545">
        <ele>54.902999999999999</ele>
      </trkpt>
      <trkpt lat="51.066810032352805" lon="7.00669102370739">
        <ele>55.143999999999998</ele>
      </trkpt>
      <trkpt lat="51.066769966855645" lon="7.00669202953577">
        <ele>55.889000000000003</ele>
      </trkpt>
      <trkpt lat="51.06671498157084" lon="7.006925968453288">
        <ele>55.835000000000001</ele>
      </trkpt>
      <trkpt lat="51.066755969077349" lon="7.007340034469962">
        <ele>55.747</ele>
      </trkpt>
      <trkpt lat="51.066726967692375" lon="7.007762985303998">
        <ele>56.360999999999997</ele>
      </trkpt>
      <trkpt lat="51.066768961027265" lon="7.007977981120348">
        <ele>57.121000000000002</ele>
      </trkpt>
      <trkpt lat="51.066699977964163" lon="7.00813103467226">
        <ele>56.747999999999998</ele>
      </trkpt>
      <trkpt lat="51.06650099158287" lon="7.008293978869915">
        <ele>57.203000000000003</ele>
      </trkpt>
    </trkseg>
  </trk>

</gpx>
