<?xml version="1.0" encoding="UTF-8" standalone="no"?>
<gpx xmlns="http://www.topografix.com/GPX/1/1" creator="www.bahntrassenradeln.de" version="1.1">

  <trk>
    <name>NW 4.03</name>
    <trkseg>
 <trkpt lat="51.35876102" lon="6.93298099">
  <ele>46.651</ele>
 </trkpt>
 <trkpt lat="51.35809802" lon="6.93224103">
  <ele>45.516</ele>
 </trkpt>
 <trkpt lat="51.35808402" lon="6.93223299">
  <ele>45.942</ele>
 </trkpt>
 <trkpt lat="51.35777196" lon="6.93192897">
  <ele>45.592</ele>
 </trkpt>
 <trkpt lat="51.35704399" lon="6.93127099">
  <ele>46.200</ele>
 </trkpt>
 <trkpt lat="51.35652297" lon="6.93071703">
  <ele>46.316</ele>
 </trkpt>
 <trkpt lat="51.35608703" lon="6.93000901">
  <ele>47.545</ele>
 </trkpt>
 <trkpt lat="51.35596398" lon="6.92995202">
  <ele>47.326</ele>
 </trkpt>
 <trkpt lat="51.35563399" lon="6.93018001">
  <ele>46.819</ele>
 </trkpt>
 <trkpt lat="51.35510199" lon="6.93067102">
  <ele>48.258</ele>
 </trkpt>
 <trkpt lat="51.35456203" lon="6.93128399">
  <ele>49.057</ele>
 </trkpt>
 <trkpt lat="51.35430403" lon="6.93155698">
  <ele>50.177</ele>
 </trkpt>
 <trkpt lat="51.35401896" lon="6.93162102">
  <ele>50.644</ele>
 </trkpt>
 <trkpt lat="51.35362300" lon="6.93169101">
  <ele>51.082</ele>
 </trkpt>
 <trkpt lat="51.35361697" lon="6.93209804">
  <ele>53.935</ele>
 </trkpt>
 <trkpt lat="51.35337900" lon="6.93275099">
  <ele>55.716</ele>
 </trkpt>
 <trkpt lat="51.35327599" lon="6.93271897">
  <ele>56.980</ele>
 </trkpt>
 <trkpt lat="51.35321497" lon="6.93256499">
  <ele>60.990</ele>
 </trkpt>
 <trkpt lat="51.35309000" lon="6.93238797">
  <ele>64.736</ele>
 </trkpt>
 <trkpt lat="51.35284198" lon="6.93228696">
  <ele>66.808</ele>
 </trkpt>
 <trkpt lat="51.35270200" lon="6.93223500">
  <ele>68.335</ele>
 </trkpt>
 <trkpt lat="51.35237401" lon="6.93203802">
  <ele>71.556</ele>
 </trkpt>
 <trkpt lat="51.35208098" lon="6.93193903">
  <ele>72.283</ele>
 </trkpt>
 <trkpt lat="51.35176901" lon="6.93184901">
  <ele>72.325</ele>
 </trkpt>
 <trkpt lat="51.35116803" lon="6.93173602">
  <ele>73.669</ele>
 </trkpt>
 <trkpt lat="51.35061096" lon="6.93169202">
  <ele>74.676</ele>
 </trkpt>
 <trkpt lat="51.35008399" lon="6.93172697">
  <ele>75.929</ele>
 </trkpt>
 <trkpt lat="51.34949198" lon="6.93175304">
  <ele>77.695</ele>
 </trkpt>
 <trkpt lat="51.34900499" lon="6.93174901">
  <ele>78.546</ele>
 </trkpt>
 <trkpt lat="51.34840200" lon="6.93170199">
  <ele>79.326</ele>
 </trkpt>
 <trkpt lat="51.34802800" lon="6.93150996">
  <ele>79.823</ele>
 </trkpt>
 <trkpt lat="51.34784100" lon="6.93142103">
  <ele>81.830</ele>
 </trkpt>
 <trkpt lat="51.34757596" lon="6.93119899">
  <ele>83.501</ele>
 </trkpt>
 <trkpt lat="51.34747496" lon="6.93109598">
  <ele>84.104</ele>
 </trkpt>
 <trkpt lat="51.34714999" lon="6.93068099">
  <ele>84.802</ele>
 </trkpt>
 <trkpt lat="51.34702996" lon="6.93051402">
  <ele>85.378</ele>
 </trkpt>
 <trkpt lat="51.34692100" lon="6.93031898">
  <ele>85.706</ele>
 </trkpt>
 <trkpt lat="51.34665596" lon="6.92966997">
  <ele>86.839</ele>
 </trkpt>
 <trkpt lat="51.34638003" lon="6.92882197">
  <ele>88.692</ele>
 </trkpt>
 <trkpt lat="51.34602598" lon="6.92783601">
  <ele>89.365</ele>
 </trkpt>
 <trkpt lat="51.34587896" lon="6.92742504">
  <ele>90.315</ele>
 </trkpt>
 <trkpt lat="51.34556003" lon="6.92653899">
  <ele>92.195</ele>
 </trkpt>
 <trkpt lat="51.34534696" lon="6.92594497">
  <ele>92.647</ele>
 </trkpt>
 <trkpt lat="51.34517899" lon="6.92546099">
  <ele>92.760</ele>
 </trkpt>
 <trkpt lat="51.34501101" lon="6.92503201">
  <ele>93.296</ele>
 </trkpt>
 <trkpt lat="51.34481798" lon="6.92462297">
  <ele>94.880</ele>
 </trkpt>
 <trkpt lat="51.34471103" lon="6.92442097">
  <ele>95.710</ele>
 </trkpt>
 <trkpt lat="51.34439101" lon="6.92394597">
  <ele>95.398</ele>
 </trkpt>
 <trkpt lat="51.34425899" lon="6.92378000">
  <ele>95.877</ele>
 </trkpt>
 <trkpt lat="51.34393101" lon="6.92349602">
  <ele>96.725</ele>
 </trkpt>
 <trkpt lat="51.34349599" lon="6.92322001">
  <ele>97.477</ele>
 </trkpt>
 <trkpt lat="51.34330899" lon="6.92314600">
  <ele>97.511</ele>
 </trkpt>
 <trkpt lat="51.34286097" lon="6.92304298">
  <ele>99.302</ele>
 </trkpt>
 <trkpt lat="51.34252000" lon="6.92304801">
  <ele>100.020</ele>
 </trkpt>
 <trkpt lat="51.34238396" lon="6.92306503">
  <ele>99.994</ele>
 </trkpt>
 <trkpt lat="51.34206796" lon="6.92316703">
  <ele>100.186</ele>
 </trkpt>
 <trkpt lat="51.34172799" lon="6.92335596">
  <ele>101.188</ele>
 </trkpt>
 <trkpt lat="51.34129800" lon="6.92367598">
  <ele>102.518</ele>
 </trkpt>
 <trkpt lat="51.34109298" lon="6.92390003">
  <ele>102.360</ele>
 </trkpt>
 <trkpt lat="51.34092098" lon="6.92412299">
  <ele>102.759</ele>
 </trkpt>
 <trkpt lat="51.34061798" lon="6.92452298">
  <ele>103.541</ele>
 </trkpt>
 <trkpt lat="51.34040801" lon="6.92506101">
  <ele>104.729</ele>
 </trkpt>
 <trkpt lat="51.34028697" lon="6.92546099">
  <ele>106.134</ele>
 </trkpt>
 <trkpt lat="51.34011498" lon="6.92602501">
  <ele>106.761</ele>
 </trkpt>
 <trkpt lat="51.33990702" lon="6.92678198">
  <ele>107.828</ele>
 </trkpt>
 <trkpt lat="51.33971499" lon="6.92740400">
  <ele>109.157</ele>
 </trkpt>
 <trkpt lat="51.33958499" lon="6.92788596">
  <ele>108.539</ele>
 </trkpt>
 <trkpt lat="51.33943596" lon="6.92847303">
  <ele>109.767</ele>
 </trkpt>
 <trkpt lat="51.33926698" lon="6.92910301">
  <ele>110.007</ele>
 </trkpt>
 <trkpt lat="51.33907797" lon="6.92971104">
  <ele>111.415</ele>
 </trkpt>
 <trkpt lat="51.33880396" lon="6.93079297">
  <ele>112.672</ele>
 </trkpt>
 <trkpt lat="51.33867597" lon="6.93129698">
  <ele>113.276</ele>
 </trkpt>
 <trkpt lat="51.33855997" lon="6.93171901">
  <ele>113.484</ele>
 </trkpt>
 <trkpt lat="51.33836903" lon="6.93260103">
  <ele>115.256</ele>
 </trkpt>
 <trkpt lat="51.33828102" lon="6.93308702">
  <ele>115.819</ele>
 </trkpt>
 <trkpt lat="51.33813400" lon="6.93372002">
  <ele>116.651</ele>
 </trkpt>
 <trkpt lat="51.33797097" lon="6.93455603">
  <ele>118.716</ele>
 </trkpt>
 <trkpt lat="51.33782697" lon="6.93509499">
  <ele>119.293</ele>
 </trkpt>
 <trkpt lat="51.33758498" lon="6.93581097">
  <ele>119.665</ele>
 </trkpt>
 <trkpt lat="51.33732397" lon="6.93639301">
  <ele>120.828</ele>
 </trkpt>
 <trkpt lat="51.33719497" lon="6.93664304">
  <ele>121.691</ele>
 </trkpt>
 <trkpt lat="51.33702398" lon="6.93696097">
  <ele>121.831</ele>
 </trkpt>
 <trkpt lat="51.33676699" lon="6.93741200">
  <ele>122.456</ele>
 </trkpt>
 <trkpt lat="51.33656197" lon="6.93788398">
  <ele>123.334</ele>
 </trkpt>
 <trkpt lat="51.33644697" lon="6.93817902">
  <ele>123.605</ele>
 </trkpt>
 <trkpt lat="51.33618303" lon="6.93872100">
  <ele>124.928</ele>
 </trkpt>
 <trkpt lat="51.33608798" lon="6.93889802">
  <ele>125.337</ele>
 </trkpt>
 <trkpt lat="51.33586401" lon="6.93921997">
  <ele>125.646</ele>
 </trkpt>
 <trkpt lat="51.33564097" lon="6.93968902">
  <ele>125.640</ele>
 </trkpt>
 <trkpt lat="51.33533796" lon="6.94020904">
  <ele>127.568</ele>
 </trkpt>
 <trkpt lat="51.33509103" lon="6.94069301">
  <ele>128.407</ele>
 </trkpt>
 <trkpt lat="51.33474603" lon="6.94114798">
  <ele>128.021</ele>
 </trkpt>
 <trkpt lat="51.33452400" lon="6.94146498">
  <ele>128.844</ele>
 </trkpt>
 <trkpt lat="51.33426701" lon="6.94184401">
  <ele>129.032</ele>
 </trkpt>
 <trkpt lat="51.33415896" lon="6.94207904">
  <ele>129.161</ele>
 </trkpt>
 <trkpt lat="51.33345799" lon="6.94335803">
  <ele>130.937</ele>
 </trkpt>
 <trkpt lat="51.33315800" lon="6.94401400">
  <ele>131.087</ele>
 </trkpt>
 <trkpt lat="51.33288600" lon="6.94454902">
  <ele>131.881</ele>
 </trkpt>
 <trkpt lat="51.33270898" lon="6.94491103">
  <ele>132.019</ele>
 </trkpt>
 <trkpt lat="51.33246901" lon="6.94530498">
  <ele>132.689</ele>
 </trkpt>
 <trkpt lat="51.33219399" lon="6.94573497">
  <ele>133.885</ele>
 </trkpt>
 <trkpt lat="51.33188697" lon="6.94623898">
  <ele>134.683</ele>
 </trkpt>
 <trkpt lat="51.33143501" lon="6.94685798">
  <ele>136.825</ele>
 </trkpt>
 <trkpt lat="51.33116604" lon="6.94737003">
  <ele>137.699</ele>
 </trkpt>
 <trkpt lat="51.33090603" lon="6.94799096">
  <ele>137.831</ele>
 </trkpt>
 <trkpt lat="51.33069296" lon="6.94863603">
  <ele>138.904</ele>
 </trkpt>
 <trkpt lat="51.33055802" lon="6.94911296">
  <ele>140.230</ele>
 </trkpt>
 <trkpt lat="51.33048300" lon="6.94945101">
  <ele>140.863</ele>
 </trkpt>
 <trkpt lat="51.33036900" lon="6.94997203">
  <ele>142.439</ele>
 </trkpt>
 <trkpt lat="51.33033397" lon="6.95051400">
  <ele>143.370</ele>
 </trkpt>
 <trkpt lat="51.33022701" lon="6.95098800">
  <ele>144.096</ele>
 </trkpt>
 <trkpt lat="51.33006197" lon="6.95174203">
  <ele>145.531</ele>
 </trkpt>
 <trkpt lat="51.32992996" lon="6.95231896">
  <ele>145.927</ele>
 </trkpt>
 <trkpt lat="51.32983499" lon="6.95283604">
  <ele>146.814</ele>
 </trkpt>
 <trkpt lat="51.32964296" lon="6.95365403">
  <ele>148.276</ele>
 </trkpt>
 <trkpt lat="51.32956099" lon="6.95428804">
  <ele>148.569</ele>
 </trkpt>
 <trkpt lat="51.32949200" lon="6.95467704">
  <ele>149.213</ele>
 </trkpt>
 <trkpt lat="51.32936602" lon="6.95520300">
  <ele>149.822</ele>
 </trkpt>
 <trkpt lat="51.32923602" lon="6.95584003">
  <ele>150.667</ele>
 </trkpt>
 <trkpt lat="51.32906604" lon="6.95654998">
  <ele>151.656</ele>
 </trkpt>
 <trkpt lat="51.32890997" lon="6.95730301">
  <ele>152.174</ele>
 </trkpt>
 <trkpt lat="51.32876404" lon="6.95805998">
  <ele>153.683</ele>
 </trkpt>
 <trkpt lat="51.32867703" lon="6.95847999">
  <ele>154.245</ele>
 </trkpt>
 <trkpt lat="51.32858902" lon="6.95895097">
  <ele>154.024</ele>
 </trkpt>
 <trkpt lat="51.32847897" lon="6.95948096">
  <ele>154.675</ele>
 </trkpt>
 <trkpt lat="51.32840898" lon="6.95985303">
  <ele>156.391</ele>
 </trkpt>
 <trkpt lat="51.32830597" lon="6.96031898">
  <ele>156.397</ele>
 </trkpt>
 <trkpt lat="51.32820798" lon="6.96070698">
  <ele>156.676</ele>
 </trkpt>
 <trkpt lat="51.32808703" lon="6.96116698">
  <ele>157.727</ele>
 </trkpt>
 <trkpt lat="51.32797203" lon="6.96173603">
  <ele>158.349</ele>
 </trkpt>
 <trkpt lat="51.32792300" lon="6.96202302">
  <ele>158.016</ele>
 </trkpt>
 <trkpt lat="51.32788301" lon="6.96225604">
  <ele>158.595</ele>
 </trkpt>
 <trkpt lat="51.32779400" lon="6.96286297">
  <ele>158.945</ele>
 </trkpt>
 <trkpt lat="51.32778998" lon="6.96304796">
  <ele>159.518</ele>
 </trkpt>
 <trkpt lat="51.32772803" lon="6.96369303">
  <ele>159.716</ele>
 </trkpt>
 <trkpt lat="51.32771999" lon="6.96436803">
  <ele>160.575</ele>
 </trkpt>
 <trkpt lat="51.32778402" lon="6.96513103">
  <ele>161.035</ele>
 </trkpt>
 <trkpt lat="51.32782803" lon="6.96544200">
  <ele>161.129</ele>
 </trkpt>
 <trkpt lat="51.32796600" lon="6.96628396">
  <ele>163.440</ele>
 </trkpt>
 <trkpt lat="51.32806499" lon="6.96678202">
  <ele>163.797</ele>
 </trkpt>
 <trkpt lat="51.32813497" lon="6.96719801">
  <ele>165.223</ele>
 </trkpt>
 <trkpt lat="51.32824503" lon="6.96818397">
  <ele>166.463</ele>
 </trkpt>
 <trkpt lat="51.32831703" lon="6.96887598">
  <ele>167.291</ele>
 </trkpt>
 <trkpt lat="51.32837797" lon="6.96961803">
  <ele>167.761</ele>
 </trkpt>
 <trkpt lat="51.32843002" lon="6.97037601">
  <ele>168.776</ele>
 </trkpt>
 <trkpt lat="51.32848903" lon="6.97126902">
  <ele>170.353</ele>
 </trkpt>
 <trkpt lat="51.32858500" lon="6.97216404">
  <ele>171.763</ele>
 </trkpt>
 <trkpt lat="51.32866203" lon="6.97253401">
  <ele>171.885</ele>
 </trkpt>
 <trkpt lat="51.32886596" lon="6.97336198">
  <ele>173.244</ele>
 </trkpt>
 <trkpt lat="51.32905497" lon="6.97421199">
  <ele>173.510</ele>
 </trkpt>
 <trkpt lat="51.32918799" lon="6.97477098">
  <ele>173.135</ele>
 </trkpt>
 <trkpt lat="51.32944498" lon="6.97578996">
  <ele>174.340</ele>
 </trkpt>
 <trkpt lat="51.32972402" lon="6.97679403">
  <ele>173.696</ele>
 </trkpt>
 <trkpt lat="51.32995804" lon="6.97774697">
  <ele>173.647</ele>
 </trkpt>
 <trkpt lat="51.33006399" lon="6.97829297">
  <ele>173.962</ele>
 </trkpt>
 <trkpt lat="51.33030698" lon="6.97921598">
  <ele>173.754</ele>
 </trkpt>
 <trkpt lat="51.33056003" lon="6.98019398">
  <ele>172.634</ele>
 </trkpt>
 <trkpt lat="51.33067704" lon="6.98061199">
  <ele>173.610</ele>
 </trkpt>
 <trkpt lat="51.33082297" lon="6.98132001">
  <ele>174.217</ele>
 </trkpt>
 <trkpt lat="51.33087896" lon="6.98224696">
  <ele>174.650</ele>
 </trkpt>
 <trkpt lat="51.33087401" lon="6.98277896">
  <ele>174.505</ele>
 </trkpt>
 <trkpt lat="51.33086203" lon="6.98301500">
  <ele>175.715</ele>
 </trkpt>
 <trkpt lat="51.33080604" lon="6.98365797">
  <ele>176.880</ele>
 </trkpt>
 <trkpt lat="51.33071803" lon="6.98478500">
  <ele>178.171</ele>
 </trkpt>
 <trkpt lat="51.33064200" lon="6.98570400">
  <ele>179.826</ele>
 </trkpt>
 <trkpt lat="51.33043204" lon="6.98826601">
  <ele>182.946</ele>
 </trkpt>
 <trkpt lat="51.33040102" lon="6.98864898">
  <ele>184.805</ele>
 </trkpt>
 <trkpt lat="51.33031704" lon="6.98967903">
  <ele>185.789</ele>
 </trkpt>
 <trkpt lat="51.33028401" lon="6.99012302">
  <ele>186.628</ele>
 </trkpt>
 <trkpt lat="51.33022299" lon="6.99077496">
  <ele>187.345</ele>
 </trkpt>
 <trkpt lat="51.33015200" lon="6.99167300">
  <ele>189.551</ele>
 </trkpt>
 <trkpt lat="51.33010103" lon="6.99238999">
  <ele>190.456</ele>
 </trkpt>
 <trkpt lat="51.33005602" lon="6.99344401">
  <ele>191.271</ele>
 </trkpt>
 <trkpt lat="51.33006197" lon="6.99383000">
  <ele>192.023</ele>
 </trkpt>
 <trkpt lat="51.33013397" lon="6.99480196">
  <ele>192.797</ele>
 </trkpt>
 <trkpt lat="51.33026901" lon="6.99553303">
  <ele>193.371</ele>
 </trkpt>
 <trkpt lat="51.33046598" lon="6.99634599">
  <ele>195.637</ele>
 </trkpt>
 <trkpt lat="51.33062096" lon="6.99688797">
  <ele>196.153</ele>
 </trkpt>
 <trkpt lat="51.33077301" lon="6.99749197">
  <ele>197.218</ele>
 </trkpt>
 <trkpt lat="51.33083504" lon="6.99772599">
  <ele>197.301</ele>
 </trkpt>
 <trkpt lat="51.33102497" lon="6.99846301">
  <ele>198.966</ele>
 </trkpt>
 <trkpt lat="51.33122304" lon="6.99927396">
  <ele>200.486</ele>
 </trkpt>
 <trkpt lat="51.33127802" lon="6.99949700">
  <ele>200.076</ele>
 </trkpt>
 <trkpt lat="51.33142998" lon="7.00043603">
  <ele>201.692</ele>
 </trkpt>
 <trkpt lat="51.33149000" lon="7.00116500">
  <ele>202.143</ele>
 </trkpt>
 <trkpt lat="51.33148899" lon="7.00183698">
  <ele>203.095</ele>
 </trkpt>
 <trkpt lat="51.33140501" lon="7.00268196">
  <ele>204.315</ele>
 </trkpt>
 <trkpt lat="51.33128900" lon="7.00353700">
  <ele>204.574</ele>
 </trkpt>
 <trkpt lat="51.33125698" lon="7.00390899">
  <ele>204.931</ele>
 </trkpt>
 <trkpt lat="51.33112597" lon="7.00462698">
  <ele>206.687</ele>
 </trkpt>
 <trkpt lat="51.33108197" lon="7.00483896">
  <ele>206.872</ele>
 </trkpt>
 <trkpt lat="51.33107903" lon="7.00511900">
  <ele>207.978</ele>
 </trkpt>
 <trkpt lat="51.33103101" lon="7.00572903">
  <ele>208.759</ele>
 </trkpt>
 <trkpt lat="51.33106998" lon="7.00674802">
  <ele>210.429</ele>
 </trkpt>
 <trkpt lat="51.33120200" lon="7.00745302">
  <ele>210.121</ele>
 </trkpt>
 <trkpt lat="51.33132597" lon="7.00789802">
  <ele>211.698</ele>
 </trkpt>
 <trkpt lat="51.33149201" lon="7.00847100">
  <ele>212.292</ele>
 </trkpt>
 <trkpt lat="51.33162000" lon="7.00887501">
  <ele>213.093</ele>
 </trkpt>
 <trkpt lat="51.33169502" lon="7.00912102">
  <ele>212.967</ele>
 </trkpt>
 <trkpt lat="51.33183802" lon="7.00950198">
  <ele>213.802</ele>
 </trkpt>
 <trkpt lat="51.33201596" lon="7.00990900">
  <ele>214.331</ele>
 </trkpt>
 <trkpt lat="51.33213700" lon="7.01033900">
  <ele>215.489</ele>
 </trkpt>
 <trkpt lat="51.33233699" lon="7.01095498">
  <ele>216.002</ele>
 </trkpt>
 <trkpt lat="51.33244000" lon="7.01139696">
  <ele>216.605</ele>
 </trkpt>
 <trkpt lat="51.33265802" lon="7.01205896">
  <ele>217.137</ele>
 </trkpt>
 <trkpt lat="51.33289296" lon="7.01276598">
  <ele>218.911</ele>
 </trkpt>
 <trkpt lat="51.33308600" lon="7.01332203">
  <ele>219.030</ele>
 </trkpt>
 <trkpt lat="51.33327199" lon="7.01394799">
  <ele>219.899</ele>
 </trkpt>
 <trkpt lat="51.33338900" lon="7.01424999">
  <ele>220.767</ele>
 </trkpt>
 <trkpt lat="51.33352001" lon="7.01463103">
  <ele>220.979</ele>
 </trkpt>
 <trkpt lat="51.33397004" lon="7.01573703">
  <ele>220.070</ele>
 </trkpt>
 <trkpt lat="51.33424303" lon="7.01619803">
  <ele>219.699</ele>
 </trkpt>
 <trkpt lat="51.33456398" lon="7.01668804">
  <ele>219.145</ele>
 </trkpt>
 <trkpt lat="51.33501199" lon="7.01751600">
  <ele>219.332</ele>
 </trkpt>
 <trkpt lat="51.33536001" lon="7.01820097">
  <ele>219.881</ele>
 </trkpt>
 <trkpt lat="51.33594800" lon="7.01934703">
  <ele>219.251</ele>
 </trkpt>
 <trkpt lat="51.33641001" lon="7.02028203">
  <ele>220.821</ele>
 </trkpt>
 <trkpt lat="51.33724300" lon="7.02198397">
  <ele>218.669</ele>
 </trkpt>
 <trkpt lat="51.33763402" lon="7.02274597">
  <ele>220.257</ele>
 </trkpt>
 <trkpt lat="51.33783803" lon="7.02316197">
  <ele>220.157</ele>
 </trkpt>
 <trkpt lat="51.33845100" lon="7.02434499">
  <ele>221.133</ele>
 </trkpt>
 <trkpt lat="51.33883799" lon="7.02515803">
  <ele>221.622</ele>
 </trkpt>
 <trkpt lat="51.33906296" lon="7.02563304">
  <ele>221.413</ele>
 </trkpt>
 <trkpt lat="51.33946697" lon="7.02645999">
  <ele>221.084</ele>
 </trkpt>
 <trkpt lat="51.33991599" lon="7.02729198">
  <ele>221.679</ele>
 </trkpt>
 <trkpt lat="51.34033701" lon="7.02806102">
  <ele>221.907</ele>
 </trkpt>
 <trkpt lat="51.34099700" lon="7.02937799">
  <ele>222.809</ele>
 </trkpt>
 <trkpt lat="51.34123103" lon="7.02982700">
  <ele>224.094</ele>
 </trkpt>
 <trkpt lat="51.34154703" lon="7.03048004">
  <ele>224.391</ele>
 </trkpt>
 <trkpt lat="51.34183000" lon="7.03106300">
  <ele>225.541</ele>
 </trkpt>
 <trkpt lat="51.34221900" lon="7.03182098">
  <ele>227.272</ele>
 </trkpt>
 <trkpt lat="51.34257297" lon="7.03251198">
  <ele>227.983</ele>
 </trkpt>
 <trkpt lat="51.34298704" lon="7.03320600">
  <ele>229.552</ele>
 </trkpt>
 <trkpt lat="51.34340202" lon="7.03384202">
  <ele>230.756</ele>
 </trkpt>
 <trkpt lat="51.34378499" lon="7.03437997">
  <ele>232.093</ele>
 </trkpt>
 <trkpt lat="51.34417702" lon="7.03500803">
  <ele>230.732</ele>
 </trkpt>
 <trkpt lat="51.34450701" lon="7.03553097">
  <ele>232.050</ele>
 </trkpt>
 <trkpt lat="51.34477297" lon="7.03606800">
  <ele>232.015</ele>
 </trkpt>
 <trkpt lat="51.34499702" lon="7.03677200">
  <ele>230.562</ele>
 </trkpt>
 <trkpt lat="51.34514202" lon="7.03733300">
  <ele>231.368</ele>
 </trkpt>
 <trkpt lat="51.34532198" lon="7.03808100">
  <ele>231.182</ele>
 </trkpt>
 <trkpt lat="51.34546297" lon="7.03857201">
  <ele>231.503</ele>
 </trkpt>
 <trkpt lat="51.34563002" lon="7.03901500">
  <ele>230.770</ele>
 </trkpt>
 <trkpt lat="51.34573697" lon="7.03922002">
  <ele>230.857</ele>
 </trkpt>
 <trkpt lat="51.34609899" lon="7.03997900">
  <ele>230.710</ele>
 </trkpt>
 <trkpt lat="51.34653501" lon="7.04101601">
  <ele>230.527</ele>
 </trkpt>
 <trkpt lat="51.34681304" lon="7.04162696">
  <ele>231.343</ele>
 </trkpt>
 <trkpt lat="51.34698302" lon="7.04200398">
  <ele>231.540</ele>
 </trkpt>
 <trkpt lat="51.34712996" lon="7.04243498">
  <ele>232.173</ele>
 </trkpt>
 <trkpt lat="51.34723700" lon="7.04307804">
  <ele>232.032</ele>
 </trkpt>
 <trkpt lat="51.34733498" lon="7.04392604">
  <ele>233.344</ele>
 </trkpt>
 <trkpt lat="51.34735200" lon="7.04465199">
  <ele>234.382</ele>
 </trkpt>
 <trkpt lat="51.34728000" lon="7.04530603">
  <ele>235.031</ele>
 </trkpt>
 <trkpt lat="51.34718402" lon="7.04572102">
  <ele>235.477</ele>
 </trkpt>
 <trkpt lat="51.34708302" lon="7.04608303">
  <ele>236.057</ele>
 </trkpt>
 <trkpt lat="51.34702996" lon="7.04628504">
  <ele>236.113</ele>
 </trkpt>
 <trkpt lat="51.34689996" lon="7.04672702">
  <ele>236.831</ele>
 </trkpt>
 <trkpt lat="51.34675596" lon="7.04710504">
  <ele>237.889</ele>
 </trkpt>
 <trkpt lat="51.34649503" lon="7.04747904">
  <ele>238.706</ele>
 </trkpt>
 <trkpt lat="51.34618599" lon="7.04792596">
  <ele>239.036</ele>
 </trkpt>
 <trkpt lat="51.34595498" lon="7.04828697">
  <ele>240.008</ele>
 </trkpt>
 <trkpt lat="51.34558300" lon="7.04881604">
  <ele>241.543</ele>
 </trkpt>
 <trkpt lat="51.34521101" lon="7.04937402">
  <ele>242.341</ele>
 </trkpt>
 <trkpt lat="51.34481002" lon="7.04996503">
  <ele>244.338</ele>
 </trkpt>
 <trkpt lat="51.34443300" lon="7.05053098">
  <ele>245.643</ele>
 </trkpt>
 <trkpt lat="51.34416704" lon="7.05092099">
  <ele>246.526</ele>
 </trkpt>
 <trkpt lat="51.34381902" lon="7.05138903">
  <ele>246.773</ele>
 </trkpt>
 <trkpt lat="51.34335701" lon="7.05188197">
  <ele>248.353</ele>
 </trkpt>
 <trkpt lat="51.34318301" lon="7.05204198">
  <ele>248.906</ele>
 </trkpt>
 <trkpt lat="51.34277296" lon="7.05241196">
  <ele>250.231</ele>
 </trkpt>
 <trkpt lat="51.34248999" lon="7.05268999">
  <ele>250.239</ele>
 </trkpt>
 <trkpt lat="51.34202303" lon="7.05312903">
  <ele>250.523</ele>
 </trkpt>
 <trkpt lat="51.34134502" lon="7.05373001">
  <ele>250.248</ele>
 </trkpt>
 <trkpt lat="51.34061596" lon="7.05437802">
  <ele>250.235</ele>
 </trkpt>
 <trkpt lat="51.33993099" lon="7.05501404">
  <ele>250.019</ele>
 </trkpt>
 <trkpt lat="51.33956697" lon="7.05533900">
  <ele>249.541</ele>
 </trkpt>
 <trkpt lat="51.33896599" lon="7.05584301">
  <ele>250.164</ele>
 </trkpt>
 <trkpt lat="51.33886297" lon="7.05592599">
  <ele>249.890</ele>
 </trkpt>
 <trkpt lat="51.33874697" lon="7.05604199">
  <ele>249.638</ele>
 </trkpt>
 <trkpt lat="51.33867103" lon="7.05610603">
  <ele>250.913</ele>
 </trkpt>
 <trkpt lat="51.33851898" lon="7.05636403">
  <ele>251.718</ele>
 </trkpt>
 <trkpt lat="51.33827297" lon="7.05646402">
  <ele>250.969</ele>
 </trkpt>
 <trkpt lat="51.33801799" lon="7.05668899">
  <ele>250.146</ele>
 </trkpt>
 <trkpt lat="51.33756696" lon="7.05706601">
  <ele>249.876</ele>
 </trkpt>
 <trkpt lat="51.33708299" lon="7.05751704">
  <ele>249.576</ele>
 </trkpt>
 <trkpt lat="51.33683296" lon="7.05773698">
  <ele>250.059</ele>
 </trkpt>
 <trkpt lat="51.33653800" lon="7.05799799">
  <ele>249.430</ele>
 </trkpt>
 <trkpt lat="51.33615201" lon="7.05833000">
  <ele>249.626</ele>
 </trkpt>
 <trkpt lat="51.33586803" lon="7.05859101">
  <ele>248.816</ele>
 </trkpt>
 <trkpt lat="51.33529102" lon="7.05900500">
  <ele>249.808</ele>
 </trkpt>
 <trkpt lat="51.33498400" lon="7.05914296">
  <ele>249.950</ele>
 </trkpt>
 <trkpt lat="51.33464998" lon="7.05929501">
  <ele>250.085</ele>
 </trkpt>
 <trkpt lat="51.33418302" lon="7.05949601">
  <ele>249.842</ele>
 </trkpt>
 <trkpt lat="51.33369503" lon="7.05971100">
  <ele>249.905</ele>
 </trkpt>
 <trkpt lat="51.33341197" lon="7.05984302">
  <ele>250.132</ele>
 </trkpt>
 <trkpt lat="51.33285399" lon="7.06008199">
  <ele>250.184</ele>
 </trkpt>
 <trkpt lat="51.33216701" lon="7.06035700">
  <ele>250.336</ele>
 </trkpt>
 <trkpt lat="51.33182502" lon="7.06042699">
  <ele>250.172</ele>
 </trkpt>
 <trkpt lat="51.33165202" lon="7.06043797">
  <ele>250.160</ele>
 </trkpt>
 <trkpt lat="51.33104400" lon="7.06032900">
  <ele>249.786</ele>
 </trkpt>
 <trkpt lat="51.33044100" lon="7.05997696">
  <ele>249.423</ele>
 </trkpt>
 <trkpt lat="51.33034696" lon="7.05990898">
  <ele>249.643</ele>
 </trkpt>
 <trkpt lat="51.32977598" lon="7.05943801">
  <ele>249.224</ele>
 </trkpt>
 <trkpt lat="51.32958697" lon="7.05932996">
  <ele>248.238</ele>
 </trkpt>
 <trkpt lat="51.32932797" lon="7.05922200">
  <ele>248.169</ele>
 </trkpt>
 <trkpt lat="51.32916201" lon="7.05918797">
  <ele>248.474</ele>
 </trkpt>
 <trkpt lat="51.32901801" lon="7.05913601">
  <ele>248.693</ele>
 </trkpt>
 <trkpt lat="51.32837503" lon="7.05910700">
  <ele>248.755</ele>
 </trkpt>
 <trkpt lat="51.32819197" lon="7.05913701">
  <ele>248.963</ele>
 </trkpt>
 <trkpt lat="51.32745403" lon="7.05918102">
  <ele>249.251</ele>
 </trkpt>
 <trkpt lat="51.32710501" lon="7.05918797">
  <ele>249.474</ele>
 </trkpt>
 <trkpt lat="51.32695598" lon="7.05916903">
  <ele>249.041</ele>
 </trkpt>
 <trkpt lat="51.32635600" lon="7.05899200">
  <ele>249.429</ele>
 </trkpt>
 <trkpt lat="51.32560800" lon="7.05872102">
  <ele>248.877</ele>
 </trkpt>
 <trkpt lat="51.32533399" lon="7.05862404">
  <ele>248.462</ele>
 </trkpt>
 <trkpt lat="51.32516200" lon="7.05856302">
  <ele>248.704</ele>
 </trkpt>
 <trkpt lat="51.32503501" lon="7.05859998">
  <ele>248.669</ele>
 </trkpt>
 <trkpt lat="51.32482496" lon="7.05872403">
  <ele>248.161</ele>
 </trkpt>
 <trkpt lat="51.32479797" lon="7.05858598">
  <ele>248.396</ele>
 </trkpt>
 <trkpt lat="51.32483401" lon="7.05852002">
  <ele>248.209</ele>
 </trkpt>
 <trkpt lat="51.32490601" lon="7.05850401">
  <ele>248.965</ele>
 </trkpt>
 <trkpt lat="51.32497701" lon="7.05844500">
  <ele>248.576</ele>
 </trkpt>
 <trkpt lat="51.32491197" lon="7.05817502">
  <ele>247.031</ele>
 </trkpt>
 <trkpt lat="51.32465296" lon="7.05776397">
  <ele>246.100</ele>
 </trkpt>
 <trkpt lat="51.32452900" lon="7.05756197">
  <ele>245.253</ele>
 </trkpt>
 <trkpt lat="51.32391997" lon="7.05728402">
  <ele>245.091</ele>
 </trkpt>
 <trkpt lat="51.32321304" lon="7.05750296">
  <ele>244.044</ele>
 </trkpt>
 <trkpt lat="51.32222699" lon="7.05798098">
  <ele>243.869</ele>
 </trkpt>
 <trkpt lat="51.32168904" lon="7.05833101">
  <ele>244.781</ele>
 </trkpt>
 <trkpt lat="51.32168200" lon="7.05840804">
  <ele>245.171</ele>
 </trkpt>
 <trkpt lat="51.32175199" lon="7.05874398">
  <ele>245.181</ele>
 </trkpt>
 <trkpt lat="51.32187998" lon="7.05942501">
  <ele>245.997</ele>
 </trkpt>
 <trkpt lat="51.32182499" lon="7.05948704">
  <ele>246.297</ele>
 </trkpt>
 <trkpt lat="51.32171301" lon="7.05955502">
  <ele>246.382</ele>
 </trkpt>
 <trkpt lat="51.32144596" lon="7.05965401">
  <ele>249.339</ele>
 </trkpt>
 <trkpt lat="51.32129702" lon="7.05971402">
  <ele>249.386</ele>
 </trkpt>
 <trkpt lat="51.32070299" lon="7.06000404">
  <ele>249.741</ele>
 </trkpt>
 <trkpt lat="51.32016504" lon="7.06026899">
  <ele>250.605</ele>
 </trkpt>
 <trkpt lat="51.31966900" lon="7.06051701">
  <ele>250.768</ele>
 </trkpt>
 <trkpt lat="51.31908797" lon="7.06079797">
  <ele>251.742</ele>
 </trkpt>
 <trkpt lat="51.31844298" lon="7.06112201">
  <ele>253.409</ele>
 </trkpt>
 <trkpt lat="51.31789296" lon="7.06139401">
  <ele>255.314</ele>
 </trkpt>
 <trkpt lat="51.31718402" lon="7.06174303">
  <ele>255.168</ele>
 </trkpt>
 <trkpt lat="51.31688604" lon="7.06189801">
  <ele>255.700</ele>
 </trkpt>
 <trkpt lat="51.31636402" lon="7.06215299">
  <ele>255.526</ele>
 </trkpt>
 <trkpt lat="51.31603503" lon="7.06231602">
  <ele>256.889</ele>
 </trkpt>
 <trkpt lat="51.31578499" lon="7.06246203">
  <ele>257.244</ele>
 </trkpt>
 <trkpt lat="51.31563898" lon="7.06259497">
  <ele>257.705</ele>
 </trkpt>
 <trkpt lat="51.31524201" lon="7.06306200">
  <ele>257.928</ele>
 </trkpt>
 <trkpt lat="51.31515199" lon="7.06318002">
  <ele>258.248</ele>
 </trkpt>
 <trkpt lat="51.31503498" lon="7.06336300">
  <ele>258.518</ele>
 </trkpt>
 <trkpt lat="51.31464397" lon="7.06403799">
  <ele>259.247</ele>
 </trkpt>
 <trkpt lat="51.31438899" lon="7.06447503">
  <ele>259.405</ele>
 </trkpt>
 <trkpt lat="51.31393301" lon="7.06523602">
  <ele>260.958</ele>
 </trkpt>
 <trkpt lat="51.31367401" lon="7.06561103">
  <ele>262.410</ele>
 </trkpt>
 <trkpt lat="51.31351903" lon="7.06585997">
  <ele>262.619</ele>
 </trkpt>
 <trkpt lat="51.31343496" lon="7.06604999">
  <ele>262.338</ele>
 </trkpt>
 <trkpt lat="51.31327604" lon="7.06630002">
  <ele>263.819</ele>
 </trkpt>
 <trkpt lat="51.31323799" lon="7.06648903">
  <ele>263.466</ele>
 </trkpt>
 <trkpt lat="51.31307798" lon="7.06667100">
  <ele>263.385</ele>
 </trkpt>
 <trkpt lat="51.31302500" lon="7.06669598">
  <ele>263.762</ele>
 </trkpt>
 <trkpt lat="51.31301704" lon="7.06669900">
  <ele>263.792</ele>
 </trkpt>
 <trkpt lat="51.31297203" lon="7.06677100">
  <ele>263.837</ele>
 </trkpt>
 <trkpt lat="51.31288301" lon="7.06691299">
  <ele>263.997</ele>
 </trkpt>
 <trkpt lat="51.31282702" lon="7.06727701">
  <ele>263.782</ele>
 </trkpt>
 <trkpt lat="51.31277899" lon="7.06735698">
  <ele>264.168</ele>
 </trkpt>
 <trkpt lat="51.31253801" lon="7.06786701">
  <ele>264.284</ele>
 </trkpt>
 <trkpt lat="51.31215102" lon="7.06843103">
  <ele>263.808</ele>
 </trkpt>
 <trkpt lat="51.31193602" lon="7.06845098">
  <ele>263.056</ele>
 </trkpt>
 <trkpt lat="51.31176503" lon="7.06865801">
  <ele>262.928</ele>
 </trkpt>
 <trkpt lat="51.31166596" lon="7.06881400">
  <ele>262.655</ele>
 </trkpt>
 <trkpt lat="51.31119004" lon="7.06940803">
  <ele>262.956</ele>
 </trkpt>
 <trkpt lat="51.31053298" lon="7.06982302">
  <ele>263.361</ele>
 </trkpt>
 <trkpt lat="51.30992102" lon="7.06981698">
  <ele>263.272</ele>
 </trkpt>
 <trkpt lat="51.30934602" lon="7.06940903">
  <ele>263.688</ele>
 </trkpt>
 <trkpt lat="51.30921501" lon="7.06925204">
  <ele>262.877</ele>
 </trkpt>
 <trkpt lat="51.30879197" lon="7.06857000">
  <ele>263.402</ele>
 </trkpt>
 <trkpt lat="51.30832602" lon="7.06778403">
  <ele>262.774</ele>
 </trkpt>
 <trkpt lat="51.30780199" lon="7.06693604">
  <ele>262.699</ele>
 </trkpt>
 <trkpt lat="51.30751801" lon="7.06662498">
  <ele>262.150</ele>
 </trkpt>
 <trkpt lat="51.30740200" lon="7.06650303">
  <ele>262.170</ele>
 </trkpt>
 <trkpt lat="51.30708299" lon="7.06630697">
  <ele>263.231</ele>
 </trkpt>
 <trkpt lat="51.30693102" lon="7.06620899">
  <ele>262.990</ele>
 </trkpt>
 <trkpt lat="51.30643900" lon="7.06588998">
  <ele>263.408</ele>
 </trkpt>
 <trkpt lat="51.30576099" lon="7.06545697">
  <ele>264.699</ele>
 </trkpt>
 <trkpt lat="51.30513897" lon="7.06505698">
  <ele>265.589</ele>
 </trkpt>
 <trkpt lat="51.30449700" lon="7.06465398">
  <ele>266.565</ele>
 </trkpt>
 <trkpt lat="51.30384103" lon="7.06427696">
  <ele>266.214</ele>
 </trkpt>
 <trkpt lat="51.30309002" lon="7.06408300">
  <ele>265.031</ele>
 </trkpt>
 <trkpt lat="51.30226599" lon="7.06384001">
  <ele>262.640</ele>
 </trkpt>
 <trkpt lat="51.30223196" lon="7.06380003">
  <ele>262.979</ele>
 </trkpt>
 <trkpt lat="51.30216197" lon="7.06375603">
  <ele>263.093</ele>
 </trkpt>
 <trkpt lat="51.30202099" lon="7.06372401">
  <ele>262.344</ele>
 </trkpt>
 <trkpt lat="51.30186500" lon="7.06368797">
  <ele>262.239</ele>
 </trkpt>
 <trkpt lat="51.30188797" lon="7.06356199">
  <ele>262.169</ele>
 </trkpt>
 <trkpt lat="51.30180197" lon="7.06341002">
  <ele>262.509</ele>
 </trkpt>
 <trkpt lat="51.30172703" lon="7.06332503">
  <ele>262.956</ele>
 </trkpt>
 <trkpt lat="51.30143803" lon="7.06296000">
  <ele>263.335</ele>
 </trkpt>
 <trkpt lat="51.30121197" lon="7.06268499">
  <ele>262.619</ele>
 </trkpt>
 <trkpt lat="51.30087803" lon="7.06226103">
  <ele>261.991</ele>
 </trkpt>
 <trkpt lat="51.30062900" lon="7.06195300">
  <ele>263.333</ele>
 </trkpt>
 <trkpt lat="51.30051803" lon="7.06181997">
  <ele>262.968</ele>
 </trkpt>
 <trkpt lat="51.30018099" lon="7.06140096">
  <ele>262.142</ele>
 </trkpt>
 <trkpt lat="51.29986198" lon="7.06098204">
  <ele>261.841</ele>
 </trkpt>
 <trkpt lat="51.29964396" lon="7.06070200">
  <ele>261.377</ele>
 </trkpt>
 <trkpt lat="51.29927499" lon="7.06022800">
  <ele>261.327</ele>
 </trkpt>
 <trkpt lat="51.29896201" lon="7.05983598">
  <ele>260.728</ele>
 </trkpt>
 <trkpt lat="51.29851601" lon="7.05913198">
  <ele>260.586</ele>
 </trkpt>
 <trkpt lat="51.29813103" lon="7.05817997">
  <ele>259.933</ele>
 </trkpt>
 <trkpt lat="51.29781503" lon="7.05702896">
  <ele>258.858</ele>
 </trkpt>
 <trkpt lat="51.29768997" lon="7.05661196">
  <ele>259.015</ele>
 </trkpt>
 <trkpt lat="51.29753600" lon="7.05604400">
  <ele>258.261</ele>
 </trkpt>
 <trkpt lat="51.29743701" lon="7.05567797">
  <ele>258.142</ele>
 </trkpt>
 <trkpt lat="51.29728798" lon="7.05512803">
  <ele>257.613</ele>
 </trkpt>
 <trkpt lat="51.29714297" lon="7.05459796">
  <ele>257.482</ele>
 </trkpt>
 <trkpt lat="51.29694398" lon="7.05390402">
  <ele>256.530</ele>
 </trkpt>
 <trkpt lat="51.29679998" lon="7.05342097">
  <ele>255.881</ele>
 </trkpt>
 <trkpt lat="51.29659597" lon="7.05259502">
  <ele>254.117</ele>
 </trkpt>
 <trkpt lat="51.29650301" lon="7.05226997">
  <ele>253.858</ele>
 </trkpt>
 <trkpt lat="51.29586004" lon="7.05109298">
  <ele>252.225</ele>
 </trkpt>
 <trkpt lat="51.29521002" lon="7.05066802">
  <ele>249.456</ele>
 </trkpt>
 <trkpt lat="51.29443302" lon="7.05061303">
  <ele>247.819</ele>
 </trkpt>
 <trkpt lat="51.29403999" lon="7.05062502">
  <ele>246.756</ele>
 </trkpt>
 <trkpt lat="51.29330196" lon="7.05087204">
  <ele>246.379</ele>
 </trkpt>
 <trkpt lat="51.29299896" lon="7.05115199">
  <ele>244.524</ele>
 </trkpt>
 <trkpt lat="51.29285102" lon="7.05133698">
  <ele>244.418</ele>
 </trkpt>
 <trkpt lat="51.29250904" lon="7.05192698">
  <ele>242.486</ele>
 </trkpt>
 <trkpt lat="51.29233503" lon="7.05241498">
  <ele>241.955</ele>
 </trkpt>
 <trkpt lat="51.29219002" lon="7.05306097">
  <ele>240.367</ele>
 </trkpt>
 <trkpt lat="51.29208801" lon="7.05352901">
  <ele>239.882</ele>
 </trkpt>
 <trkpt lat="51.29202900" lon="7.05382800">
  <ele>239.402</ele>
 </trkpt>
 <trkpt lat="51.29193798" lon="7.05426201">
  <ele>238.573</ele>
 </trkpt>
 <trkpt lat="51.29176204" lon="7.05486903">
  <ele>237.349</ele>
 </trkpt>
 <trkpt lat="51.29152802" lon="7.05541402">
  <ele>236.762</ele>
 </trkpt>
 <trkpt lat="51.29103701" lon="7.05608399">
  <ele>235.012</ele>
 </trkpt>
 <trkpt lat="51.29040903" lon="7.05647701">
  <ele>233.468</ele>
 </trkpt>
 <trkpt lat="51.28978601" lon="7.05655304">
  <ele>231.993</ele>
 </trkpt>
 <trkpt lat="51.28921503" lon="7.05635296">
  <ele>230.253</ele>
 </trkpt>
 <trkpt lat="51.28885604" lon="7.05606404">
  <ele>228.760</ele>
 </trkpt>
 <trkpt lat="51.28871497" lon="7.05588500">
  <ele>228.552</ele>
 </trkpt>
 <trkpt lat="51.28854800" lon="7.05565601">
  <ele>228.214</ele>
 </trkpt>
 <trkpt lat="51.28834298" lon="7.05527698">
  <ele>227.562</ele>
 </trkpt>
 <trkpt lat="51.28826704" lon="7.05507296">
  <ele>226.447</ele>
 </trkpt>
 <trkpt lat="51.28820501" lon="7.05491496">
  <ele>226.075</ele>
 </trkpt>
 <trkpt lat="51.28812999" lon="7.05466803">
  <ele>225.723</ele>
 </trkpt>
 <trkpt lat="51.28803302" lon="7.05422597">
  <ele>224.842</ele>
 </trkpt>
 <trkpt lat="51.28794903" lon="7.05361803">
  <ele>224.170</ele>
 </trkpt>
 <trkpt lat="51.28792397" lon="7.05309098">
  <ele>222.954</ele>
 </trkpt>
 <trkpt lat="51.28781903" lon="7.05230400">
  <ele>222.694</ele>
 </trkpt>
 <trkpt lat="51.28776899" lon="7.05164602">
  <ele>222.770</ele>
 </trkpt>
 <trkpt lat="51.28774501" lon="7.05080104">
  <ele>220.995</ele>
 </trkpt>
 <trkpt lat="51.28773303" lon="7.05056702">
  <ele>220.559</ele>
 </trkpt>
 <trkpt lat="51.28762599" lon="7.05049803">
  <ele>219.648</ele>
 </trkpt>
 <trkpt lat="51.28752398" lon="7.05050801">
  <ele>218.151</ele>
 </trkpt>
 <trkpt lat="51.28734201" lon="7.05054699">
  <ele>215.637</ele>
 </trkpt>
 <trkpt lat="51.28711402" lon="7.05063902">
  <ele>214.042</ele>
 </trkpt>
 <trkpt lat="51.28694102" lon="7.05066198">
  <ele>212.187</ele>
 </trkpt>
 <trkpt lat="51.28668998" lon="7.05065704">
  <ele>226.358</ele>
 </trkpt>
 <trkpt lat="51.28666199" lon="7.05106004">
  <ele>225.263</ele>
 </trkpt>
 <trkpt lat="51.28661497" lon="7.05165398">
  <ele>225.577</ele>
 </trkpt>
 <trkpt lat="51.28663600" lon="7.05220400">
  <ele>226.476</ele>
 </trkpt>
 <trkpt lat="51.28670499" lon="7.05280901">
  <ele>227.669</ele>
 </trkpt>
 <trkpt lat="51.28678202" lon="7.05307304">
  <ele>228.328</ele>
 </trkpt>
 <trkpt lat="51.28684304" lon="7.05330698">
  <ele>228.698</ele>
 </trkpt>
 <trkpt lat="51.28699802" lon="7.05387997">
  <ele>228.885</ele>
 </trkpt>
 <trkpt lat="51.28717102" lon="7.05441004">
  <ele>228.695</ele>
 </trkpt>
 <trkpt lat="51.28729298" lon="7.05480600">
  <ele>228.739</ele>
 </trkpt>
 <trkpt lat="51.28741401" lon="7.05501798">
  <ele>228.549</ele>
 </trkpt>
 <trkpt lat="51.28779799" lon="7.05653996">
  <ele>229.768</ele>
 </trkpt>
 <trkpt lat="51.28808398" lon="7.05757496">
  <ele>230.102</ele>
 </trkpt>
 <trkpt lat="51.28831901" lon="7.05837300">
  <ele>229.020</ele>
 </trkpt>
 <trkpt lat="51.28848497" lon="7.05895596">
  <ele>227.629</ele>
 </trkpt>
 <trkpt lat="51.28862503" lon="7.05922997">
  <ele>227.255</ele>
 </trkpt>
 <trkpt lat="51.28880901" lon="7.05969600">
  <ele>225.990</ele>
 </trkpt>
 <trkpt lat="51.28896802" lon="7.06023303">
  <ele>225.207</ele>
 </trkpt>
 <trkpt lat="51.28909500" lon="7.06058700">
  <ele>224.694</ele>
 </trkpt>
 <trkpt lat="51.28916197" lon="7.06096603">
  <ele>224.233</ele>
 </trkpt>
 <trkpt lat="51.28915996" lon="7.06135000">
  <ele>223.294</ele>
 </trkpt>
 <trkpt lat="51.28919198" lon="7.06181201">
  <ele>221.923</ele>
 </trkpt>
 <trkpt lat="51.28911898" lon="7.06236396">
  <ele>221.556</ele>
 </trkpt>
 <trkpt lat="51.28908402" lon="7.06252699">
  <ele>221.192</ele>
 </trkpt>
 <trkpt lat="51.28905402" lon="7.06275498">
  <ele>220.820</ele>
 </trkpt>
 <trkpt lat="51.28888998" lon="7.06316904">
  <ele>220.537</ele>
 </trkpt>
 <trkpt lat="51.28876400" lon="7.06343500">
  <ele>220.297</ele>
 </trkpt>
 <trkpt lat="51.28852302" lon="7.06392702">
  <ele>219.604</ele>
 </trkpt>
 <trkpt lat="51.28833996" lon="7.06418803">
  <ele>220.055</ele>
 </trkpt>
 <trkpt lat="51.28811801" lon="7.06447000">
  <ele>218.717</ele>
 </trkpt>
 <trkpt lat="51.28775700" lon="7.06503896">
  <ele>217.770</ele>
 </trkpt>
 <trkpt lat="51.28766396" lon="7.06521297">
  <ele>217.138</ele>
 </trkpt>
 <trkpt lat="51.28753999" lon="7.06547096">
  <ele>217.035</ele>
 </trkpt>
 <trkpt lat="51.28730404" lon="7.06634704">
  <ele>216.034</ele>
 </trkpt>
 <trkpt lat="51.28726297" lon="7.06652298">
  <ele>215.499</ele>
 </trkpt>
 <trkpt lat="51.28719600" lon="7.06678801">
  <ele>215.139</ele>
 </trkpt>
 <trkpt lat="51.28699299" lon="7.06774497">
  <ele>212.857</ele>
 </trkpt>
 <trkpt lat="51.28688101" lon="7.06903503">
  <ele>210.551</ele>
 </trkpt>
 <trkpt lat="51.28671002" lon="7.06985302">
  <ele>209.720</ele>
 </trkpt>
 <trkpt lat="51.28628698" lon="7.07064796">
  <ele>208.793</ele>
 </trkpt>
 <trkpt lat="51.28618296" lon="7.07075198">
  <ele>208.333</ele>
 </trkpt>
 <trkpt lat="51.28600904" lon="7.07097402">
  <ele>207.937</ele>
 </trkpt>
 <trkpt lat="51.28587803" lon="7.07109002">
  <ele>207.742</ele>
 </trkpt>
 <trkpt lat="51.28552398" lon="7.07125003">
  <ele>206.698</ele>
 </trkpt>
 <trkpt lat="51.28528702" lon="7.07125699">
  <ele>205.677</ele>
 </trkpt>
 <trkpt lat="51.28517102" lon="7.07124098">
  <ele>205.335</ele>
 </trkpt>
 <trkpt lat="51.28478402" lon="7.07123696">
  <ele>204.459</ele>
 </trkpt>
 <trkpt lat="51.28458302" lon="7.07122003">
  <ele>204.337</ele>
 </trkpt>
 <trkpt lat="51.28457003" lon="7.07120997">
  <ele>204.582</ele>
 </trkpt>
 <trkpt lat="51.28451304" lon="7.07123696">
  <ele>203.276</ele>
 </trkpt>
 <trkpt lat="51.28424498" lon="7.07139504">
  <ele>202.279</ele>
 </trkpt>
 <trkpt lat="51.28411900" lon="7.07149697">
  <ele>202.131</ele>
 </trkpt>
 <trkpt lat="51.28399503" lon="7.07162504">
  <ele>202.429</ele>
 </trkpt>
 <trkpt lat="51.28379202" lon="7.07188899">
  <ele>201.057</ele>
 </trkpt>
 <trkpt lat="51.28346798" lon="7.07257899">
  <ele>199.749</ele>
 </trkpt>
 <trkpt lat="51.28334502" lon="7.07274897">
  <ele>197.815</ele>
 </trkpt>
 <trkpt lat="51.28318601" lon="7.07294603">
  <ele>196.737</ele>
 </trkpt>
 <trkpt lat="51.28303799" lon="7.07351700">
  <ele>196.911</ele>
 </trkpt>
 <trkpt lat="51.28291796" lon="7.07373996">
  <ele>197.926</ele>
 </trkpt>
 <trkpt lat="51.28277999" lon="7.07411103">
  <ele>197.519</ele>
 </trkpt>
 <trkpt lat="51.28273197" lon="7.07422804">
  <ele>196.764</ele>
 </trkpt>
 <trkpt lat="51.28254698" lon="7.07471302">
  <ele>196.518</ele>
 </trkpt>
 <trkpt lat="51.28249803" lon="7.07484403">
  <ele>196.922</ele>
 </trkpt>
 <trkpt lat="51.28231396" lon="7.07523898">
  <ele>195.937</ele>
 </trkpt>
 <trkpt lat="51.28220600" lon="7.07550502">
  <ele>195.836</ele>
 </trkpt>
 <trkpt lat="51.28195999" lon="7.07643801">
  <ele>196.114</ele>
 </trkpt>
 <trkpt lat="51.28173804" lon="7.07732800">
  <ele>196.339</ele>
 </trkpt>
 <trkpt lat="51.28154199" lon="7.07804700">
  <ele>196.193</ele>
 </trkpt>
 <trkpt lat="51.28142204" lon="7.07835697">
  <ele>197.156</ele>
 </trkpt>
 <trkpt lat="51.28124904" lon="7.07867498">
  <ele>197.337</ele>
 </trkpt>
 <trkpt lat="51.28093497" lon="7.07908100">
  <ele>197.304</ele>
 </trkpt>
 <trkpt lat="51.28084302" lon="7.07913397">
  <ele>197.374</ele>
 </trkpt>
 <trkpt lat="51.28069298" lon="7.07924302">
  <ele>196.733</ele>
 </trkpt>
 <trkpt lat="51.28062501" lon="7.07895300">
  <ele>196.073</ele>
 </trkpt>
 <trkpt lat="51.28051403" lon="7.07809897">
  <ele>192.869</ele>
 </trkpt>
 <trkpt lat="51.28044798" lon="7.07768600">
  <ele>191.459</ele>
 </trkpt>
 <trkpt lat="51.28026601" lon="7.07676097">
  <ele>190.479</ele>
 </trkpt>
 <trkpt lat="51.28018596" lon="7.07662703">
  <ele>189.813</ele>
 </trkpt>
 <trkpt lat="51.28020197" lon="7.07642603">
  <ele>188.966</ele>
 </trkpt>
 <trkpt lat="51.28021798" lon="7.07622101">
  <ele>187.303</ele>
 </trkpt>
 <trkpt lat="51.28014003" lon="7.07585002">
  <ele>186.196</ele>
 </trkpt>
 <trkpt lat="51.27996904" lon="7.07525901">
  <ele>184.539</ele>
 </trkpt>
 <trkpt lat="51.27992101" lon="7.07484797">
  <ele>183.126</ele>
 </trkpt>
 <trkpt lat="51.27990198" lon="7.07473900">
  <ele>182.326</ele>
 </trkpt>
 <trkpt lat="51.27973099" lon="7.07381498">
  <ele>183.143</ele>
 </trkpt>
 <trkpt lat="51.27969202" lon="7.07332397">
  <ele>184.132</ele>
 </trkpt>
 <trkpt lat="51.27963896" lon="7.07311199">
  <ele>183.491</ele>
 </trkpt>
 <trkpt lat="51.27939303" lon="7.07318600">
  <ele>182.968</ele>
 </trkpt>
 <trkpt lat="51.27929999" lon="7.07320604">
  <ele>182.408</ele>
 </trkpt>
 <trkpt lat="51.27909204" lon="7.07333696">
  <ele>182.152</ele>
 </trkpt>
 <trkpt lat="51.27842098" lon="7.07345297">
  <ele>180.265</ele>
 </trkpt>
 <trkpt lat="51.27783601" lon="7.07355497">
  <ele>179.191</ele>
 </trkpt>
 <trkpt lat="51.27761398" lon="7.07359504">
  <ele>178.619</ele>
 </trkpt>
 <trkpt lat="51.27691300" lon="7.07367500">
  <ele>178.964</ele>
 </trkpt>
 <trkpt lat="51.27662600" lon="7.07369797">
  <ele>178.895</ele>
 </trkpt>
 <trkpt lat="51.27641796" lon="7.07364198">
  <ele>178.624</ele>
 </trkpt>
 <trkpt lat="51.27572704" lon="7.07321802">
  <ele>178.346</ele>
 </trkpt>
 <trkpt lat="51.27517501" lon="7.07274604">
  <ele>178.480</ele>
 </trkpt>
 <trkpt lat="51.27469297" lon="7.07233700">
  <ele>178.201</ele>
 </trkpt>
 <trkpt lat="51.27448099" lon="7.07217104">
  <ele>178.464</ele>
 </trkpt>
 <trkpt lat="51.27402300" lon="7.07172001">
  <ele>179.862</ele>
 </trkpt>
 <trkpt lat="51.27388302" lon="7.07161297">
  <ele>179.835</ele>
 </trkpt>
 <trkpt lat="51.27374900" lon="7.07152597">
  <ele>180.462</ele>
 </trkpt>
 <trkpt lat="51.27365998" lon="7.07118097">
  <ele>179.842</ele>
 </trkpt>
 <trkpt lat="51.27350324" lon="7.07098139">
  <ele>162.789</ele>
 </trkpt>
 <trkpt lat="51.27325161" lon="7.07067437">
  <ele>162.086</ele>
 </trkpt>
 <trkpt lat="51.27311692" lon="7.07054277">
  <ele>162.078</ele>
 </trkpt>
 <trkpt lat="51.27293721" lon="7.07042207">
  <ele>161.871</ele>
 </trkpt>
 <trkpt lat="51.27272163" lon="7.07044403">
  <ele>161.969</ele>
 </trkpt>
 <trkpt lat="51.27258676" lon="7.07055367">
  <ele>162.391</ele>
 </trkpt>
 <trkpt lat="51.27240722" lon="7.07081694">
  <ele>163.746</ele>
 </trkpt>
 <trkpt lat="51.27239834" lon="7.07082784">
  <ele>163.820</ele>
 </trkpt>
 <trkpt lat="51.27229046" lon="7.07111299">
  <ele>165.168</ele>
 </trkpt>
 <trkpt lat="51.27220061" lon="7.07155162">
  <ele>165.848</ele>
 </trkpt>
 <trkpt lat="51.27217362" lon="7.07194649">
  <ele>168.328</ele>
 </trkpt>
 <trkpt lat="51.27215568" lon="7.07217674">
  <ele>169.648</ele>
 </trkpt>
 <trkpt lat="51.27205694" lon="7.07229744">
  <ele>169.598</ele>
 </trkpt>
 <trkpt lat="51.27175142" lon="7.07239609">
  <ele>168.051</ele>
 </trkpt>
 <trkpt lat="51.27141908" lon="7.07245091">
  <ele>164.688</ele>
 </trkpt>
 <trkpt lat="51.27115857" lon="7.07245091">
  <ele>162.211</ele>
 </trkpt>
 <trkpt lat="51.27097802" lon="7.07245099">
  <ele>176.941</ele>
 </trkpt>
 <trkpt lat="51.27091197" lon="7.07209300">
  <ele>176.895</ele>
 </trkpt>
 <trkpt lat="51.27090099" lon="7.07165698">
  <ele>176.754</ele>
 </trkpt>
 <trkpt lat="51.27092899" lon="7.07117703">
  <ele>177.313</ele>
 </trkpt>
 <trkpt lat="51.27091298" lon="7.07049198">
  <ele>174.962</ele>
 </trkpt>
 <trkpt lat="51.27090200" lon="7.07024798">
  <ele>172.560</ele>
 </trkpt>
 <trkpt lat="51.27085397" lon="7.07009199">
  <ele>172.082</ele>
 </trkpt>
 <trkpt lat="51.27063897" lon="7.06969100">
  <ele>171.292</ele>
 </trkpt>
 <trkpt lat="51.27054200" lon="7.06947902">
  <ele>171.385</ele>
 </trkpt>
 <trkpt lat="51.27049698" lon="7.06915297">
  <ele>171.011</ele>
 </trkpt>
 <trkpt lat="51.27050503" lon="7.06901802">
  <ele>170.719</ele>
 </trkpt>
 <trkpt lat="51.27070402" lon="7.06823699">
  <ele>170.626</ele>
 </trkpt>
 <trkpt lat="51.27087501" lon="7.06791001">
  <ele>170.517</ele>
 </trkpt>
 <trkpt lat="51.27100501" lon="7.06751799">
  <ele>171.729</ele>
 </trkpt>
 <trkpt lat="51.27096897" lon="7.06743803">
  <ele>172.743</ele>
 </trkpt>
 <trkpt lat="51.27079203" lon="7.06725799">
  <ele>174.444</ele>
 </trkpt>
 <trkpt lat="51.27054602" lon="7.06693796">
  <ele>175.014</ele>
 </trkpt>
 <trkpt lat="51.27008803" lon="7.06622701">
  <ele>173.410</ele>
 </trkpt>
 <trkpt lat="51.26971596" lon="7.06546702">
  <ele>175.066</ele>
 </trkpt>
 <trkpt lat="51.26923098" lon="7.06454501">
  <ele>174.872</ele>
 </trkpt>
 <trkpt lat="51.26865297" lon="7.06362099">
  <ele>173.196</ele>
 </trkpt>
 <trkpt lat="51.26846496" lon="7.06331698">
  <ele>172.066</ele>
 </trkpt>
 <trkpt lat="51.26803002" lon="7.06256898">
  <ele>171.531</ele>
 </trkpt>
 <trkpt lat="51.26743600" lon="7.06158402">
  <ele>170.312</ele>
 </trkpt>
 <trkpt lat="51.26667400" lon="7.06044098">
  <ele>169.680</ele>
 </trkpt>
 <trkpt lat="51.26609699" lon="7.05958502">
  <ele>168.886</ele>
 </trkpt>
 <trkpt lat="51.26567404" lon="7.05890500">
  <ele>168.608</ele>
 </trkpt>
 <trkpt lat="51.26516702" lon="7.05812104">
  <ele>168.525</ele>
 </trkpt>
 <trkpt lat="51.26468204" lon="7.05754202">
  <ele>168.738</ele>
 </trkpt>
 <trkpt lat="51.26419002" lon="7.05699300">
  <ele>166.826</ele>
 </trkpt>
 <trkpt lat="51.26381200" lon="7.05647701">
  <ele>165.119</ele>
 </trkpt>
 <trkpt lat="51.26370496" lon="7.05640602">
  <ele>165.293</ele>
 </trkpt>
 <trkpt lat="51.26348804" lon="7.05631801">
  <ele>164.508</ele>
 </trkpt>
 <trkpt lat="51.26280198" lon="7.05643502">
  <ele>163.819</ele>
 </trkpt>
 <trkpt lat="51.26247802" lon="7.05656100">
  <ele>162.923</ele>
 </trkpt>
 <trkpt lat="51.26207300" lon="7.05667097">
  <ele>162.760</ele>
 </trkpt>
 <trkpt lat="51.26187997" lon="7.05659000">
  <ele>161.819</ele>
 </trkpt>
 <trkpt lat="51.26173203" lon="7.05654600">
  <ele>161.716</ele>
 </trkpt>
 <trkpt lat="51.26168199" lon="7.05650501">
  <ele>161.402</ele>
 </trkpt>
 <trkpt lat="51.26168702" lon="7.05627602">
  <ele>161.181</ele>
 </trkpt>
 <trkpt lat="51.26203696" lon="7.05570001">
  <ele>159.198</ele>
 </trkpt>
 <trkpt lat="51.26198499" lon="7.05543196">
  <ele>158.187</ele>
 </trkpt>
 <trkpt lat="51.26190696" lon="7.05536197">
  <ele>157.941</ele>
 </trkpt>
 <trkpt lat="51.26175500" lon="7.05526097">
  <ele>158.551</ele>
 </trkpt>
 <trkpt lat="51.26131897" lon="7.05495796">
  <ele>158.086</ele>
 </trkpt>
 <trkpt lat="51.26108503" lon="7.05478496">
  <ele>158.127</ele>
 </trkpt>
 <trkpt lat="51.26081002" lon="7.05466300">
  <ele>157.816</ele>
 </trkpt>
 <trkpt lat="51.26033401" lon="7.05420300">
  <ele>157.551</ele>
 </trkpt>
 <trkpt lat="51.26010996" lon="7.05390997">
  <ele>157.174</ele>
 </trkpt>
 <trkpt lat="51.26010602" lon="7.05364301">
  <ele>157.260</ele>
 </trkpt>
 <trkpt lat="51.26024097" lon="7.05321796">
  <ele>158.780</ele>
 </trkpt>
 <trkpt lat="51.26025799" lon="7.05311797">
  <ele>160.130</ele>
 </trkpt>
 <trkpt lat="51.26028598" lon="7.05267498">
  <ele>162.137</ele>
 </trkpt>
 <trkpt lat="51.26033401" lon="7.05237499">
  <ele>163.901</ele>
 </trkpt>
 <trkpt lat="51.26035396" lon="7.05201499">
  <ele>167.069</ele>
 </trkpt>
 <trkpt lat="51.26040601" lon="7.05176597">
  <ele>168.368</ele>
 </trkpt>
 <trkpt lat="51.26041397" lon="7.05160998">
  <ele>168.254</ele>
 </trkpt>
 <trkpt lat="51.26035698" lon="7.05142298">
  <ele>167.931</ele>
 </trkpt>
 <trkpt lat="51.26016696" lon="7.05085200">
  <ele>168.253</ele>
 </trkpt>
 <trkpt lat="51.25986898" lon="7.04993402">
  <ele>169.622</ele>
 </trkpt>
 <trkpt lat="51.25957101" lon="7.04904998">
  <ele>168.188</ele>
 </trkpt>
 <trkpt lat="51.25936003" lon="7.04816502">
  <ele>165.275</ele>
 </trkpt>
 <trkpt lat="51.25926297" lon="7.04719397">
  <ele>161.899</ele>
 </trkpt>
 <trkpt lat="51.25920899" lon="7.04661302">
  <ele>159.270</ele>
 </trkpt>
 <trkpt lat="51.25903901" lon="7.04621304">
  <ele>156.671</ele>
 </trkpt>
 <trkpt lat="51.25891998" lon="7.04609804">
  <ele>155.990</ele>
 </trkpt>
 <trkpt lat="51.25844004" lon="7.04546998">
  <ele>155.364</ele>
 </trkpt>
 <trkpt lat="51.25817299" lon="7.04510403">
  <ele>157.209</ele>
 </trkpt>
 <trkpt lat="51.25778398" lon="7.04453004">
  <ele>157.511</ele>
 </trkpt>
 <trkpt lat="51.25744804" lon="7.04385898">
  <ele>156.139</ele>
 </trkpt>
 <trkpt lat="51.25710698" lon="7.04305499">
  <ele>155.356</ele>
 </trkpt>
 <trkpt lat="51.25683096" lon="7.04231001">
  <ele>156.207</ele>
 </trkpt>
 <trkpt lat="51.25668503" lon="7.04192000">
  <ele>158.302</ele>
 </trkpt>
 <trkpt lat="51.25645101" lon="7.04162696">
  <ele>159.665</ele>
 </trkpt>
 <trkpt lat="51.25615102" lon="7.04142697">
  <ele>157.481</ele>
 </trkpt>
 <trkpt lat="51.25589697" lon="7.04135397">
  <ele>154.986</ele>
 </trkpt>
 <trkpt lat="51.25549899" lon="7.04136402">
  <ele>151.559</ele>
 </trkpt>
 <trkpt lat="51.25494302" lon="7.04136201">
  <ele>150.134</ele>
 </trkpt>
 <trkpt lat="51.25476399" lon="7.04129303">
  <ele>150.788</ele>
 </trkpt>
 <trkpt lat="51.25450197" lon="7.04101098">
  <ele>152.506</ele>
 </trkpt>
 <trkpt lat="51.25425302" lon="7.04097100">
  <ele>154.477</ele>
 </trkpt>
 <trkpt lat="51.25390601" lon="7.04096898">
  <ele>152.380</ele>
 </trkpt>
 <trkpt lat="51.25329397" lon="7.04080403">
  <ele>150.988</ele>
 </trkpt>
 <trkpt lat="51.25293598" lon="7.04070504">
  <ele>152.274</ele>
 </trkpt>
 <trkpt lat="51.25254303" lon="7.04035199">
  <ele>154.358</ele>
 </trkpt>
 <trkpt lat="51.25222804" lon="7.04013096">
  <ele>154.556</ele>
 </trkpt>
 <trkpt lat="51.25177802" lon="7.03974104">
  <ele>153.905</ele>
 </trkpt>
 <trkpt lat="51.25163997" lon="7.03958103">
  <ele>153.482</ele>
 </trkpt>
 <trkpt lat="51.25132497" lon="7.03925204">
  <ele>153.485</ele>
 </trkpt>
 <trkpt lat="51.25083698" lon="7.03888600">
  <ele>154.306</ele>
 </trkpt>
 <trkpt lat="51.25048704" lon="7.03880997">
  <ele>157.341</ele>
 </trkpt>
 <trkpt lat="51.25025704" lon="7.03857101">
  <ele>158.196</ele>
 </trkpt>
 <trkpt lat="51.25003600" lon="7.03814697">
  <ele>161.250</ele>
 </trkpt>
 <trkpt lat="51.24973199" lon="7.03760197">
  <ele>162.597</ele>
 </trkpt>
 <trkpt lat="51.24944299" lon="7.03707802">
  <ele>160.981</ele>
 </trkpt>
 <trkpt lat="51.24907200" lon="7.03645198">
  <ele>157.845</ele>
 </trkpt>
 <trkpt lat="51.24899204" lon="7.03637403">
  <ele>158.210</ele>
 </trkpt>
 <trkpt lat="51.24881401" lon="7.03642599">
  <ele>156.641</ele>
 </trkpt>
 <trkpt lat="51.24871401" lon="7.03661400">
  <ele>154.690</ele>
 </trkpt>
 <trkpt lat="51.24870496" lon="7.03670100">
  <ele>154.024</ele>
 </trkpt>
 <trkpt lat="51.24866598" lon="7.03718296">
  <ele>151.431</ele>
 </trkpt>
 <trkpt lat="51.24857998" lon="7.03855500">
  <ele>150.343</ele>
 </trkpt>
 <trkpt lat="51.24853799" lon="7.03952403">
  <ele>147.388</ele>
 </trkpt>
 <trkpt lat="51.24859499" lon="7.04000498">
  <ele>144.222</ele>
 </trkpt>
 <trkpt lat="51.24863698" lon="7.04048803">
  <ele>143.637</ele>
 </trkpt>
 <trkpt lat="51.24848996" lon="7.04125003">
  <ele>144.396</ele>
 </trkpt>
 <trkpt lat="51.24845400" lon="7.04139504">
  <ele>143.511</ele>
 </trkpt>
 <trkpt lat="51.24832300" lon="7.04137400">
  <ele>145.816</ele>
 </trkpt>
 <trkpt lat="51.24823901" lon="7.04128096">
  <ele>146.172</ele>
 </trkpt>
 <trkpt lat="51.24804103" lon="7.04097301">
  <ele>146.278</ele>
 </trkpt>
 <trkpt lat="51.24782201" lon="7.04059800">
  <ele>147.273</ele>
 </trkpt>
 <trkpt lat="51.24768203" lon="7.04036599">
  <ele>146.222</ele>
 </trkpt>
 <trkpt lat="51.24755697" lon="7.04017698">
  <ele>146.139</ele>
 </trkpt>
 <trkpt lat="51.24745899" lon="7.03987900">
  <ele>146.203</ele>
 </trkpt>
 <trkpt lat="51.24729403" lon="7.03906302">
  <ele>146.903</ele>
 </trkpt>
 <trkpt lat="51.24705004" lon="7.03847202">
  <ele>149.183</ele>
 </trkpt>
 <trkpt lat="51.24703797" lon="7.03803498">
  <ele>150.393</ele>
 </trkpt>
 <trkpt lat="51.24704098" lon="7.03728204">
  <ele>151.001</ele>
 </trkpt>
 <trkpt lat="51.24684099" lon="7.03663101">
  <ele>149.605</ele>
 </trkpt>
 <trkpt lat="51.24665399" lon="7.03596801">
  <ele>149.148</ele>
 </trkpt>
 <trkpt lat="51.24640203" lon="7.03515496">
  <ele>149.566</ele>
 </trkpt>
 <trkpt lat="51.24610598" lon="7.03437301">
  <ele>149.618</ele>
 </trkpt>
 <trkpt lat="51.24592803" lon="7.03387798">
  <ele>151.256</ele>
 </trkpt>
 <trkpt lat="51.24571899" lon="7.03326903">
  <ele>153.353</ele>
 </trkpt>
 <trkpt lat="51.24558999" lon="7.03263402">
  <ele>152.984</ele>
 </trkpt>
 <trkpt lat="51.24551003" lon="7.03232003">
  <ele>153.465</ele>
 </trkpt>
 <trkpt lat="51.24541900" lon="7.03202801">
  <ele>152.800</ele>
 </trkpt>
 <trkpt lat="51.24530802" lon="7.03173699">
  <ele>152.705</ele>
 </trkpt>
 <trkpt lat="51.24518699" lon="7.03145896">
  <ele>152.119</ele>
 </trkpt>
 <trkpt lat="51.24500602" lon="7.03096200">
  <ele>151.808</ele>
 </trkpt>
 <trkpt lat="51.24494500" lon="7.03078397">
  <ele>152.297</ele>
 </trkpt>
 <trkpt lat="51.24493604" lon="7.03020100">
  <ele>153.170</ele>
 </trkpt>
 <trkpt lat="51.24487300" lon="7.02978903">
  <ele>155.239</ele>
 </trkpt>
 <trkpt lat="51.24470696" lon="7.02962701">
  <ele>156.889</ele>
 </trkpt>
 <trkpt lat="51.24465700" lon="7.02961997">
  <ele>157.930</ele>
 </trkpt>
 <trkpt lat="51.24457201" lon="7.02963296">
  <ele>157.984</ele>
 </trkpt>
 <trkpt lat="51.24443304" lon="7.02953800">
  <ele>158.919</ele>
 </trkpt>
 <trkpt lat="51.24441099" lon="7.02946197">
  <ele>158.621</ele>
 </trkpt>
 <trkpt lat="51.24435098" lon="7.02927204">
  <ele>158.196</ele>
 </trkpt>
 <trkpt lat="51.24415702" lon="7.02914396">
  <ele>158.880</ele>
 </trkpt>
 <trkpt lat="51.24404202" lon="7.02906098">
  <ele>160.082</ele>
 </trkpt>
 <trkpt lat="51.24388796" lon="7.02900097">
  <ele>161.238</ele>
 </trkpt>
 <trkpt lat="51.24364899" lon="7.02894900">
  <ele>164.704</ele>
 </trkpt>
 <trkpt lat="51.24341003" lon="7.02893601">
  <ele>166.834</ele>
 </trkpt>
 <trkpt lat="51.24319998" lon="7.02900499">
  <ele>168.777</ele>
 </trkpt>
 <trkpt lat="51.24296604" lon="7.02916299">
  <ele>170.746</ele>
 </trkpt>
 <trkpt lat="51.24267804" lon="7.02943096">
  <ele>171.894</ele>
 </trkpt>
 <trkpt lat="51.24243999" lon="7.02967697">
  <ele>173.135</ele>
 </trkpt>
 <trkpt lat="51.24211100" lon="7.03014401">
  <ele>171.366</ele>
 </trkpt>
 <trkpt lat="51.24176198" lon="7.03066000">
  <ele>168.091</ele>
 </trkpt>
 <trkpt lat="51.24113501" lon="7.03148503">
  <ele>166.239</ele>
 </trkpt>
 <trkpt lat="51.24080200" lon="7.03161403">
  <ele>168.079</ele>
 </trkpt>
 <trkpt lat="51.24048399" lon="7.03156600">
  <ele>171.137</ele>
 </trkpt>
 <trkpt lat="51.24028299" lon="7.03154597">
  <ele>172.207</ele>
 </trkpt>
 <trkpt lat="51.24017302" lon="7.03161302">
  <ele>173.241</ele>
 </trkpt>
 <trkpt lat="51.24001603" lon="7.03178502">
  <ele>176.266</ele>
 </trkpt>
 <trkpt lat="51.23982701" lon="7.03207402">
  <ele>178.889</ele>
 </trkpt>
 <trkpt lat="51.23970003" lon="7.03231400">
  <ele>180.269</ele>
 </trkpt>
 <trkpt lat="51.23950498" lon="7.03272798">
  <ele>183.061</ele>
 </trkpt>
 <trkpt lat="51.23931597" lon="7.03288799">
  <ele>185.875</ele>
 </trkpt>
 <trkpt lat="51.23908698" lon="7.03267501">
  <ele>186.883</ele>
 </trkpt>
 <trkpt lat="51.23876402" lon="7.03222699">
  <ele>185.756</ele>
 </trkpt>
 <trkpt lat="51.23839396" lon="7.03189398">
  <ele>184.144</ele>
 </trkpt>
 <trkpt lat="51.23791703" lon="7.03162400">
  <ele>181.258</ele>
 </trkpt>
 <trkpt lat="51.23757304" lon="7.03144203">
  <ele>180.494</ele>
 </trkpt>
 <trkpt lat="51.23730096" lon="7.03140004">
  <ele>177.382</ele>
 </trkpt>
 <trkpt lat="51.23719401" lon="7.03140196">
  <ele>175.872</ele>
 </trkpt>
 <trkpt lat="51.23676100" lon="7.03148402">
  <ele>172.461</ele>
 </trkpt>
 <trkpt lat="51.23642396" lon="7.03155996">
  <ele>169.267</ele>
 </trkpt>
 <trkpt lat="51.23613898" lon="7.03161604">
  <ele>165.280</ele>
 </trkpt>
 <trkpt lat="51.23571804" lon="7.03159399">
  <ele>163.733</ele>
 </trkpt>
 <trkpt lat="51.23519400" lon="7.03143197">
  <ele>165.165</ele>
 </trkpt>
 <trkpt lat="51.23507003" lon="7.03139098">
  <ele>166.504</ele>
 </trkpt>
 <trkpt lat="51.23492997" lon="7.03134203">
  <ele>167.990</ele>
 </trkpt>
 <trkpt lat="51.23464499" lon="7.03123298">
  <ele>169.152</ele>
 </trkpt>
 <trkpt lat="51.23444198" lon="7.03112897">
  <ele>172.324</ele>
 </trkpt>
 <trkpt lat="51.23418801" lon="7.03100701">
  <ele>173.341</ele>
 </trkpt>
 <trkpt lat="51.23394099" lon="7.03086804">
  <ele>176.209</ele>
 </trkpt>
 <trkpt lat="51.23363597" lon="7.03070400">
  <ele>178.157</ele>
 </trkpt>
 <trkpt lat="51.23340497" lon="7.03057199">
  <ele>179.534</ele>
 </trkpt>
 <trkpt lat="51.23307698" lon="7.03035498">
  <ele>180.423</ele>
 </trkpt>
 <trkpt lat="51.23286501" lon="7.03006304">
  <ele>180.884</ele>
 </trkpt>
 <trkpt lat="51.23272503" lon="7.02968200">
  <ele>181.288</ele>
 </trkpt>
 <trkpt lat="51.23259704" lon="7.02919400">
  <ele>180.421</ele>
 </trkpt>
 <trkpt lat="51.23252998" lon="7.02888203">
  <ele>179.044</ele>
 </trkpt>
 <trkpt lat="51.23245102" lon="7.02848003">
  <ele>177.882</ele>
 </trkpt>
 <trkpt lat="51.23240400" lon="7.02816303">
  <ele>178.455</ele>
 </trkpt>
 <trkpt lat="51.23235899" lon="7.02802003">
  <ele>179.214</ele>
 </trkpt>
 <trkpt lat="51.23222899" lon="7.02800503">
  <ele>179.857</ele>
 </trkpt>
 <trkpt lat="51.23176103" lon="7.02808298">
  <ele>180.407</ele>
 </trkpt>
 <trkpt lat="51.23138702" lon="7.02815800">
  <ele>181.154</ele>
 </trkpt>
 <trkpt lat="51.23116499" lon="7.02816999">
  <ele>182.364</ele>
 </trkpt>
 <trkpt lat="51.23075101" lon="7.02823402">
  <ele>183.585</ele>
 </trkpt>
 <trkpt lat="51.23037499" lon="7.02829496">
  <ele>183.816</ele>
 </trkpt>
 <trkpt lat="51.22985599" lon="7.02836000">
  <ele>183.008</ele>
 </trkpt>
 <trkpt lat="51.22944896" lon="7.02841197">
  <ele>182.569</ele>
 </trkpt>
 <trkpt lat="51.22878796" lon="7.02847500">
  <ele>180.827</ele>
 </trkpt>
 <trkpt lat="51.22843098" lon="7.02854902">
  <ele>180.199</ele>
 </trkpt>
 <trkpt lat="51.22789999" lon="7.02862898">
  <ele>180.025</ele>
 </trkpt>
 <trkpt lat="51.22758198" lon="7.02865303">
  <ele>178.765</ele>
 </trkpt>
 <trkpt lat="51.22724301" lon="7.02870701">
  <ele>178.070</ele>
 </trkpt>
 <trkpt lat="51.22701402" lon="7.02876602">
  <ele>178.361</ele>
 </trkpt>
 <trkpt lat="51.22680598" lon="7.02878002">
  <ele>179.019</ele>
 </trkpt>
 <trkpt lat="51.22660297" lon="7.02877499">
  <ele>178.544</ele>
 </trkpt>
 <trkpt lat="51.22630801" lon="7.02881397">
  <ele>177.635</ele>
 </trkpt>
 <trkpt lat="51.22579101" lon="7.02889703">
  <ele>175.344</ele>
 </trkpt>
 <trkpt lat="51.22513304" lon="7.02897498">
  <ele>173.709</ele>
 </trkpt>
 <trkpt lat="51.22507897" lon="7.02897398">
  <ele>173.484</ele>
 </trkpt>
 <trkpt lat="51.22467798" lon="7.02906501">
  <ele>170.498</ele>
 </trkpt>
 <trkpt lat="51.22461101" lon="7.02908303">
  <ele>170.327</ele>
 </trkpt>
 <trkpt lat="51.22424698" lon="7.02919803">
  <ele>166.822</ele>
 </trkpt>
 <trkpt lat="51.22374801" lon="7.02939500">
  <ele>163.376</ele>
 </trkpt>
 <trkpt lat="51.22329304" lon="7.02957999">
  <ele>160.334</ele>
 </trkpt>
 <trkpt lat="51.22291904" lon="7.02971896">
  <ele>157.320</ele>
 </trkpt>
 <trkpt lat="51.22253599" lon="7.02986397">
  <ele>153.972</ele>
 </trkpt>
 <trkpt lat="51.22211999" lon="7.03002901">
  <ele>152.382</ele>
 </trkpt>
 <trkpt lat="51.22190399" lon="7.03002197">
  <ele>150.510</ele>
 </trkpt>
 <trkpt lat="51.22177600" lon="7.02995198">
  <ele>150.385</ele>
 </trkpt>
 <trkpt lat="51.22138197" lon="7.02944797">
  <ele>147.990</ele>
 </trkpt>
 <trkpt lat="51.22124802" lon="7.02935703">
  <ele>147.718</ele>
 </trkpt>
 <trkpt lat="51.22110796" lon="7.02929299">
  <ele>148.098</ele>
 </trkpt>
 <trkpt lat="51.22092498" lon="7.02923398">
  <ele>147.604</ele>
 </trkpt>
 <trkpt lat="51.22055098" lon="7.02924396">
  <ele>148.954</ele>
 </trkpt>
 <trkpt lat="51.22032903" lon="7.02917498">
  <ele>151.100</ele>
 </trkpt>
 <trkpt lat="51.22027203" lon="7.02914597">
  <ele>152.885</ele>
 </trkpt>
 <trkpt lat="51.22009501" lon="7.02905998">
  <ele>154.056</ele>
 </trkpt>
 <trkpt lat="51.21982897" lon="7.02899803">
  <ele>155.847</ele>
 </trkpt>
 <trkpt lat="51.21954801" lon="7.02898898">
  <ele>155.219</ele>
 </trkpt>
 <trkpt lat="51.21910301" lon="7.02906601">
  <ele>153.725</ele>
 </trkpt>
 <trkpt lat="51.21905498" lon="7.02908697">
  <ele>153.294</ele>
 </trkpt>
 <trkpt lat="51.21841402" lon="7.02957697">
  <ele>149.200</ele>
 </trkpt>
 <trkpt lat="51.21815996" lon="7.02977504">
  <ele>150.100</ele>
 </trkpt>
 <trkpt lat="51.21807204" lon="7.03005801">
  <ele>151.462</ele>
 </trkpt>
 <trkpt lat="51.21819198" lon="7.03061800">
  <ele>153.156</ele>
 </trkpt>
 <trkpt lat="51.21838996" lon="7.03141797">
  <ele>155.097</ele>
 </trkpt>
 <trkpt lat="51.21837898" lon="7.03184403">
  <ele>156.574</ele>
 </trkpt>
 <trkpt lat="51.21798604" lon="7.03196397">
  <ele>156.745</ele>
 </trkpt>
 <trkpt lat="51.21775302" lon="7.03200596">
  <ele>157.850</ele>
 </trkpt>
 <trkpt lat="51.21743903" lon="7.03208903">
  <ele>159.214</ele>
 </trkpt>
 <trkpt lat="51.21711097" lon="7.03220604">
  <ele>160.352</ele>
 </trkpt>
 <trkpt lat="51.21682196" lon="7.03236203">
  <ele>161.540</ele>
 </trkpt>
 <trkpt lat="51.21649699" lon="7.03252204">
  <ele>161.447</ele>
 </trkpt>
 <trkpt lat="51.21630203" lon="7.03236303">
  <ele>160.855</ele>
 </trkpt>
 <trkpt lat="51.21605502" lon="7.03232800">
  <ele>162.866</ele>
 </trkpt>
 <trkpt lat="51.21590598" lon="7.03244501">
  <ele>163.581</ele>
 </trkpt>
 <trkpt lat="51.21582996" lon="7.03249698">
  <ele>163.667</ele>
 </trkpt>
 <trkpt lat="51.21559602" lon="7.03255196">
  <ele>164.874</ele>
 </trkpt>
 <trkpt lat="51.21548697" lon="7.03256998">
  <ele>166.455</ele>
 </trkpt>
 <trkpt lat="51.21527198" lon="7.03260502">
  <ele>168.707</ele>
 </trkpt>
 <trkpt lat="51.21509001" lon="7.03266202">
  <ele>169.067</ele>
 </trkpt>
 <trkpt lat="51.21498297" lon="7.03280099">
  <ele>169.538</ele>
 </trkpt>
 <trkpt lat="51.21490099" lon="7.03287601">
  <ele>169.575</ele>
 </trkpt>
 <trkpt lat="51.21494701" lon="7.03313702">
  <ele>170.771</ele>
 </trkpt>
 <trkpt lat="51.21506603" lon="7.03344597">
  <ele>173.119</ele>
 </trkpt>
 <trkpt lat="51.21517198" lon="7.03371503">
  <ele>175.168</ele>
 </trkpt>
 <trkpt lat="51.21529402" lon="7.03404402">
  <ele>175.891</ele>
 </trkpt>
 <trkpt lat="51.21541598" lon="7.03442599">
  <ele>176.891</ele>
 </trkpt>
 <trkpt lat="51.21546501" lon="7.03471097">
  <ele>176.986</ele>
 </trkpt>
 <trkpt lat="51.21548496" lon="7.03499797">
  <ele>177.685</ele>
 </trkpt>
 <trkpt lat="51.21552000" lon="7.03547004">
  <ele>179.876</ele>
 </trkpt>
 <trkpt lat="51.21544599" lon="7.03587597">
  <ele>182.188</ele>
 </trkpt>
 <trkpt lat="51.21528103" lon="7.03619398">
  <ele>185.237</ele>
 </trkpt>
 <trkpt lat="51.21514499" lon="7.03648802">
  <ele>185.592</ele>
 </trkpt>
 <trkpt lat="51.21502999" lon="7.03679304">
  <ele>187.780</ele>
 </trkpt>
 <trkpt lat="51.21490301" lon="7.03713804">
  <ele>188.330</ele>
 </trkpt>
 <trkpt lat="51.21473101" lon="7.03759200">
  <ele>190.342</ele>
 </trkpt>
 <trkpt lat="51.21468700" lon="7.03771999">
  <ele>191.302</ele>
 </trkpt>
 <trkpt lat="51.21453898" lon="7.03808502">
  <ele>191.811</ele>
 </trkpt>
 <trkpt lat="51.21454703" lon="7.03847797">
  <ele>191.889</ele>
 </trkpt>
 <trkpt lat="51.21446203" lon="7.03897996">
  <ele>192.397</ele>
 </trkpt>
 <trkpt lat="51.21439003" lon="7.03917199">
  <ele>192.094</ele>
 </trkpt>
 <trkpt lat="51.21429197" lon="7.03962604">
  <ele>193.892</ele>
 </trkpt>
 <trkpt lat="51.21420102" lon="7.04002501">
  <ele>194.142</ele>
 </trkpt>
 <trkpt lat="51.21409901" lon="7.04040396">
  <ele>195.299</ele>
 </trkpt>
 <trkpt lat="51.21400002" lon="7.04071300">
  <ele>195.920</ele>
 </trkpt>
 <trkpt lat="51.21389399" lon="7.04109396">
  <ele>198.222</ele>
 </trkpt>
 <trkpt lat="51.21379500" lon="7.04143996">
  <ele>199.339</ele>
 </trkpt>
 <trkpt lat="51.21375804" lon="7.04153401">
  <ele>200.131</ele>
 </trkpt>
 <trkpt lat="51.21358302" lon="7.04155496">
  <ele>201.029</ele>
 </trkpt>
 <trkpt lat="51.21332302" lon="7.04152999">
  <ele>201.427</ele>
 </trkpt>
 <trkpt lat="51.21300098" lon="7.04156100">
  <ele>201.896</ele>
 </trkpt>
 <trkpt lat="51.21278096" lon="7.04161498">
  <ele>201.500</ele>
 </trkpt>
 <trkpt lat="51.21261802" lon="7.04172403">
  <ele>201.926</ele>
 </trkpt>
 <trkpt lat="51.21229799" lon="7.04194003">
  <ele>202.033</ele>
 </trkpt>
 <trkpt lat="51.21213597" lon="7.04208001">
  <ele>203.874</ele>
 </trkpt>
 <trkpt lat="51.21203103" lon="7.04216802">
  <ele>201.465</ele>
 </trkpt>
 <trkpt lat="51.21184302" lon="7.04233498">
  <ele>199.823</ele>
 </trkpt>
 <trkpt lat="51.21172400" lon="7.04243498">
  <ele>196.698</ele>
 </trkpt>
 <trkpt lat="51.21155804" lon="7.04242802">
  <ele>194.668</ele>
 </trkpt>
 <trkpt lat="51.21145100" lon="7.04235200">
  <ele>194.132</ele>
 </trkpt>
 <trkpt lat="51.21133299" lon="7.04234202">
  <ele>193.459</ele>
 </trkpt>
 <trkpt lat="51.21122997" lon="7.04228402">
  <ele>194.234</ele>
 </trkpt>
 <trkpt lat="51.21103199" lon="7.04190600">
  <ele>195.267</ele>
 </trkpt>
 <trkpt lat="51.21095697" lon="7.04152403">
  <ele>196.544</ele>
 </trkpt>
 <trkpt lat="51.21090400" lon="7.04116101">
  <ele>197.512</ele>
 </trkpt>
 <trkpt lat="51.21080602" lon="7.04068299">
  <ele>197.106</ele>
 </trkpt>
 <trkpt lat="51.21072203" lon="7.04006500">
  <ele>197.670</ele>
 </trkpt>
 <trkpt lat="51.21067802" lon="7.03972897">
  <ele>197.277</ele>
 </trkpt>
 <trkpt lat="51.21064701" lon="7.03946401">
  <ele>196.927</ele>
 </trkpt>
 <trkpt lat="51.21045297" lon="7.03884099">
  <ele>197.772</ele>
 </trkpt>
 <trkpt lat="51.21035398" lon="7.03863496">
  <ele>196.808</ele>
 </trkpt>
 <trkpt lat="51.21013303" lon="7.03807899">
  <ele>195.688</ele>
 </trkpt>
 <trkpt lat="51.21004301" lon="7.03760700">
  <ele>196.417</ele>
 </trkpt>
 <trkpt lat="51.20996900" lon="7.03715798">
  <ele>196.550</ele>
 </trkpt>
 <trkpt lat="51.20994100" lon="7.03651803">
  <ele>196.473</ele>
 </trkpt>
 <trkpt lat="51.20993597" lon="7.03557699">
  <ele>196.441</ele>
 </trkpt>
 <trkpt lat="51.20982802" lon="7.03492898">
  <ele>197.758</ele>
 </trkpt>
 <trkpt lat="51.20974897" lon="7.03473000">
  <ele>198.214</ele>
 </trkpt>
 <trkpt lat="51.20946198" lon="7.03454300">
  <ele>199.595</ele>
 </trkpt>
 <trkpt lat="51.20931898" lon="7.03449899">
  <ele>199.887</ele>
 </trkpt>
 <trkpt lat="51.20903098" lon="7.03447804">
  <ele>200.247</ele>
 </trkpt>
 <trkpt lat="51.20895596" lon="7.03451299">
  <ele>200.152</ele>
 </trkpt>
 <trkpt lat="51.20882797" lon="7.03463302">
  <ele>199.997</ele>
 </trkpt>
 <trkpt lat="51.20874398" lon="7.03471097">
  <ele>199.502</ele>
 </trkpt>
 <trkpt lat="51.20856101" lon="7.03487802">
  <ele>199.492</ele>
 </trkpt>
 <trkpt lat="51.20836596" lon="7.03495899">
  <ele>198.406</ele>
 </trkpt>
 <trkpt lat="51.20800504" lon="7.03488900">
  <ele>197.723</ele>
 </trkpt>
 <trkpt lat="51.20783396" lon="7.03480401">
  <ele>196.782</ele>
 </trkpt>
 <trkpt lat="51.20770999" lon="7.03475104">
  <ele>195.264</ele>
 </trkpt>
 <trkpt lat="51.20745904" lon="7.03431602">
  <ele>195.077</ele>
 </trkpt>
 <trkpt lat="51.20736097" lon="7.03410999">
  <ele>194.118</ele>
 </trkpt>
 <trkpt lat="51.20721999" lon="7.03330801">
  <ele>191.777</ele>
 </trkpt>
 <trkpt lat="51.20707104" lon="7.03249203">
  <ele>188.742</ele>
 </trkpt>
 <trkpt lat="51.20693198" lon="7.03187898">
  <ele>186.702</ele>
 </trkpt>
 <trkpt lat="51.20685697" lon="7.03155502">
  <ele>186.708</ele>
 </trkpt>
 <trkpt lat="51.20661800" lon="7.03072798">
  <ele>184.608</ele>
 </trkpt>
 <trkpt lat="51.20656100" lon="7.03053301">
  <ele>184.056</ele>
 </trkpt>
 <trkpt lat="51.20640099" lon="7.03008701">
  <ele>182.697</ele>
 </trkpt>
 <trkpt lat="51.20627803" lon="7.02975601">
  <ele>181.845</ele>
 </trkpt>
 <trkpt lat="51.20608600" lon="7.02912804">
  <ele>181.365</ele>
 </trkpt>
 <trkpt lat="51.20593999" lon="7.02851096">
  <ele>178.865</ele>
 </trkpt>
 <trkpt lat="51.20591400" lon="7.02837098">
  <ele>178.586</ele>
 </trkpt>
 <trkpt lat="51.20588802" lon="7.02805398">
  <ele>177.935</ele>
 </trkpt>
 <trkpt lat="51.20596899" lon="7.02802699">
  <ele>177.695</ele>
 </trkpt>
    </trkseg>
  </trk>

</gpx>
