<?xml version="1.0" encoding="UTF-8" standalone="no"?>
<gpx xmlns="http://www.topografix.com/GPX/1/1" creator="MapSource 6.16.3" version="1.1">

  <trk>
    <name>NW 1.15</name>
    <trkseg>
 <trkpt lat="50.89977400" lon="6.92125500">
  <ele>44.953</ele>
 </trkpt>
 <trkpt lat="50.89998800" lon="6.92146200">
  <ele>44.229</ele>
 </trkpt>
 <trkpt lat="50.90010800" lon="6.92161500">
  <ele>45.337</ele>
 </trkpt>
 <trkpt lat="50.90052700" lon="6.92230900">
  <ele>44.212</ele>
 </trkpt>
 <trkpt lat="50.90108500" lon="6.92313800">
  <ele>44.074</ele>
 </trkpt>
 <trkpt lat="50.90164500" lon="6.92391800">
  <ele>44.350</ele>
 </trkpt>
 <trkpt lat="50.90201700" lon="6.92465700">
  <ele>43.311</ele>
 </trkpt>
 <trkpt lat="50.90209700" lon="6.92499400">
  <ele>41.948</ele>
 </trkpt>
 <trkpt lat="50.90224300" lon="6.92498500">
  <ele>42.096</ele>
 </trkpt>
 <trkpt lat="50.90234900" lon="6.92491900">
  <ele>42.106</ele>
 </trkpt>
 <trkpt lat="50.90243900" lon="6.92498800">
  <ele>42.224</ele>
 </trkpt>
 <trkpt lat="50.90275600" lon="6.92479200">
  <ele>43.284</ele>
 </trkpt>
 <trkpt lat="50.90300800" lon="6.92464800">
  <ele>44.395</ele>
 </trkpt>
 <trkpt lat="50.90306600" lon="6.92473400">
  <ele>44.471</ele>
 </trkpt>
 <trkpt lat="50.90315200" lon="6.92520200">
  <ele>44.473</ele>
 </trkpt>
 <trkpt lat="50.90340800" lon="6.92584900">
  <ele>44.575</ele>
 </trkpt>
 <trkpt lat="50.90363400" lon="6.92626900">
  <ele>45.413</ele>
 </trkpt>
 <trkpt lat="50.90413500" lon="6.92683100">
  <ele>44.531</ele>
 </trkpt>
 <trkpt lat="50.90482200" lon="6.92730700">
  <ele>43.819</ele>
 </trkpt>
 <trkpt lat="50.90550400" lon="6.92776100">
  <ele>42.904</ele>
 </trkpt>
 <trkpt lat="50.90640000" lon="6.92838100">
  <ele>42.910</ele>
 </trkpt>
 <trkpt lat="50.90694400" lon="6.92876500">
  <ele>42.521</ele>
 </trkpt>
 <trkpt lat="50.90781200" lon="6.92937600">
  <ele>42.596</ele>
 </trkpt>
 <trkpt lat="50.90846900" lon="6.92981900">
  <ele>41.484</ele>
 </trkpt>
 <trkpt lat="50.90897800" lon="6.93016700">
  <ele>40.497</ele>
 </trkpt>
 <trkpt lat="50.90921100" lon="6.93030000">
  <ele>40.892</ele>
 </trkpt>
 <trkpt lat="50.90986100" lon="6.93077800">
  <ele>41.746</ele>
 </trkpt>
 <trkpt lat="50.91013400" lon="6.93097900">
  <ele>41.992</ele>
 </trkpt>
 <trkpt lat="50.91065700" lon="6.93133700">
  <ele>42.434</ele>
 </trkpt>
 <trkpt lat="50.91135700" lon="6.93182300">
  <ele>42.975</ele>
 </trkpt>
 <trkpt lat="50.91202700" lon="6.93230200">
  <ele>43.008</ele>
 </trkpt>
 <trkpt lat="50.91228200" lon="6.93245800">
  <ele>42.658</ele>
 </trkpt>
 <trkpt lat="50.91261600" lon="6.93270000">
  <ele>42.213</ele>
 </trkpt>
 <trkpt lat="50.91320900" lon="6.93312800">
  <ele>41.731</ele>
 </trkpt>
 <trkpt lat="50.91349900" lon="6.93334700">
  <ele>41.583</ele>
 </trkpt>
 <trkpt lat="50.91358300" lon="6.93341200">
  <ele>41.513</ele>
 </trkpt>
    </trkseg>
  </trk>

</gpx>
