<?xml version="1.0" encoding="UTF-8" standalone="no"?>
<gpx xmlns="http://www.topografix.com/GPX/1/1" creator="MapSource 6.16.3" version="1.1">

  <trk>
    <name>NW 1.09</name>
    <trkseg>
 <trkpt lat="50.91885502" lon="6.36723798">
  <ele>89.834</ele>
 </trkpt>
 <trkpt lat="50.91864497" lon="6.36720898">
  <ele>90.438</ele>
 </trkpt>
 <trkpt lat="50.91841900" lon="6.36722197">
  <ele>89.966</ele>
 </trkpt>
 <trkpt lat="50.91834800" lon="6.36713798">
  <ele>90.497</ele>
 </trkpt>
 <trkpt lat="50.91825597" lon="6.36615302">
  <ele>90.279</ele>
 </trkpt>
 <trkpt lat="50.91820098" lon="6.36543101">
  <ele>89.308</ele>
 </trkpt>
 <trkpt lat="50.91807702" lon="6.36434496">
  <ele>88.084</ele>
 </trkpt>
 <trkpt lat="50.91797501" lon="6.36328398">
  <ele>87.487</ele>
 </trkpt>
 <trkpt lat="50.91778398" lon="6.36246499">
  <ele>86.719</ele>
 </trkpt>
 <trkpt lat="50.91745198" lon="6.36158598">
  <ele>85.724</ele>
 </trkpt>
 <trkpt lat="50.91735198" lon="6.36132597">
  <ele>86.288</ele>
 </trkpt>
 <trkpt lat="50.91716196" lon="6.36129102">
  <ele>86.387</ele>
 </trkpt>
 <trkpt lat="50.91704696" lon="6.36142001">
  <ele>85.357</ele>
 </trkpt>
 <trkpt lat="50.91679903" lon="6.36172201">
  <ele>84.840</ele>
 </trkpt>
 <trkpt lat="50.91631799" lon="6.36215100">
  <ele>85.496</ele>
 </trkpt>
 <trkpt lat="50.91609101" lon="6.36238603">
  <ele>85.650</ele>
 </trkpt>
 <trkpt lat="50.91555599" lon="6.36293898">
  <ele>86.298</ele>
 </trkpt>
 <trkpt lat="50.91554300" lon="6.36300000">
  <ele>85.958</ele>
 </trkpt>
 <trkpt lat="50.91544300" lon="6.36321198">
  <ele>85.563</ele>
 </trkpt>
 <trkpt lat="50.91529699" lon="6.36334601">
  <ele>85.456</ele>
 </trkpt>
 <trkpt lat="50.91514402" lon="6.36336797">
  <ele>85.515</ele>
 </trkpt>
 <trkpt lat="50.91474202" lon="6.36376200">
  <ele>85.649</ele>
 </trkpt>
 <trkpt lat="50.91438303" lon="6.36410097">
  <ele>85.848</ele>
 </trkpt>
 <trkpt lat="50.91417801" lon="6.36424698">
  <ele>86.196</ele>
 </trkpt>
 <trkpt lat="50.91398899" lon="6.36425201">
  <ele>86.186</ele>
 </trkpt>
 <trkpt lat="50.91361801" lon="6.36442602">
  <ele>86.522</ele>
 </trkpt>
 <trkpt lat="50.91309104" lon="6.36458603">
  <ele>86.075</ele>
 </trkpt>
 <trkpt lat="50.91288904" lon="6.36465803">
  <ele>87.074</ele>
 </trkpt>
 <trkpt lat="50.91297797" lon="6.36501401">
  <ele>86.900</ele>
 </trkpt>
 <trkpt lat="50.91312197" lon="6.36568699">
  <ele>88.215</ele>
 </trkpt>
 <trkpt lat="50.91302499" lon="6.36604498">
  <ele>87.960</ele>
 </trkpt>
 <trkpt lat="50.91297998" lon="6.36614196">
  <ele>88.407</ele>
 </trkpt>
 <trkpt lat="50.91265602" lon="6.36645704">
  <ele>87.486</ele>
 </trkpt>
 <trkpt lat="50.91237900" lon="6.36668402">
  <ele>86.637</ele>
 </trkpt>
 <trkpt lat="50.91207700" lon="6.36672702">
  <ele>87.021</ele>
 </trkpt>
 <trkpt lat="50.91136504" lon="6.36651303">
  <ele>86.788</ele>
 </trkpt>
 <trkpt lat="50.91122598" lon="6.36653499">
  <ele>87.236</ele>
 </trkpt>
 <trkpt lat="50.91071804" lon="6.36693103">
  <ele>88.145</ele>
 </trkpt>
 <trkpt lat="50.91032099" lon="6.36759798">
  <ele>89.682</ele>
 </trkpt>
 <trkpt lat="50.91003500" lon="6.36814004">
  <ele>88.712</ele>
 </trkpt>
 <trkpt lat="50.90972998" lon="6.36832503">
  <ele>88.746</ele>
 </trkpt>
 <trkpt lat="50.90935003" lon="6.36813300">
  <ele>88.380</ele>
 </trkpt>
 <trkpt lat="50.90909304" lon="6.36853198">
  <ele>89.013</ele>
 </trkpt>
 <trkpt lat="50.90887997" lon="6.36824196">
  <ele>87.309</ele>
 </trkpt>
 <trkpt lat="50.90828503" lon="6.36723404">
  <ele>87.113</ele>
 </trkpt>
 <trkpt lat="50.90789996" lon="6.36619401">
  <ele>87.666</ele>
 </trkpt>
 <trkpt lat="50.90745899" lon="6.36486598">
  <ele>87.622</ele>
 </trkpt>
 <trkpt lat="50.90696404" lon="6.36340703">
  <ele>87.539</ele>
 </trkpt>
 <trkpt lat="50.90653103" lon="6.36200599">
  <ele>87.276</ele>
 </trkpt>
 <trkpt lat="50.90623800" lon="6.36083001">
  <ele>88.016</ele>
 </trkpt>
 <trkpt lat="50.90604999" lon="6.36014697">
  <ele>88.140</ele>
 </trkpt>
 <trkpt lat="50.90589602" lon="6.35951397">
  <ele>88.285</ele>
 </trkpt>
 <trkpt lat="50.90572402" lon="6.35864099">
  <ele>88.765</ele>
 </trkpt>
 <trkpt lat="50.90571304" lon="6.35820304">
  <ele>88.211</ele>
 </trkpt>
 <trkpt lat="50.90568596" lon="6.35795401">
  <ele>88.747</ele>
 </trkpt>
 <trkpt lat="50.90561799" lon="6.35727198">
  <ele>87.777</ele>
 </trkpt>
 <trkpt lat="50.90555998" lon="6.35672003">
  <ele>89.800</ele>
 </trkpt>
 <trkpt lat="50.90547097" lon="6.35600497">
  <ele>89.369</ele>
 </trkpt>
 <trkpt lat="50.90542797" lon="6.35576902">
  <ele>87.523</ele>
 </trkpt>
 <trkpt lat="50.90536896" lon="6.35529201">
  <ele>87.549</ele>
 </trkpt>
 <trkpt lat="50.90529897" lon="6.35469002">
  <ele>86.584</ele>
 </trkpt>
 <trkpt lat="50.90522597" lon="6.35392802">
  <ele>86.753</ele>
 </trkpt>
 <trkpt lat="50.90506403" lon="6.35251801">
  <ele>86.179</ele>
 </trkpt>
 <trkpt lat="50.90498004" lon="6.35195601">
  <ele>85.390</ele>
 </trkpt>
 <trkpt lat="50.90488298" lon="6.35115604">
  <ele>85.572</ele>
 </trkpt>
 <trkpt lat="50.90474702" lon="6.34991401">
  <ele>86.794</ele>
 </trkpt>
 <trkpt lat="50.90471702" lon="6.34902301">
  <ele>87.200</ele>
 </trkpt>
 <trkpt lat="50.90472699" lon="6.34851004">
  <ele>87.617</ele>
 </trkpt>
 <trkpt lat="50.90474702" lon="6.34812296">
  <ele>87.410</ele>
 </trkpt>
 <trkpt lat="50.90475700" lon="6.34791099">
  <ele>86.519</ele>
 </trkpt>
 <trkpt lat="50.90481802" lon="6.34719400">
  <ele>87.112</ele>
 </trkpt>
 <trkpt lat="50.90493101" lon="6.34642001">
  <ele>87.631</ele>
 </trkpt>
 <trkpt lat="50.90494601" lon="6.34630300">
  <ele>87.812</ele>
 </trkpt>
 <trkpt lat="50.90495397" lon="6.34614802">
  <ele>88.464</ele>
 </trkpt>
 <trkpt lat="50.90499404" lon="6.34610997">
  <ele>88.939</ele>
 </trkpt>
 <trkpt lat="50.90502203" lon="6.34592196">
  <ele>89.540</ele>
 </trkpt>
 <trkpt lat="50.90513997" lon="6.34552801">
  <ele>89.290</ele>
 </trkpt>
 <trkpt lat="50.90519303" lon="6.34534897">
  <ele>89.647</ele>
 </trkpt>
 <trkpt lat="50.90536603" lon="6.34490800">
  <ele>91.367</ele>
 </trkpt>
 <trkpt lat="50.90537198" lon="6.34488202">
  <ele>90.907</ele>
 </trkpt>
 <trkpt lat="50.90535999" lon="6.34473701">
  <ele>91.042</ele>
 </trkpt>
 <trkpt lat="50.90539704" lon="6.34466199">
  <ele>91.548</ele>
 </trkpt>
 <trkpt lat="50.90548497" lon="6.34446099">
  <ele>90.896</ele>
 </trkpt>
 <trkpt lat="50.90573600" lon="6.34390896">
  <ele>91.135</ele>
 </trkpt>
 <trkpt lat="50.90608000" lon="6.34323204">
  <ele>91.368</ele>
 </trkpt>
 <trkpt lat="50.90643103" lon="6.34258102">
  <ele>92.131</ele>
 </trkpt>
 <trkpt lat="50.90661099" lon="6.34225697">
  <ele>92.543</ele>
 </trkpt>
 <trkpt lat="50.90680000" lon="6.34185003">
  <ele>93.623</ele>
 </trkpt>
 <trkpt lat="50.90697200" lon="6.34152498">
  <ele>93.920</ele>
 </trkpt>
 <trkpt lat="50.90719496" lon="6.34107596">
  <ele>94.923</ele>
 </trkpt>
 <trkpt lat="50.90738598" lon="6.34056601">
  <ele>94.232</ele>
 </trkpt>
 <trkpt lat="50.90752202" lon="6.34023601">
  <ele>94.778</ele>
 </trkpt>
 <trkpt lat="50.90758799" lon="6.33999503">
  <ele>94.746</ele>
 </trkpt>
 <trkpt lat="50.90775101" lon="6.33946102">
  <ele>94.911</ele>
 </trkpt>
 <trkpt lat="50.90778898" lon="6.33932800">
  <ele>94.475</ele>
 </trkpt>
 <trkpt lat="50.90784296" lon="6.33909297">
  <ele>95.054</ele>
 </trkpt>
 <trkpt lat="50.90804304" lon="6.33821304">
  <ele>96.040</ele>
 </trkpt>
 <trkpt lat="50.90807799" lon="6.33792202">
  <ele>95.554</ele>
 </trkpt>
 <trkpt lat="50.90809803" lon="6.33770199">
  <ele>96.024</ele>
 </trkpt>
 <trkpt lat="50.90818000" lon="6.33697604">
  <ele>96.703</ele>
 </trkpt>
 <trkpt lat="50.90820699" lon="6.33641403">
  <ele>97.454</ele>
 </trkpt>
 <trkpt lat="50.90819802" lon="6.33564700">
  <ele>97.170</ele>
 </trkpt>
 <trkpt lat="50.90818000" lon="6.33535900">
  <ele>97.665</ele>
 </trkpt>
 <trkpt lat="50.90820003" lon="6.33511199">
  <ele>96.770</ele>
 </trkpt>
 <trkpt lat="50.90818704" lon="6.33469700">
  <ele>96.910</ele>
 </trkpt>
 <trkpt lat="50.90815402" lon="6.33455803">
  <ele>97.401</ele>
 </trkpt>
 <trkpt lat="50.90806802" lon="6.33427698">
  <ele>97.541</ele>
 </trkpt>
 <trkpt lat="50.90803801" lon="6.33409803">
  <ele>97.685</ele>
 </trkpt>
 <trkpt lat="50.90800499" lon="6.33386099">
  <ele>97.407</ele>
 </trkpt>
 <trkpt lat="50.90790398" lon="6.33326101">
  <ele>97.022</ele>
 </trkpt>
 <trkpt lat="50.90786501" lon="6.33308600">
  <ele>97.182</ele>
 </trkpt>
 <trkpt lat="50.90781103" lon="6.33285399">
  <ele>99.221</ele>
 </trkpt>
 <trkpt lat="50.90777398" lon="6.33270102">
  <ele>98.429</ele>
 </trkpt>
 <trkpt lat="50.90771900" lon="6.33247898">
  <ele>97.996</ele>
 </trkpt>
 <trkpt lat="50.90759402" lon="6.33208704">
  <ele>99.343</ele>
 </trkpt>
 <trkpt lat="50.90731096" lon="6.33114399">
  <ele>99.979</ele>
 </trkpt>
 <trkpt lat="50.90705297" lon="6.33028602">
  <ele>100.214</ele>
 </trkpt>
 <trkpt lat="50.90680202" lon="6.32943601">
  <ele>100.588</ele>
 </trkpt>
 <trkpt lat="50.90674904" lon="6.32926896">
  <ele>102.261</ele>
 </trkpt>
 <trkpt lat="50.90667503" lon="6.32907802">
  <ele>101.549</ele>
 </trkpt>
 <trkpt lat="50.90651502" lon="6.32852700">
  <ele>102.321</ele>
 </trkpt>
 <trkpt lat="50.90624797" lon="6.32761203">
  <ele>103.793</ele>
 </trkpt>
 <trkpt lat="50.90607396" lon="6.32702999">
  <ele>104.124</ele>
 </trkpt>
 <trkpt lat="50.90586903" lon="6.32631199">
  <ele>104.065</ele>
 </trkpt>
 <trkpt lat="50.90587699" lon="6.32634996">
  <ele>98.262</ele>
 </trkpt>
 <trkpt lat="50.90575797" lon="6.32596096">
  <ele>98.391</ele>
 </trkpt>
 <trkpt lat="50.90567398" lon="6.32566600">
  <ele>99.006</ele>
 </trkpt>
 <trkpt lat="50.90561296" lon="6.32545402">
  <ele>99.873</ele>
 </trkpt>
 <trkpt lat="50.90545303" lon="6.32490702">
  <ele>101.079</ele>
 </trkpt>
 <trkpt lat="50.90539897" lon="6.32472396">
  <ele>101.050</ele>
 </trkpt>
 <trkpt lat="50.90531699" lon="6.32449304">
  <ele>101.358</ele>
 </trkpt>
 <trkpt lat="50.90519998" lon="6.32408903">
  <ele>100.788</ele>
 </trkpt>
 <trkpt lat="50.90511398" lon="6.32380103">
  <ele>101.672</ele>
 </trkpt>
 <trkpt lat="50.90505104" lon="6.32362098">
  <ele>101.378</ele>
 </trkpt>
 <trkpt lat="50.90483604" lon="6.32290802">
  <ele>101.705</ele>
 </trkpt>
 <trkpt lat="50.90458198" lon="6.32203798">
  <ele>102.626</ele>
 </trkpt>
 <trkpt lat="50.90434704" lon="6.32125796">
  <ele>104.370</ele>
 </trkpt>
 <trkpt lat="50.90428200" lon="6.32103601">
  <ele>104.010</ele>
 </trkpt>
 <trkpt lat="50.90404303" lon="6.32022204">
  <ele>104.812</ele>
 </trkpt>
 <trkpt lat="50.90376500" lon="6.31930296">
  <ele>105.724</ele>
 </trkpt>
 <trkpt lat="50.90365998" lon="6.31894204">
  <ele>106.203</ele>
 </trkpt>
 <trkpt lat="50.90359803" lon="6.31873802">
  <ele>107.417</ele>
 </trkpt>
 <trkpt lat="50.90351698" lon="6.31850601">
  <ele>107.010</ele>
 </trkpt>
 <trkpt lat="50.90338798" lon="6.31804903">
  <ele>107.788</ele>
 </trkpt>
 <trkpt lat="50.90326896" lon="6.31758903">
  <ele>107.800</ele>
 </trkpt>
 <trkpt lat="50.90299403" lon="6.31666501">
  <ele>108.522</ele>
 </trkpt>
 <trkpt lat="50.90265197" lon="6.31553899">
  <ele>108.513</ele>
 </trkpt>
 <trkpt lat="50.90241803" lon="6.31473399">
  <ele>108.710</ele>
 </trkpt>
 <trkpt lat="50.90226204" lon="6.31420802">
  <ele>109.850</ele>
 </trkpt>
 <trkpt lat="50.90212801" lon="6.31374501">
  <ele>110.005</ele>
 </trkpt>
 <trkpt lat="50.90197999" lon="6.31319800">
  <ele>110.958</ele>
 </trkpt>
 <trkpt lat="50.90175502" lon="6.31246299">
  <ele>111.069</ele>
 </trkpt>
 <trkpt lat="50.90154899" lon="6.31173503">
  <ele>112.274</ele>
 </trkpt>
 <trkpt lat="50.90133199" lon="6.31101804">
  <ele>112.719</ele>
 </trkpt>
 <trkpt lat="50.90108003" lon="6.31029904">
  <ele>113.185</ele>
 </trkpt>
 <trkpt lat="50.90096897" lon="6.30997097">
  <ele>113.230</ele>
 </trkpt>
 <trkpt lat="50.90082203" lon="6.30947401">
  <ele>114.033</ele>
 </trkpt>
 <trkpt lat="50.90066596" lon="6.30891996">
  <ele>113.590</ele>
 </trkpt>
 <trkpt lat="50.90041299" lon="6.30804699">
  <ele>114.774</ele>
 </trkpt>
 <trkpt lat="50.90020898" lon="6.30735800">
  <ele>115.736</ele>
 </trkpt>
 <trkpt lat="50.90010798" lon="6.30701702">
  <ele>115.188</ele>
 </trkpt>
 <trkpt lat="50.89999801" lon="6.30662299">
  <ele>115.625</ele>
 </trkpt>
 <trkpt lat="50.89992701" lon="6.30635502">
  <ele>115.534</ele>
 </trkpt>
 <trkpt lat="50.89986197" lon="6.30611203">
  <ele>115.248</ele>
 </trkpt>
 <trkpt lat="50.89967396" lon="6.30548003">
  <ele>115.834</ele>
 </trkpt>
 <trkpt lat="50.89940800" lon="6.30458602">
  <ele>115.682</ele>
 </trkpt>
 <trkpt lat="50.89892797" lon="6.30300502">
  <ele>116.034</ele>
 </trkpt>
 <trkpt lat="50.89858197" lon="6.30184899">
  <ele>116.043</ele>
 </trkpt>
 <trkpt lat="50.89848499" lon="6.30150097">
  <ele>116.947</ele>
 </trkpt>
 <trkpt lat="50.89836102" lon="6.30103100">
  <ele>115.865</ele>
 </trkpt>
 <trkpt lat="50.89803698" lon="6.30010304">
  <ele>116.419</ele>
 </trkpt>
 <trkpt lat="50.89765602" lon="6.29921397">
  <ele>116.446</ele>
 </trkpt>
 <trkpt lat="50.89709904" lon="6.29820798">
  <ele>116.698</ele>
 </trkpt>
 <trkpt lat="50.89656604" lon="6.29743600">
  <ele>117.462</ele>
 </trkpt>
 <trkpt lat="50.89632103" lon="6.29706301">
  <ele>116.296</ele>
 </trkpt>
 <trkpt lat="50.89606396" lon="6.29676000">
  <ele>117.157</ele>
 </trkpt>
 <trkpt lat="50.89571804" lon="6.29628198">
  <ele>117.400</ele>
 </trkpt>
 <trkpt lat="50.89528201" lon="6.29552200">
  <ele>117.293</ele>
 </trkpt>
 <trkpt lat="50.89495998" lon="6.29484599">
  <ele>117.710</ele>
 </trkpt>
 <trkpt lat="50.89475001" lon="6.29432498">
  <ele>117.409</ele>
 </trkpt>
 <trkpt lat="50.89445698" lon="6.29350103">
  <ele>116.601</ele>
 </trkpt>
 <trkpt lat="50.89426001" lon="6.29274398">
  <ele>116.745</ele>
 </trkpt>
 <trkpt lat="50.89421701" lon="6.29253896">
  <ele>116.836</ele>
 </trkpt>
 <trkpt lat="50.89416303" lon="6.29231701">
  <ele>116.841</ele>
 </trkpt>
 <trkpt lat="50.89411500" lon="6.29204501">
  <ele>117.206</ele>
 </trkpt>
 <trkpt lat="50.89398198" lon="6.29106299">
  <ele>117.181</ele>
 </trkpt>
 <trkpt lat="50.89389598" lon="6.29022497">
  <ele>116.356</ele>
 </trkpt>
 <trkpt lat="50.89385499" lon="6.28978802">
  <ele>116.156</ele>
 </trkpt>
 <trkpt lat="50.89380998" lon="6.28920598">
  <ele>116.729</ele>
 </trkpt>
 <trkpt lat="50.89372901" lon="6.28851900">
  <ele>116.292</ele>
 </trkpt>
 <trkpt lat="50.89370001" lon="6.28824198">
  <ele>116.873</ele>
 </trkpt>
 <trkpt lat="50.89362298" lon="6.28754402">
  <ele>116.709</ele>
 </trkpt>
 <trkpt lat="50.89358099" lon="6.28723003">
  <ele>116.305</ele>
 </trkpt>
 <trkpt lat="50.89352500" lon="6.28659904">
  <ele>117.067</ele>
 </trkpt>
 <trkpt lat="50.89348099" lon="6.28607400">
  <ele>116.858</ele>
 </trkpt>
 <trkpt lat="50.89340396" lon="6.28513296">
  <ele>117.241</ele>
 </trkpt>
 <trkpt lat="50.89330296" lon="6.28410400">
  <ele>117.466</ele>
 </trkpt>
 <trkpt lat="50.89325703" lon="6.28366001">
  <ele>117.501</ele>
 </trkpt>
 <trkpt lat="50.89318000" lon="6.28339699">
  <ele>118.211</ele>
 </trkpt>
 <trkpt lat="50.89307103" lon="6.28290799">
  <ele>118.113</ele>
 </trkpt>
 <trkpt lat="50.89318201" lon="6.28258796">
  <ele>118.517</ele>
 </trkpt>
 <trkpt lat="50.89326398" lon="6.28243198">
  <ele>118.398</ele>
 </trkpt>
 <trkpt lat="50.89324303" lon="6.28220701">
  <ele>119.145</ele>
 </trkpt>
 <trkpt lat="50.89319701" lon="6.28175698">
  <ele>119.157</ele>
 </trkpt>
 <trkpt lat="50.89309501" lon="6.28091401">
  <ele>118.429</ele>
 </trkpt>
 <trkpt lat="50.89302401" lon="6.28031798">
  <ele>118.487</ele>
 </trkpt>
 <trkpt lat="50.89299803" lon="6.28009200">
  <ele>118.131</ele>
 </trkpt>
 <trkpt lat="50.89295603" lon="6.27973200">
  <ele>119.307</ele>
 </trkpt>
 <trkpt lat="50.89287900" lon="6.27939203">
  <ele>118.427</ele>
 </trkpt>
 <trkpt lat="50.89273903" lon="6.27872500">
  <ele>118.125</ele>
 </trkpt>
 <trkpt lat="50.89272402" lon="6.27859097">
  <ele>118.128</ele>
 </trkpt>
 <trkpt lat="50.89267801" lon="6.27831403">
  <ele>117.503</ele>
 </trkpt>
 <trkpt lat="50.89266703" lon="6.27809602">
  <ele>117.736</ele>
 </trkpt>
 <trkpt lat="50.89263802" lon="6.27780299">
  <ele>117.517</ele>
 </trkpt>
 <trkpt lat="50.89252001" lon="6.27659599">
  <ele>118.046</ele>
 </trkpt>
 <trkpt lat="50.89240501" lon="6.27562000">
  <ele>117.971</ele>
 </trkpt>
 <trkpt lat="50.89228003" lon="6.27475399">
  <ele>119.273</ele>
 </trkpt>
 <trkpt lat="50.89223896" lon="6.27450798">
  <ele>119.799</ele>
 </trkpt>
 <trkpt lat="50.89215900" lon="6.27414999">
  <ele>119.629</ele>
 </trkpt>
 <trkpt lat="50.89203796" lon="6.27365302">
  <ele>120.489</ele>
 </trkpt>
 <trkpt lat="50.89191601" lon="6.27308900">
  <ele>121.271</ele>
 </trkpt>
 <trkpt lat="50.89184602" lon="6.27287401">
  <ele>121.607</ele>
 </trkpt>
 <trkpt lat="50.89175600" lon="6.27264996">
  <ele>121.306</ele>
 </trkpt>
 <trkpt lat="50.89146900" lon="6.27176500">
  <ele>122.034</ele>
 </trkpt>
 <trkpt lat="50.89132098" lon="6.27114298">
  <ele>122.518</ele>
 </trkpt>
 <trkpt lat="50.89122400" lon="6.27099202">
  <ele>122.243</ele>
 </trkpt>
 <trkpt lat="50.89114998" lon="6.27066001">
  <ele>122.325</ele>
 </trkpt>
 <trkpt lat="50.89115602" lon="6.27052900">
  <ele>122.213</ele>
 </trkpt>
 <trkpt lat="50.89104001" lon="6.26973004">
  <ele>123.127</ele>
 </trkpt>
 <trkpt lat="50.89088696" lon="6.26875900">
  <ele>124.606</ele>
 </trkpt>
 <trkpt lat="50.89066199" lon="6.26784101">
  <ele>124.736</ele>
 </trkpt>
 <trkpt lat="50.89062503" lon="6.26766399">
  <ele>124.560</ele>
 </trkpt>
 <trkpt lat="50.89046703" lon="6.26704800">
  <ele>124.438</ele>
 </trkpt>
 <trkpt lat="50.89031003" lon="6.26642103">
  <ele>125.388</ele>
 </trkpt>
 <trkpt lat="50.89012404" lon="6.26559198">
  <ele>125.495</ele>
 </trkpt>
 <trkpt lat="50.88993603" lon="6.26476200">
  <ele>125.870</ele>
 </trkpt>
 <trkpt lat="50.88976798" lon="6.26409296">
  <ele>126.713</ele>
 </trkpt>
 <trkpt lat="50.88945902" lon="6.26300700">
  <ele>127.450</ele>
 </trkpt>
 <trkpt lat="50.88928099" lon="6.26246000">
  <ele>127.378</ele>
 </trkpt>
 <trkpt lat="50.88898896" lon="6.26163798">
  <ele>128.764</ele>
 </trkpt>
 <trkpt lat="50.88858697" lon="6.26047902">
  <ele>130.703</ele>
 </trkpt>
 <trkpt lat="50.88834800" lon="6.25977804">
  <ele>131.317</ele>
 </trkpt>
 <trkpt lat="50.88829997" lon="6.25956799">
  <ele>131.476</ele>
 </trkpt>
 <trkpt lat="50.88820199" lon="6.25944704">
  <ele>131.508</ele>
 </trkpt>
 <trkpt lat="50.88806503" lon="6.25936599">
  <ele>131.861</ele>
 </trkpt>
 <trkpt lat="50.88795598" lon="6.25896097">
  <ele>131.922</ele>
 </trkpt>
 <trkpt lat="50.88765398" lon="6.25804399">
  <ele>132.520</ele>
 </trkpt>
 <trkpt lat="50.88719004" lon="6.25666399">
  <ele>131.799</ele>
 </trkpt>
 <trkpt lat="50.88674102" lon="6.25541300">
  <ele>132.924</ele>
 </trkpt>
 <trkpt lat="50.88637699" lon="6.25436400">
  <ele>134.358</ele>
 </trkpt>
 <trkpt lat="50.88594700" lon="6.25312801">
  <ele>134.198</ele>
 </trkpt>
 <trkpt lat="50.88552204" lon="6.25197398">
  <ele>134.828</ele>
 </trkpt>
 <trkpt lat="50.88540402" lon="6.25166897">
  <ele>135.557</ele>
 </trkpt>
 <trkpt lat="50.88533797" lon="6.25150401">
  <ele>135.908</ele>
 </trkpt>
 <trkpt lat="50.88505098" lon="6.25084100">
  <ele>134.830</ele>
 </trkpt>
 <trkpt lat="50.88478703" lon="6.25032996">
  <ele>135.512</ele>
 </trkpt>
 <trkpt lat="50.88435997" lon="6.24960199">
  <ele>136.571</ele>
 </trkpt>
 <trkpt lat="50.88391297" lon="6.24883102">
  <ele>136.441</ele>
 </trkpt>
 <trkpt lat="50.88357802" lon="6.24820196">
  <ele>138.278</ele>
 </trkpt>
 <trkpt lat="50.88311099" lon="6.24733997">
  <ele>137.778</ele>
 </trkpt>
 <trkpt lat="50.88301099" lon="6.24716504">
  <ele>138.946</ele>
 </trkpt>
 <trkpt lat="50.88291401" lon="6.24699203">
  <ele>138.407</ele>
 </trkpt>
 <trkpt lat="50.88282097" lon="6.24657604">
  <ele>139.398</ele>
 </trkpt>
 <trkpt lat="50.88273204" lon="6.24638401">
  <ele>138.882</ele>
 </trkpt>
 <trkpt lat="50.88251201" lon="6.24598796">
  <ele>139.348</ele>
 </trkpt>
 <trkpt lat="50.88243700" lon="6.24584396">
  <ele>139.548</ele>
 </trkpt>
 <trkpt lat="50.88235896" lon="6.24567599">
  <ele>139.235</ele>
 </trkpt>
 <trkpt lat="50.88218998" lon="6.24537500">
  <ele>139.780</ele>
 </trkpt>
 <trkpt lat="50.88207196" lon="6.24517199">
  <ele>139.149</ele>
 </trkpt>
 <trkpt lat="50.88173199" lon="6.24457704">
  <ele>140.326</ele>
 </trkpt>
 <trkpt lat="50.88163904" lon="6.24440303">
  <ele>142.199</ele>
 </trkpt>
 <trkpt lat="50.88141600" lon="6.24399701">
  <ele>144.515</ele>
 </trkpt>
 <trkpt lat="50.88135598" lon="6.24387396">
  <ele>144.815</ele>
 </trkpt>
 <trkpt lat="50.88125699" lon="6.24373097">
  <ele>144.263</ele>
 </trkpt>
 <trkpt lat="50.88108600" lon="6.24336904">
  <ele>142.080</ele>
 </trkpt>
 <trkpt lat="50.88098802" lon="6.24318799">
  <ele>140.790</ele>
 </trkpt>
 <trkpt lat="50.88059097" lon="6.24248701">
  <ele>141.590</ele>
 </trkpt>
 <trkpt lat="50.88017397" lon="6.24171504">
  <ele>143.090</ele>
 </trkpt>
 <trkpt lat="50.87974900" lon="6.24093703">
  <ele>143.290</ele>
 </trkpt>
 <trkpt lat="50.87963300" lon="6.24068700">
  <ele>143.801</ele>
 </trkpt>
 <trkpt lat="50.87943401" lon="6.24032800">
  <ele>142.787</ele>
 </trkpt>
 <trkpt lat="50.87906898" lon="6.23966097">
  <ele>143.130</ele>
 </trkpt>
 <trkpt lat="50.87876103" lon="6.23910902">
  <ele>144.649</ele>
 </trkpt>
 <trkpt lat="50.87868702" lon="6.23896401">
  <ele>143.780</ele>
 </trkpt>
 <trkpt lat="50.87860999" lon="6.23882898">
  <ele>144.290</ele>
 </trkpt>
 <trkpt lat="50.87825501" lon="6.23819497">
  <ele>144.520</ele>
 </trkpt>
 <trkpt lat="50.87778102" lon="6.23734597">
  <ele>144.413</ele>
 </trkpt>
 <trkpt lat="50.87731004" lon="6.23651700">
  <ele>144.642</ele>
 </trkpt>
 <trkpt lat="50.87696998" lon="6.23590403">
  <ele>144.884</ele>
 </trkpt>
 <trkpt lat="50.87662700" lon="6.23528796">
  <ele>144.626</ele>
 </trkpt>
 <trkpt lat="50.87613196" lon="6.23439303">
  <ele>145.593</ele>
 </trkpt>
 <trkpt lat="50.87568001" lon="6.23356196">
  <ele>146.424</ele>
 </trkpt>
 <trkpt lat="50.87528899" lon="6.23284003">
  <ele>146.754</ele>
 </trkpt>
 <trkpt lat="50.87499202" lon="6.23229596">
  <ele>147.266</ele>
 </trkpt>
 <trkpt lat="50.87463001" lon="6.23163898">
  <ele>146.817</ele>
 </trkpt>
 <trkpt lat="50.87428702" lon="6.23101403">
  <ele>148.456</ele>
 </trkpt>
 <trkpt lat="50.87393104" lon="6.23035697">
  <ele>148.049</ele>
 </trkpt>
 <trkpt lat="50.87382702" lon="6.23017400">
  <ele>148.192</ele>
 </trkpt>
 <trkpt lat="50.87345302" lon="6.22950001">
  <ele>148.111</ele>
 </trkpt>
 <trkpt lat="50.87306301" lon="6.22878897">
  <ele>147.940</ele>
 </trkpt>
 <trkpt lat="50.87267200" lon="6.22807902">
  <ele>148.306</ele>
 </trkpt>
 <trkpt lat="50.87226799" lon="6.22733597">
  <ele>147.134</ele>
 </trkpt>
 <trkpt lat="50.87193598" lon="6.22671998">
  <ele>147.567</ele>
 </trkpt>
 <trkpt lat="50.87149400" lon="6.22592102">
  <ele>147.308</ele>
 </trkpt>
 <trkpt lat="50.87126702" lon="6.22549698">
  <ele>147.690</ele>
 </trkpt>
 <trkpt lat="50.87106200" lon="6.22515500">
  <ele>146.989</ele>
 </trkpt>
 <trkpt lat="50.87075899" lon="6.22458897">
  <ele>147.362</ele>
 </trkpt>
 <trkpt lat="50.87042397" lon="6.22397801">
  <ele>147.131</ele>
 </trkpt>
 <trkpt lat="50.87022901" lon="6.22358004">
  <ele>148.595</ele>
 </trkpt>
 <trkpt lat="50.87013002" lon="6.22339798">
  <ele>147.662</ele>
 </trkpt>
 <trkpt lat="50.87002801" lon="6.22320796">
  <ele>147.928</ele>
 </trkpt>
 <trkpt lat="50.86966298" lon="6.22254504">
  <ele>147.772</ele>
 </trkpt>
 <trkpt lat="50.86944002" lon="6.22215503">
  <ele>147.548</ele>
 </trkpt>
 <trkpt lat="50.86935301" lon="6.22199804">
  <ele>148.044</ele>
 </trkpt>
 <trkpt lat="50.86920599" lon="6.22169503">
  <ele>148.327</ele>
 </trkpt>
 <trkpt lat="50.86911597" lon="6.22148800">
  <ele>148.144</ele>
 </trkpt>
 <trkpt lat="50.86889301" lon="6.22108198">
  <ele>147.634</ele>
 </trkpt>
 <trkpt lat="50.86853603" lon="6.22044202">
  <ele>148.408</ele>
 </trkpt>
 <trkpt lat="50.86829497" lon="6.22001203">
  <ele>148.225</ele>
 </trkpt>
 <trkpt lat="50.86789800" lon="6.21929202">
  <ele>147.894</ele>
 </trkpt>
 <trkpt lat="50.86767102" lon="6.21886496">
  <ele>149.210</ele>
 </trkpt>
 <trkpt lat="50.86736700" lon="6.21834797">
  <ele>149.867</ele>
 </trkpt>
 <trkpt lat="50.86698001" lon="6.21762503">
  <ele>150.437</ele>
 </trkpt>
 <trkpt lat="50.86666997" lon="6.21693897">
  <ele>150.350</ele>
 </trkpt>
 <trkpt lat="50.86628297" lon="6.21594303">
  <ele>151.825</ele>
 </trkpt>
 <trkpt lat="50.86621600" lon="6.21571597">
  <ele>151.054</ele>
 </trkpt>
 <trkpt lat="50.86603202" lon="6.21510099">
  <ele>151.517</ele>
 </trkpt>
 <trkpt lat="50.86578702" lon="6.21410002">
  <ele>153.898</ele>
 </trkpt>
 <trkpt lat="50.86561502" lon="6.21340198">
  <ele>154.536</ele>
 </trkpt>
 <trkpt lat="50.86553900" lon="6.21301398">
  <ele>154.646</ele>
 </trkpt>
 <trkpt lat="50.86543498" lon="6.21234301">
  <ele>155.779</ele>
 </trkpt>
 <trkpt lat="50.86531696" lon="6.21154899">
  <ele>156.554</ele>
 </trkpt>
 <trkpt lat="50.86526700" lon="6.21093200">
  <ele>157.466</ele>
 </trkpt>
 <trkpt lat="50.86523197" lon="6.21007101">
  <ele>157.015</ele>
 </trkpt>
 <trkpt lat="50.86521998" lon="6.20896602">
  <ele>159.138</ele>
 </trkpt>
 <trkpt lat="50.86522400" lon="6.20865103">
  <ele>160.283</ele>
 </trkpt>
 <trkpt lat="50.86523096" lon="6.20799003">
  <ele>159.610</ele>
 </trkpt>
 <trkpt lat="50.86527002" lon="6.20735896">
  <ele>160.382</ele>
 </trkpt>
 <trkpt lat="50.86535501" lon="6.20658799">
  <ele>161.244</ele>
 </trkpt>
 <trkpt lat="50.86538200" lon="6.20634601">
  <ele>160.836</ele>
 </trkpt>
 <trkpt lat="50.86542903" lon="6.20606798">
  <ele>161.700</ele>
 </trkpt>
 <trkpt lat="50.86553497" lon="6.20529500">
  <ele>161.452</ele>
 </trkpt>
 <trkpt lat="50.86577704" lon="6.20416302">
  <ele>161.026</ele>
 </trkpt>
 <trkpt lat="50.86605800" lon="6.20311503">
  <ele>162.360</ele>
 </trkpt>
 <trkpt lat="50.86616403" lon="6.20276400">
  <ele>162.415</ele>
 </trkpt>
 <trkpt lat="50.86621097" lon="6.20259997">
  <ele>163.197</ele>
 </trkpt>
 <trkpt lat="50.86627300" lon="6.20241799">
  <ele>163.623</ele>
 </trkpt>
 <trkpt lat="50.86635397" lon="6.20221800">
  <ele>163.246</ele>
 </trkpt>
 <trkpt lat="50.86652898" lon="6.20171601">
  <ele>163.825</ele>
 </trkpt>
 <trkpt lat="50.86671196" lon="6.20122600">
  <ele>164.657</ele>
 </trkpt>
 <trkpt lat="50.86693601" lon="6.20060197">
  <ele>164.799</ele>
 </trkpt>
 <trkpt lat="50.86704204" lon="6.20030198">
  <ele>165.046</ele>
 </trkpt>
 <trkpt lat="50.86720096" lon="6.19982304">
  <ele>166.144</ele>
 </trkpt>
 <trkpt lat="50.86733700" lon="6.19951299">
  <ele>165.988</ele>
 </trkpt>
 <trkpt lat="50.86751402" lon="6.19905098">
  <ele>166.328</ele>
 </trkpt>
 <trkpt lat="50.86756499" lon="6.19893003">
  <ele>165.854</ele>
 </trkpt>
 <trkpt lat="50.86768803" lon="6.19864698">
  <ele>165.988</ele>
 </trkpt>
 <trkpt lat="50.86790202" lon="6.19805798">
  <ele>166.398</ele>
 </trkpt>
 <trkpt lat="50.86805901" lon="6.19760200">
  <ele>166.718</ele>
 </trkpt>
 <trkpt lat="50.86810998" lon="6.19736999">
  <ele>166.807</ele>
 </trkpt>
 <trkpt lat="50.86817603" lon="6.19717302">
  <ele>167.165</ele>
 </trkpt>
 <trkpt lat="50.86820997" lon="6.19707604">
  <ele>167.963</ele>
 </trkpt>
 <trkpt lat="50.86816697" lon="6.19672098">
  <ele>169.718</ele>
 </trkpt>
 <trkpt lat="50.86817997" lon="6.19611598">
  <ele>172.854</ele>
 </trkpt>
 <trkpt lat="50.86813001" lon="6.19555598">
  <ele>174.029</ele>
 </trkpt>
 <trkpt lat="50.86791401" lon="6.19493002">
  <ele>175.701</ele>
 </trkpt>
 <trkpt lat="50.86755099" lon="6.19393903">
  <ele>175.487</ele>
 </trkpt>
 <trkpt lat="50.86731697" lon="6.19327996">
  <ele>177.322</ele>
 </trkpt>
 <trkpt lat="50.86721898" lon="6.19310000">
  <ele>177.562</ele>
 </trkpt>
 <trkpt lat="50.86692302" lon="6.19245401">
  <ele>176.818</ele>
 </trkpt>
 <trkpt lat="50.86652102" lon="6.19157600">
  <ele>176.681</ele>
 </trkpt>
 <trkpt lat="50.86646101" lon="6.19144499">
  <ele>177.453</ele>
 </trkpt>
 <trkpt lat="50.86604401" lon="6.19054201">
  <ele>176.385</ele>
 </trkpt>
 <trkpt lat="50.86552299" lon="6.18951900">
  <ele>176.749</ele>
 </trkpt>
 <trkpt lat="50.86508797" lon="6.18859800">
  <ele>176.816</ele>
 </trkpt>
 <trkpt lat="50.86482704" lon="6.18801101">
  <ele>177.321</ele>
 </trkpt>
 <trkpt lat="50.86441297" lon="6.18737600">
  <ele>177.125</ele>
 </trkpt>
 <trkpt lat="50.86433804" lon="6.18723401">
  <ele>177.414</ele>
 </trkpt>
 <trkpt lat="50.86425204" lon="6.18710903">
  <ele>176.340</ele>
 </trkpt>
 <trkpt lat="50.86391098" lon="6.18663303">
  <ele>176.561</ele>
 </trkpt>
 <trkpt lat="50.86341200" lon="6.18603297">
  <ele>178.041</ele>
 </trkpt>
 <trkpt lat="50.86326197" lon="6.18591696">
  <ele>178.132</ele>
 </trkpt>
 <trkpt lat="50.86310598" lon="6.18616699">
  <ele>177.401</ele>
 </trkpt>
 <trkpt lat="50.86269502" lon="6.18692698">
  <ele>178.902</ele>
 </trkpt>
 <trkpt lat="50.86238799" lon="6.18753199">
  <ele>177.162</ele>
 </trkpt>
    </trkseg>
  </trk>

</gpx>
