<?xml version="1.0" encoding="UTF-8" standalone="no" ?>
<gpx xmlns="http://www.topografix.com/GPX/1/1" creator="MapSource 6.16.3" version="1.1" xmlns:xsi="http://www.w3.org/2001/XMLSchema-instance" xsi:schemaLocation="http://www.topografix.com/GPX/1/1 http://www.topografix.com/GPX/1/1/gpx.xsd">

  <metadata>
    <link href="http://www.garmin.com">
      <text>Garmin International</text>
    </link>
    <time>2018-12-28T07:45:59Z</time>
    <bounds maxlat="51.47877118550241" maxlon="6.699524112045765" minlat="51.440808288753033" minlon="6.672231964766979"/>
  </metadata>

  <trk>
    <name>NW 1.05c Teil1*</name>
    <trkseg>
      <trkpt lat="51.459088549017906" lon="6.676165089011192">
        <ele>29.3046875</ele>
      </trkpt>
      <trkpt lat="51.459428099915385" lon="6.67818202637136">
        <ele>28.765625</ele>
      </trkpt>
      <trkpt lat="51.459811739623547" lon="6.680429801344872">
        <ele>28.640625</ele>
      </trkpt>
      <trkpt lat="51.460025478154421" lon="6.681774007156491">
        <ele>27.04296875</ele>
      </trkpt>
      <trkpt lat="51.460214154794812" lon="6.68272728100419">
        <ele>27.80859375</ele>
      </trkpt>
      <trkpt lat="51.46027073264122" lon="6.68339959345758">
        <ele>28.08984375</ele>
      </trkpt>
      <trkpt lat="51.46027073264122" lon="6.683931425213814">
        <ele>28.08203125</ele>
      </trkpt>
      <trkpt lat="51.460239300504327" lon="6.684463256970048">
        <ele>27.59765625</ele>
      </trkpt>
      <trkpt lat="51.460151290521026" lon="6.684884699061513">
        <ele>26.59375</ele>
      </trkpt>
      <trkpt lat="51.459924895316362" lon="6.685476796701551">
        <ele>26</ele>
      </trkpt>
      <trkpt lat="51.459717359393835" lon="6.685968479141593">
        <ele>26.4140625</ele>
      </trkpt>
      <trkpt lat="51.459711072966456" lon="6.685958420857787">
        <ele>26.359375</ele>
      </trkpt>
      <trkpt lat="51.459428099915385" lon="6.686470219865441">
        <ele>26.21484375</ele>
      </trkpt>
      <trkpt lat="51.458837008103728" lon="6.687002051621676">
        <ele>27.36328125</ele>
      </trkpt>
      <trkpt lat="51.458654701709747" lon="6.687262896448374">
        <ele>27.5859375</ele>
      </trkpt>
      <trkpt lat="51.458082385361195" lon="6.687694061547518">
        <ele>27.359375</ele>
      </trkpt>
      <trkpt lat="51.457183174788952" lon="6.688376348465681">
        <ele>27.6953125</ele>
      </trkpt>
      <trkpt lat="51.456283964216709" lon="6.689088810235262">
        <ele>28</ele>
      </trkpt>
      <trkpt lat="51.455956986173987" lon="6.689389888197184">
        <ele>28</ele>
      </trkpt>
      <trkpt lat="51.455391040071845" lon="6.690062116831541">
        <ele>28</ele>
      </trkpt>
      <trkpt lat="51.454957108944654" lon="6.690804669633508">
        <ele>28.43359375</ele>
      </trkpt>
      <trkpt lat="51.452837912365794" lon="6.693905051797628">
        <ele>27.6640625</ele>
      </trkpt>
      <trkpt lat="51.451831832528114" lon="6.695500547066331">
        <ele>27.703125</ele>
      </trkpt>
      <trkpt lat="51.451542489230633" lon="6.695931879803538">
        <ele>28</ele>
      </trkpt>
      <trkpt lat="51.451272089034319" lon="6.696242932230234">
        <ele>28</ele>
      </trkpt>
      <trkpt lat="51.45103320479393" lon="6.69655398465693">
        <ele>28.4375</ele>
      </trkpt>
      <trkpt lat="51.450737658888102" lon="6.696774763986468">
        <ele>29.05859375</ele>
      </trkpt>
      <trkpt lat="51.45025972276926" lon="6.69709587469697">
        <ele>29</ele>
      </trkpt>
      <trkpt lat="51.449599480256438" lon="6.697366861626506">
        <ele>29.01953125</ele>
      </trkpt>
      <trkpt lat="51.448851060122252" lon="6.697677746415138">
        <ele>29.953125</ele>
      </trkpt>
      <trkpt lat="51.447788402438164" lon="6.698159454390407">
        <ele>30.78125</ele>
      </trkpt>
      <trkpt lat="51.446788525208831" lon="6.698600929230452">
        <ele>30</ele>
      </trkpt>
      <trkpt lat="51.445807507261634" lon="6.699052462354302">
        <ele>30</ele>
      </trkpt>
      <trkpt lat="51.444858005270362" lon="6.699463929980993">
        <ele>30.66015625</ele>
      </trkpt>
      <trkpt lat="51.444851718842983" lon="6.699463929980993">
        <ele>30.66015625</ele>
      </trkpt>
      <trkpt lat="51.444675615057349" lon="6.699524112045765">
        <ele>30.7890625</ele>
      </trkpt>
      <trkpt lat="51.444556089118123" lon="6.698771417140961">
        <ele>30.046875</ele>
      </trkpt>
      <trkpt lat="51.444298261776567" lon="6.698891865089536">
        <ele>30.3515625</ele>
      </trkpt>
      <trkpt lat="51.444078152999282" lon="6.698841657489538">
        <ele>30.71484375</ele>
      </trkpt>
      <trkpt lat="51.443851757794619" lon="6.698751384392381">
        <ele>30.94921875</ele>
      </trkpt>
      <trkpt lat="51.443688310682774" lon="6.698329942300916">
        <ele>31</ele>
      </trkpt>
      <trkpt lat="51.443468201905489" lon="6.697466941550374">
        <ele>30.859375</ele>
      </trkpt>
      <trkpt lat="51.443229233846068" lon="6.696312921121717">
        <ele>31.78125</ele>
      </trkpt>
      <trkpt lat="51.442436976358294" lon="6.6963932197541">
        <ele>30.3359375</ele>
      </trkpt>
      <trkpt lat="51.442317450419068" lon="6.696483576670289">
        <ele>29.71875</ele>
      </trkpt>
      <trkpt lat="51.442135144025087" lon="6.69637318700552">
        <ele>28.87109375</ele>
      </trkpt>
      <trkpt lat="51.441845884546638" lon="6.696152407675982">
        <ele>27.71484375</ele>
      </trkpt>
      <trkpt lat="51.440808288753033" lon="6.695670783519745">
        <ele>26.51171875</ele>
      </trkpt>
    </trkseg>
  </trk>

  <trk>
    <name>NW 1.05c Teil2*</name>
    <trkseg>
      <trkpt lat="51.47877118550241" lon="6.672231964766979">
        <ele>27.95703125</ele>
      </trkpt>
      <trkpt lat="51.478217812255025" lon="6.672673523426056">
        <ele>28.34375</ele>
      </trkpt>
      <trkpt lat="51.476828092709184" lon="6.673656888306141">
        <ele>28.9921875</ele>
      </trkpt>
      <trkpt lat="51.476545119658113" lon="6.673897784203291">
        <ele>28.90625</ele>
      </trkpt>
      <trkpt lat="51.476532546803355" lon="6.673897784203291">
        <ele>28.875</ele>
      </trkpt>
    </trkseg>
  </trk>

</gpx>
