<?xml version="1.0" encoding="UTF-8" standalone="no"?>
<gpx xmlns="http://www.topografix.com/GPX/1/1" creator="www.bahntrassenradeln.de" version="1.1">

<trk>
  <name>NW 1.18*</name>
    <extensions>
      <gpxx:TrackExtension xmlns:gpxx="http://www.garmin.com/xmlschemas/GpxExtensions/v3">
        <gpxx:DisplayColor>DarkRed</gpxx:DisplayColor>
      </gpxx:TrackExtension>
    </extensions>
  <trkseg>
    <trkpt lat="50.578150" lon="6.481480"/>
    <trkpt lat="50.578220" lon="6.481240"/>
    <trkpt lat="50.578160" lon="6.480170"/>
    <trkpt lat="50.578120" lon="6.479490"/>
    <trkpt lat="50.578160" lon="6.478680"/>
    <trkpt lat="50.578180" lon="6.478320"/>
    <trkpt lat="50.578170" lon="6.478060"/>
    <trkpt lat="50.578080" lon="6.477600"/>
    <trkpt lat="50.577970" lon="6.476940"/>
    <trkpt lat="50.577860" lon="6.476120"/>
    <trkpt lat="50.577660" lon="6.475020"/>
    <trkpt lat="50.577540" lon="6.474220"/>
    <trkpt lat="50.577530" lon="6.473630"/>
    <trkpt lat="50.577580" lon="6.473050"/>
    <trkpt lat="50.577620" lon="6.472640"/>
    <trkpt lat="50.577630" lon="6.472150"/>
    <trkpt lat="50.577630" lon="6.471560"/>
    <trkpt lat="50.577630" lon="6.470790"/>
    <trkpt lat="50.577620" lon="6.470070"/>
    <trkpt lat="50.577590" lon="6.469250"/>
    <trkpt lat="50.577520" lon="6.468440"/>
    <trkpt lat="50.577430" lon="6.467800"/>
    <trkpt lat="50.577310" lon="6.467360"/>
    <trkpt lat="50.577110" lon="6.466900"/>
    <trkpt lat="50.576800" lon="6.466280"/>
    <trkpt lat="50.576610" lon="6.465890"/>
    <trkpt lat="50.576530" lon="6.465690"/>
    <trkpt lat="50.576490" lon="6.465420"/>
    <trkpt lat="50.576490" lon="6.465070"/>
    <trkpt lat="50.576480" lon="6.464470"/>
    <trkpt lat="50.576440" lon="6.463920"/>
    <trkpt lat="50.576390" lon="6.463370"/>
    <trkpt lat="50.576320" lon="6.462760"/>
    <trkpt lat="50.576260" lon="6.461970"/>
    <trkpt lat="50.576200" lon="6.461150"/>
    <trkpt lat="50.576160" lon="6.460310"/>
    <trkpt lat="50.576150" lon="6.459430"/>
    <trkpt lat="50.576210" lon="6.458700"/>
    <trkpt lat="50.576330" lon="6.458140"/>
    <trkpt lat="50.576400" lon="6.457890"/>
    <trkpt lat="50.576520" lon="6.457640"/>
    <trkpt lat="50.576650" lon="6.457590"/>
    <trkpt lat="50.576820" lon="6.457750"/>
    <trkpt lat="50.576980" lon="6.458680"/>
    <trkpt lat="50.577160" lon="6.459610"/>
    <trkpt lat="50.577450" lon="6.460780"/>
    <trkpt lat="50.577800" lon="6.461960"/>
    <trkpt lat="50.578210" lon="6.462870"/>
    <trkpt lat="50.578760" lon="6.463720"/>
    <trkpt lat="50.579440" lon="6.464560"/>
    <trkpt lat="50.580160" lon="6.465260"/>
    <trkpt lat="50.580770" lon="6.465600"/>
    <trkpt lat="50.581340" lon="6.465950"/>
    <trkpt lat="50.581700" lon="6.466070"/>
    <trkpt lat="50.581830" lon="6.465980"/>
    <trkpt lat="50.582070" lon="6.465850"/>
    <trkpt lat="50.582260" lon="6.465660"/>
    <trkpt lat="50.582430" lon="6.465330"/>
    <trkpt lat="50.582560" lon="6.464810"/>
    <trkpt lat="50.582640" lon="6.464160"/>
    <trkpt lat="50.582710" lon="6.463570"/>
    <trkpt lat="50.582790" lon="6.463130"/>
    <trkpt lat="50.582930" lon="6.462750"/>
    <trkpt lat="50.583210" lon="6.462330"/>
    <trkpt lat="50.583580" lon="6.461830"/>
    <trkpt lat="50.583970" lon="6.461310"/>
    <trkpt lat="50.584150" lon="6.460990"/>
    <trkpt lat="50.584230" lon="6.460650"/>
    <trkpt lat="50.584240" lon="6.460270"/>
    <trkpt lat="50.584200" lon="6.459840"/>
    <trkpt lat="50.584060" lon="6.459360"/>
    <trkpt lat="50.583870" lon="6.458880"/>
    <trkpt lat="50.583620" lon="6.458400"/>
    <trkpt lat="50.583350" lon="6.457870"/>
    <trkpt lat="50.583120" lon="6.457460"/>
    <trkpt lat="50.582910" lon="6.457060"/>
    <trkpt lat="50.582830" lon="6.456790"/>
    <trkpt lat="50.582850" lon="6.456510"/>
    <trkpt lat="50.582890" lon="6.456360"/>
    <trkpt lat="50.583030" lon="6.456240"/>
    <trkpt lat="50.583280" lon="6.456170"/>
    <trkpt lat="50.583900" lon="6.456210"/>
    <trkpt lat="50.584570" lon="6.456330"/>
    <trkpt lat="50.585100" lon="6.456540"/>
    <trkpt lat="50.585680" lon="6.456880"/>
    <trkpt lat="50.586330" lon="6.457210"/>
    <trkpt lat="50.586920" lon="6.457420"/>
    <trkpt lat="50.587710" lon="6.457590"/>
    <trkpt lat="50.588220" lon="6.457650"/>
    <trkpt lat="50.588690" lon="6.457650"/>
    <trkpt lat="50.589040" lon="6.457570"/>
    <trkpt lat="50.589310" lon="6.457400"/>
    <trkpt lat="50.589510" lon="6.457180"/>
    <trkpt lat="50.589680" lon="6.456890"/>
    <trkpt lat="50.589810" lon="6.456540"/>
    <trkpt lat="50.589930" lon="6.456120"/>
    <trkpt lat="50.590010" lon="6.455600"/>
    <trkpt lat="50.590040" lon="6.454980"/>
    <trkpt lat="50.590010" lon="6.454500"/>
    <trkpt lat="50.589910" lon="6.454010"/>
    <trkpt lat="50.589870" lon="6.453710"/>
    <trkpt lat="50.589880" lon="6.453550"/>
    <trkpt lat="50.589950" lon="6.453370"/>
    <trkpt lat="50.590080" lon="6.453170"/>
    <trkpt lat="50.590270" lon="6.452940"/>
    <trkpt lat="50.590540" lon="6.452750"/>
    <trkpt lat="50.590950" lon="6.452580"/>
    <trkpt lat="50.591370" lon="6.452500"/>
    <trkpt lat="50.591880" lon="6.452640"/>
    <trkpt lat="50.592520" lon="6.452810"/>
    <trkpt lat="50.593280" lon="6.453030"/>
    <trkpt lat="50.593540" lon="6.453170"/>
    <trkpt lat="50.593700" lon="6.453410"/>
    <trkpt lat="50.593920" lon="6.453770"/>
    <trkpt lat="50.594100" lon="6.453920"/>
    <trkpt lat="50.594230" lon="6.453920"/>
    <trkpt lat="50.594300" lon="6.453820"/>
    <trkpt lat="50.594340" lon="6.453630"/>
    <trkpt lat="50.594340" lon="6.453370"/>
    <trkpt lat="50.594280" lon="6.453110"/>
    <trkpt lat="50.594210" lon="6.452840"/>
    <trkpt lat="50.594160" lon="6.452580"/>
    <trkpt lat="50.594130" lon="6.452390"/>
    <trkpt lat="50.594150" lon="6.452250"/>
    <trkpt lat="50.594220" lon="6.452090"/>
    <trkpt lat="50.594360" lon="6.451920"/>
    <trkpt lat="50.594530" lon="6.451840"/>
    <trkpt lat="50.594680" lon="6.451900"/>
    <trkpt lat="50.594860" lon="6.452190"/>
    <trkpt lat="50.595120" lon="6.452530"/>
    <trkpt lat="50.595420" lon="6.452940"/>
    <trkpt lat="50.595660" lon="6.453120"/>
    <trkpt lat="50.595920" lon="6.453180"/>
    <trkpt lat="50.596130" lon="6.453120"/>
    <trkpt lat="50.596300" lon="6.452940"/>
    <trkpt lat="50.596510" lon="6.452630"/>
    <trkpt lat="50.596710" lon="6.452220"/>
    <trkpt lat="50.596920" lon="6.451710"/>
    <trkpt lat="50.597070" lon="6.451260"/>
    <trkpt lat="50.597200" lon="6.450930"/>
    <trkpt lat="50.597350" lon="6.450720"/>
    <trkpt lat="50.597530" lon="6.450510"/>
    <trkpt lat="50.597740" lon="6.450240"/>
    <trkpt lat="50.598000" lon="6.449840"/>
    <trkpt lat="50.598270" lon="6.449420"/>
    <trkpt lat="50.598540" lon="6.448980"/>
    <trkpt lat="50.598800" lon="6.448460"/>
    <trkpt lat="50.599000" lon="6.447890"/>
    <trkpt lat="50.599130" lon="6.447400"/>
    <trkpt lat="50.599240" lon="6.446880"/>
    <trkpt lat="50.599300" lon="6.446310"/>
    <trkpt lat="50.599330" lon="6.445790"/>
    <trkpt lat="50.599330" lon="6.445430"/>
    <trkpt lat="50.599290" lon="6.445130"/>
    <trkpt lat="50.599200" lon="6.444900"/>
    <trkpt lat="50.599090" lon="6.444630"/>
    <trkpt lat="50.598910" lon="6.444300"/>
    <trkpt lat="50.598210" lon="6.442940"/>
    <trkpt lat="50.597970" lon="6.442700"/>
    <trkpt lat="50.597720" lon="6.442470"/>
    <trkpt lat="50.597520" lon="6.442250"/>
    <trkpt lat="50.597450" lon="6.442000"/>
    <trkpt lat="50.597430" lon="6.441740"/>
    <trkpt lat="50.597470" lon="6.441510"/>
    <trkpt lat="50.597590" lon="6.441270"/>
    <trkpt lat="50.597730" lon="6.441150"/>
    <trkpt lat="50.597970" lon="6.441010"/>
    <trkpt lat="50.598130" lon="6.440780"/>
    <trkpt lat="50.598310" lon="6.440470"/>
    <trkpt lat="50.598510" lon="6.440190"/>
    <trkpt lat="50.598690" lon="6.439900"/>
    <trkpt lat="50.598780" lon="6.439670"/>
    <trkpt lat="50.598890" lon="6.439550"/>
    <trkpt lat="50.599120" lon="6.439570"/>
    <trkpt lat="50.599400" lon="6.439710"/>
    <trkpt lat="50.599570" lon="6.439930"/>
    <trkpt lat="50.599760" lon="6.440230"/>
    <trkpt lat="50.599830" lon="6.440310"/>
    <trkpt lat="50.599940" lon="6.440340"/>
    <trkpt lat="50.600050" lon="6.440270"/>
    <trkpt lat="50.600110" lon="6.440170"/>
    <trkpt lat="50.600140" lon="6.440010"/>
    <trkpt lat="50.600140" lon="6.439770"/>
    <trkpt lat="50.600070" lon="6.439520"/>
    <trkpt lat="50.599910" lon="6.439160"/>
    <trkpt lat="50.599670" lon="6.438710"/>
    <trkpt lat="50.599430" lon="6.438350"/>
    <trkpt lat="50.599390" lon="6.438220"/>
    <trkpt lat="50.599390" lon="6.437990"/>
    <trkpt lat="50.599380" lon="6.437640"/>
    <trkpt lat="50.599290" lon="6.437260"/>
    <trkpt lat="50.599100" lon="6.436790"/>
    <trkpt lat="50.598780" lon="6.436050"/>
    <trkpt lat="50.598460" lon="6.435350"/>
    <trkpt lat="50.598210" lon="6.434960"/>
    <trkpt lat="50.597980" lon="6.434610"/>
    <trkpt lat="50.597720" lon="6.434290"/>
    <trkpt lat="50.597560" lon="6.434130"/>
    <trkpt lat="50.597440" lon="6.433980"/>
    <trkpt lat="50.597390" lon="6.433820"/>
    <trkpt lat="50.597330" lon="6.433680"/>
    <trkpt lat="50.597340" lon="6.433510"/>
    <trkpt lat="50.597420" lon="6.433340"/>
    <trkpt lat="50.597580" lon="6.433180"/>
    <trkpt lat="50.597810" lon="6.433070"/>
    <trkpt lat="50.598130" lon="6.433020"/>
    <trkpt lat="50.598580" lon="6.433030"/>
    <trkpt lat="50.599010" lon="6.433000"/>
    <trkpt lat="50.599290" lon="6.432950"/>
    <trkpt lat="50.599600" lon="6.432790"/>
    <trkpt lat="50.599900" lon="6.432650"/>
    <trkpt lat="50.600100" lon="6.432480"/>
    <trkpt lat="50.600250" lon="6.432280"/>
    <trkpt lat="50.600460" lon="6.432220"/>
    <trkpt lat="50.600690" lon="6.432120"/>
    <trkpt lat="50.600950" lon="6.431920"/>
    <trkpt lat="50.601370" lon="6.431630"/>
    <trkpt lat="50.601800" lon="6.431390"/>
    <trkpt lat="50.602030" lon="6.431360"/>
    <trkpt lat="50.602220" lon="6.431480"/>
    <trkpt lat="50.602390" lon="6.431560"/>
    <trkpt lat="50.602510" lon="6.431550"/>
    <trkpt lat="50.602610" lon="6.431420"/>
    <trkpt lat="50.602710" lon="6.431230"/>
    <trkpt lat="50.602840" lon="6.431080"/>
    <trkpt lat="50.603090" lon="6.431020"/>
    <trkpt lat="50.603430" lon="6.431070"/>
    <trkpt lat="50.603650" lon="6.431290"/>
    <trkpt lat="50.603810" lon="6.431420"/>
    <trkpt lat="50.603960" lon="6.431390"/>
    <trkpt lat="50.604090" lon="6.431240"/>
    <trkpt lat="50.604220" lon="6.431050"/>
    <trkpt lat="50.604370" lon="6.430850"/>
    <trkpt lat="50.604560" lon="6.430670"/>
    <trkpt lat="50.604810" lon="6.430550"/>
    <trkpt lat="50.605080" lon="6.430470"/>
    <trkpt lat="50.605320" lon="6.430340"/>
    <trkpt lat="50.605550" lon="6.430150"/>
    <trkpt lat="50.605810" lon="6.429960"/>
    <trkpt lat="50.606070" lon="6.429750"/>
    <trkpt lat="50.606400" lon="6.429490"/>
    <trkpt lat="50.606730" lon="6.429230"/>
    <trkpt lat="50.606960" lon="6.428940"/>
    <trkpt lat="50.607130" lon="6.428680"/>
    <trkpt lat="50.607300" lon="6.428560"/>
    <trkpt lat="50.607510" lon="6.428470"/>
    <trkpt lat="50.607830" lon="6.428450"/>
    <trkpt lat="50.608080" lon="6.428560"/>
    <trkpt lat="50.608380" lon="6.428740"/>
    <trkpt lat="50.608730" lon="6.428920"/>
    <trkpt lat="50.609180" lon="6.429130"/>
    <trkpt lat="50.609490" lon="6.429210"/>
    <trkpt lat="50.609700" lon="6.429200"/>
    <trkpt lat="50.609730" lon="6.428980"/>
    <trkpt lat="50.609730" lon="6.428830"/>
    <trkpt lat="50.609690" lon="6.428660"/>
    <trkpt lat="50.609590" lon="6.428490"/>
    <trkpt lat="50.609400" lon="6.428290"/>
    <trkpt lat="50.609170" lon="6.428030"/>
    <trkpt lat="50.608970" lon="6.427750"/>
    <trkpt lat="50.608760" lon="6.427460"/>
    <trkpt lat="50.608530" lon="6.427170"/>
    <trkpt lat="50.608290" lon="6.426980"/>
    <trkpt lat="50.608040" lon="6.426800"/>
    <trkpt lat="50.607770" lon="6.426640"/>
    <trkpt lat="50.607570" lon="6.426460"/>
    <trkpt lat="50.607390" lon="6.426240"/>
    <trkpt lat="50.607230" lon="6.426010"/>
    <trkpt lat="50.607050" lon="6.425720"/>
    <trkpt lat="50.606970" lon="6.425520"/>
    <trkpt lat="50.606890" lon="6.425150"/>
    <trkpt lat="50.606810" lon="6.424770"/>
    <trkpt lat="50.606690" lon="6.424490"/>
    <trkpt lat="50.606520" lon="6.424230"/>
    <trkpt lat="50.606320" lon="6.423950"/>
    <trkpt lat="50.606070" lon="6.423660"/>
    <trkpt lat="50.605800" lon="6.423380"/>
    <trkpt lat="50.605520" lon="6.423060"/>
    <trkpt lat="50.605340" lon="6.422880"/>
    <trkpt lat="50.605250" lon="6.422740"/>
    <trkpt lat="50.605210" lon="6.422570"/>
    <trkpt lat="50.605180" lon="6.422320"/>
    <trkpt lat="50.605130" lon="6.422070"/>
    <trkpt lat="50.605020" lon="6.421810"/>
    <trkpt lat="50.604910" lon="6.421540"/>
    <trkpt lat="50.604790" lon="6.421250"/>
    <trkpt lat="50.604680" lon="6.421060"/>
    <trkpt lat="50.604510" lon="6.420890"/>
    <trkpt lat="50.604320" lon="6.420710"/>
  </trkseg>
</trk>

</gpx>
