<?xml version="1.0" encoding="UTF-8" standalone="no"?>
<gpx xmlns="http://www.topografix.com/GPX/1/1" creator="www.bahntrassenradeln.de" version="1.1">

  <trk>
    <name>NW 1.02a</name>
    <trkseg>
 <trkpt lat="51.25685502" lon="6.33766402">
  <ele>66.548</ele>
 </trkpt>
 <trkpt lat="51.25688603" lon="6.33750804">
  <ele>67.121</ele>
 </trkpt>
 <trkpt lat="51.25692501" lon="6.33736404">
  <ele>66.884</ele>
 </trkpt>
 <trkpt lat="51.25710798" lon="6.33722104">
  <ele>66.233</ele>
 </trkpt>
 <trkpt lat="51.25718803" lon="6.33690496">
  <ele>65.960</ele>
 </trkpt>
 <trkpt lat="51.25729599" lon="6.33651302">
  <ele>66.280</ele>
 </trkpt>
 <trkpt lat="51.25748098" lon="6.33590098">
  <ele>66.939</ele>
 </trkpt>
 <trkpt lat="51.25766999" lon="6.33520897">
  <ele>66.136</ele>
 </trkpt>
 <trkpt lat="51.25753303" lon="6.33504200">
  <ele>65.576</ele>
 </trkpt>
 <trkpt lat="51.25677397" lon="6.33483798">
  <ele>64.751</ele>
 </trkpt>
 <trkpt lat="51.25662200" lon="6.33471896">
  <ele>64.640</ele>
 </trkpt>
 <trkpt lat="51.25661597" lon="6.33456096">
  <ele>65.071</ele>
 </trkpt>
 <trkpt lat="51.25666601" lon="6.33413700">
  <ele>65.739</ele>
 </trkpt>
 <trkpt lat="51.25678402" lon="6.33290503">
  <ele>64.791</ele>
 </trkpt>
 <trkpt lat="51.25679903" lon="6.33273697">
  <ele>63.920</ele>
 </trkpt>
 <trkpt lat="51.25687396" lon="6.33195402">
  <ele>62.860</ele>
 </trkpt>
 <trkpt lat="51.25690104" lon="6.33176803">
  <ele>62.331</ele>
 </trkpt>
 <trkpt lat="51.25708401" lon="6.33118699">
  <ele>61.186</ele>
 </trkpt>
 <trkpt lat="51.25724704" lon="6.33099597">
  <ele>62.567</ele>
 </trkpt>
 <trkpt lat="51.25738199" lon="6.33083504">
  <ele>64.021</ele>
 </trkpt>
 <trkpt lat="51.25768701" lon="6.33079497">
  <ele>64.307</ele>
 </trkpt>
 <trkpt lat="51.25794802" lon="6.33078097">
  <ele>64.830</ele>
 </trkpt>
 <trkpt lat="51.25809303" lon="6.33074300">
  <ele>65.435</ele>
 </trkpt>
 <trkpt lat="51.25808699" lon="6.33059397">
  <ele>63.589</ele>
 </trkpt>
 <trkpt lat="51.25805497" lon="6.33037504">
  <ele>62.208</ele>
 </trkpt>
 <trkpt lat="51.25795003" lon="6.32987103">
  <ele>63.281</ele>
 </trkpt>
 <trkpt lat="51.25786998" lon="6.32948404">
  <ele>62.315</ele>
 </trkpt>
 <trkpt lat="51.25780502" lon="6.32927097">
  <ele>62.510</ele>
 </trkpt>
 <trkpt lat="51.25753303" lon="6.32846598">
  <ele>62.133</ele>
 </trkpt>
 <trkpt lat="51.25722500" lon="6.32772904">
  <ele>61.482</ele>
 </trkpt>
 <trkpt lat="51.25714998" lon="6.32755000">
  <ele>61.637</ele>
 </trkpt>
 <trkpt lat="51.25710899" lon="6.32734699">
  <ele>61.630</ele>
 </trkpt>
 <trkpt lat="51.25708804" lon="6.32725697">
  <ele>61.955</ele>
 </trkpt>
 <trkpt lat="51.25699600" lon="6.32708296">
  <ele>61.684</ele>
 </trkpt>
 <trkpt lat="51.25681202" lon="6.32676403">
  <ele>61.451</ele>
 </trkpt>
 <trkpt lat="51.25648898" lon="6.32630303">
  <ele>61.594</ele>
 </trkpt>
 <trkpt lat="51.25637298" lon="6.32616196">
  <ele>61.042</ele>
 </trkpt>
 <trkpt lat="51.25605203" lon="6.32576901">
  <ele>61.399</ele>
 </trkpt>
 <trkpt lat="51.25593703" lon="6.32564597">
  <ele>60.864</ele>
 </trkpt>
 <trkpt lat="51.25539397" lon="6.32515697">
  <ele>61.002</ele>
 </trkpt>
 <trkpt lat="51.25528903" lon="6.32508103">
  <ele>61.183</ele>
 </trkpt>
 <trkpt lat="51.25516104" lon="6.32500702">
  <ele>61.555</ele>
 </trkpt>
 <trkpt lat="51.25509197" lon="6.32496804">
  <ele>61.653</ele>
 </trkpt>
 <trkpt lat="51.25496096" lon="6.32490601">
  <ele>61.189</ele>
 </trkpt>
 <trkpt lat="51.25457204" lon="6.32471197">
  <ele>60.428</ele>
 </trkpt>
 <trkpt lat="51.25443600" lon="6.32467803">
  <ele>59.788</ele>
 </trkpt>
 <trkpt lat="51.25389998" lon="6.32448700">
  <ele>57.480</ele>
 </trkpt>
 <trkpt lat="51.25363997" lon="6.32438499">
  <ele>56.065</ele>
 </trkpt>
 <trkpt lat="51.25338801" lon="6.32434501">
  <ele>53.345</ele>
 </trkpt>
 <trkpt lat="51.25336597" lon="6.32414200">
  <ele>53.225</ele>
 </trkpt>
 <trkpt lat="51.25322297" lon="6.32414402">
  <ele>53.402</ele>
 </trkpt>
 <trkpt lat="51.25306598" lon="6.32418299">
  <ele>53.590</ele>
 </trkpt>
 <trkpt lat="51.25283900" lon="6.32409196">
  <ele>54.187</ele>
 </trkpt>
 <trkpt lat="51.25275803" lon="6.32405098">
  <ele>54.525</ele>
 </trkpt>
 <trkpt lat="51.25253197" lon="6.32390404">
  <ele>55.834</ele>
 </trkpt>
 <trkpt lat="51.25200097" lon="6.32360699">
  <ele>56.718</ele>
 </trkpt>
 <trkpt lat="51.25136998" lon="6.32321496">
  <ele>57.681</ele>
 </trkpt>
 <trkpt lat="51.25107201" lon="6.32302000">
  <ele>58.338</ele>
 </trkpt>
 <trkpt lat="51.25095902" lon="6.32296401">
  <ele>58.345</ele>
 </trkpt>
 <trkpt lat="51.25036399" lon="6.32257601">
  <ele>59.314</ele>
 </trkpt>
 <trkpt lat="51.24998697" lon="6.32233302">
  <ele>59.925</ele>
 </trkpt>
 <trkpt lat="51.24963602" lon="6.32204200">
  <ele>60.275</ele>
 </trkpt>
 <trkpt lat="51.24942597" lon="6.32186699">
  <ele>60.910</ele>
 </trkpt>
 <trkpt lat="51.24930502" lon="6.32178501">
  <ele>60.971</ele>
 </trkpt>
 <trkpt lat="51.24908701" lon="6.32161302">
  <ele>61.645</ele>
 </trkpt>
 <trkpt lat="51.24880102" lon="6.32129299">
  <ele>61.677</ele>
 </trkpt>
 <trkpt lat="51.24855903" lon="6.32105201">
  <ele>61.762</ele>
 </trkpt>
 <trkpt lat="51.24835401" lon="6.32092704">
  <ele>62.245</ele>
 </trkpt>
 <trkpt lat="51.24820196" lon="6.32081699">
  <ele>61.931</ele>
 </trkpt>
 <trkpt lat="51.24788596" lon="6.32065203">
  <ele>61.810</ele>
 </trkpt>
 <trkpt lat="51.24784296" lon="6.32045296">
  <ele>62.329</ele>
 </trkpt>
 <trkpt lat="51.24779200" lon="6.32005800">
  <ele>63.193</ele>
 </trkpt>
 <trkpt lat="51.24753200" lon="6.31988802">
  <ele>63.237</ele>
 </trkpt>
 <trkpt lat="51.24743099" lon="6.31979297">
  <ele>62.613</ele>
 </trkpt>
 <trkpt lat="51.24735497" lon="6.31970999">
  <ele>62.082</ele>
 </trkpt>
 <trkpt lat="51.24699002" lon="6.31926298">
  <ele>61.990</ele>
 </trkpt>
 <trkpt lat="51.24687603" lon="6.31913801">
  <ele>62.327</ele>
 </trkpt>
 <trkpt lat="51.24647001" lon="6.31864398">
  <ele>62.027</ele>
 </trkpt>
 <trkpt lat="51.24615099" lon="6.31826403">
  <ele>62.678</ele>
 </trkpt>
 <trkpt lat="51.24603096" lon="6.31812003">
  <ele>61.668</ele>
 </trkpt>
 <trkpt lat="51.24562997" lon="6.31765299">
  <ele>61.834</ele>
 </trkpt>
 <trkpt lat="51.24525497" lon="6.31720799">
  <ele>61.200</ele>
 </trkpt>
 <trkpt lat="51.24518104" lon="6.31711403">
  <ele>60.877</ele>
 </trkpt>
 <trkpt lat="51.24479698" lon="6.31667498">
  <ele>61.060</ele>
 </trkpt>
 <trkpt lat="51.24450303" lon="6.31632403">
  <ele>60.351</ele>
 </trkpt>
 <trkpt lat="51.24443497" lon="6.31616998">
  <ele>61.118</ele>
 </trkpt>
 <trkpt lat="51.24448098" lon="6.31593101">
  <ele>60.770</ele>
 </trkpt>
 <trkpt lat="51.24443497" lon="6.31586303">
  <ele>60.912</ele>
 </trkpt>
 <trkpt lat="51.24411402" lon="6.31565801">
  <ele>61.224</ele>
 </trkpt>
 <trkpt lat="51.24390196" lon="6.31544301">
  <ele>61.737</ele>
 </trkpt>
 <trkpt lat="51.24378503" lon="6.31533103">
  <ele>61.453</ele>
 </trkpt>
 <trkpt lat="51.24362100" lon="6.31513003">
  <ele>61.737</ele>
 </trkpt>
 <trkpt lat="51.24353400" lon="6.31503800">
  <ele>61.530</ele>
 </trkpt>
 <trkpt lat="51.24313703" lon="6.31460901">
  <ele>61.684</ele>
 </trkpt>
 <trkpt lat="51.24273403" lon="6.31413602">
  <ele>62.405</ele>
 </trkpt>
 <trkpt lat="51.24265096" lon="6.31403603">
  <ele>63.067</ele>
 </trkpt>
 <trkpt lat="51.24252297" lon="6.31388004">
  <ele>62.041</ele>
 </trkpt>
 <trkpt lat="51.24216598" lon="6.31345902">
  <ele>62.012</ele>
 </trkpt>
 <trkpt lat="51.24168000" lon="6.31287798">
  <ele>63.882</ele>
 </trkpt>
 <trkpt lat="51.24150599" lon="6.31267003">
  <ele>63.888</ele>
 </trkpt>
 <trkpt lat="51.24142402" lon="6.31257003">
  <ele>64.112</ele>
 </trkpt>
 <trkpt lat="51.24101297" lon="6.31209704">
  <ele>64.799</ele>
 </trkpt>
 <trkpt lat="51.24090803" lon="6.31197601">
  <ele>65.419</ele>
 </trkpt>
 <trkpt lat="51.24080501" lon="6.31182203">
  <ele>66.222</ele>
 </trkpt>
 <trkpt lat="51.24054400" lon="6.31137997">
  <ele>65.931</ele>
 </trkpt>
 <trkpt lat="51.24032297" lon="6.31113899">
  <ele>66.445</ele>
 </trkpt>
 <trkpt lat="51.24000404" lon="6.31076901">
  <ele>65.476</ele>
 </trkpt>
 <trkpt lat="51.23983498" lon="6.31060498">
  <ele>64.790</ele>
 </trkpt>
 <trkpt lat="51.23974797" lon="6.31052904">
  <ele>64.223</ele>
 </trkpt>
 <trkpt lat="51.23937598" lon="6.31014196">
  <ele>64.781</ele>
 </trkpt>
 <trkpt lat="51.23925503" lon="6.30998698">
  <ele>64.598</ele>
 </trkpt>
 <trkpt lat="51.23870300" lon="6.30934300">
  <ele>64.728</ele>
 </trkpt>
 <trkpt lat="51.23809699" lon="6.30860296">
  <ele>62.388</ele>
 </trkpt>
 <trkpt lat="51.23748302" lon="6.30782504">
  <ele>62.647</ele>
 </trkpt>
 <trkpt lat="51.23735804" lon="6.30766897">
  <ele>62.715</ele>
 </trkpt>
 <trkpt lat="51.23694599" lon="6.30727099">
  <ele>62.926</ele>
 </trkpt>
 <trkpt lat="51.23671599" lon="6.30699498">
  <ele>62.615</ele>
 </trkpt>
 <trkpt lat="51.23661297" lon="6.30687897">
  <ele>63.649</ele>
 </trkpt>
 <trkpt lat="51.23626001" lon="6.30646700">
  <ele>63.254</ele>
 </trkpt>
 <trkpt lat="51.23570002" lon="6.30579603">
  <ele>64.351</ele>
 </trkpt>
 <trkpt lat="51.23519601" lon="6.30510796">
  <ele>65.235</ele>
 </trkpt>
 <trkpt lat="51.23470601" lon="6.30461200">
  <ele>65.705</ele>
 </trkpt>
 <trkpt lat="51.23401098" lon="6.30379602">
  <ele>66.097</ele>
 </trkpt>
 <trkpt lat="51.23388902" lon="6.30364398">
  <ele>67.075</ele>
 </trkpt>
 <trkpt lat="51.23377796" lon="6.30351196">
  <ele>66.952</ele>
 </trkpt>
 <trkpt lat="51.23332702" lon="6.30297200">
  <ele>67.358</ele>
 </trkpt>
 <trkpt lat="51.23292804" lon="6.30250496">
  <ele>67.005</ele>
 </trkpt>
 <trkpt lat="51.23279401" lon="6.30237403">
  <ele>66.835</ele>
 </trkpt>
 <trkpt lat="51.23265504" lon="6.30230396">
  <ele>67.179</ele>
 </trkpt>
 <trkpt lat="51.23252797" lon="6.30217899">
  <ele>67.344</ele>
 </trkpt>
 <trkpt lat="51.23245798" lon="6.30210296">
  <ele>67.551</ele>
 </trkpt>
 <trkpt lat="51.23231700" lon="6.30194999">
  <ele>67.060</ele>
 </trkpt>
 <trkpt lat="51.23183596" lon="6.30135798">
  <ele>67.179</ele>
 </trkpt>
 <trkpt lat="51.23160403" lon="6.30107098">
  <ele>67.466</ele>
 </trkpt>
 <trkpt lat="51.23151099" lon="6.30096403">
  <ele>66.973</ele>
 </trkpt>
 <trkpt lat="51.23111696" lon="6.30050101">
  <ele>66.908</ele>
 </trkpt>
 <trkpt lat="51.23084497" lon="6.30018602">
  <ele>67.465</ele>
 </trkpt>
 <trkpt lat="51.23072100" lon="6.30003900">
  <ele>67.355</ele>
 </trkpt>
 <trkpt lat="51.23035404" lon="6.29952502">
  <ele>66.733</ele>
 </trkpt>
 <trkpt lat="51.23019101" lon="6.29924599">
  <ele>67.529</ele>
 </trkpt>
 <trkpt lat="51.23009403" lon="6.29905597">
  <ele>67.269</ele>
 </trkpt>
 <trkpt lat="51.22980896" lon="6.29841803">
  <ele>67.250</ele>
 </trkpt>
 <trkpt lat="51.22965599" lon="6.29807403">
  <ele>67.481</ele>
 </trkpt>
 <trkpt lat="51.22918401" lon="6.29698397">
  <ele>67.005</ele>
 </trkpt>
 <trkpt lat="51.22883004" lon="6.29617302">
  <ele>66.853</ele>
 </trkpt>
 <trkpt lat="51.22873801" lon="6.29598702">
  <ele>66.590</ele>
 </trkpt>
 <trkpt lat="51.22851396" lon="6.29554102">
  <ele>65.793</ele>
 </trkpt>
 <trkpt lat="51.22846199" lon="6.29538797">
  <ele>65.466</ele>
 </trkpt>
 <trkpt lat="51.22828396" lon="6.29536701">
  <ele>64.686</ele>
 </trkpt>
 <trkpt lat="51.22759203" lon="6.29559098">
  <ele>64.275</ele>
 </trkpt>
 <trkpt lat="51.22724502" lon="6.29550196">
  <ele>65.502</ele>
 </trkpt>
 <trkpt lat="51.22714402" lon="6.29528898">
  <ele>65.473</ele>
 </trkpt>
 <trkpt lat="51.22688997" lon="6.29461901">
  <ele>63.758</ele>
 </trkpt>
 <trkpt lat="51.22637004" lon="6.29339299">
  <ele>63.370</ele>
 </trkpt>
 <trkpt lat="51.22609897" lon="6.29283903">
  <ele>63.132</ele>
 </trkpt>
 <trkpt lat="51.22590400" lon="6.29255597">
  <ele>63.698</ele>
 </trkpt>
 <trkpt lat="51.22568398" lon="6.29219203">
  <ele>63.213</ele>
 </trkpt>
 <trkpt lat="51.22524099" lon="6.29172801">
  <ele>64.324</ele>
 </trkpt>
 <trkpt lat="51.22518199" lon="6.29167998">
  <ele>64.256</ele>
 </trkpt>
 <trkpt lat="51.22518802" lon="6.29151100">
  <ele>64.550</ele>
 </trkpt>
 <trkpt lat="51.22521803" lon="6.29114698">
  <ele>64.053</ele>
 </trkpt>
 <trkpt lat="51.22518802" lon="6.29079603">
  <ele>63.126</ele>
 </trkpt>
 <trkpt lat="51.22495299" lon="6.29005096">
  <ele>63.023</ele>
 </trkpt>
 <trkpt lat="51.22474998" lon="6.28941502">
  <ele>63.221</ele>
 </trkpt>
 <trkpt lat="51.22435997" lon="6.28835798">
  <ele>63.504</ele>
 </trkpt>
 <trkpt lat="51.22404900" lon="6.28770696">
  <ele>63.791</ele>
 </trkpt>
 <trkpt lat="51.22390701" lon="6.28751904">
  <ele>64.386</ele>
 </trkpt>
 <trkpt lat="51.22357903" lon="6.28729499">
  <ele>64.398</ele>
 </trkpt>
 <trkpt lat="51.22355799" lon="6.28723598">
  <ele>64.383</ele>
 </trkpt>
 <trkpt lat="51.22335196" lon="6.28680901">
  <ele>64.388</ele>
 </trkpt>
 <trkpt lat="51.22286296" lon="6.28641598">
  <ele>64.091</ele>
 </trkpt>
 <trkpt lat="51.22239400" lon="6.28612597">
  <ele>64.153</ele>
 </trkpt>
 <trkpt lat="51.22226902" lon="6.28605899">
  <ele>64.635</ele>
 </trkpt>
 <trkpt lat="51.22157400" lon="6.28556798">
  <ele>64.913</ele>
 </trkpt>
 <trkpt lat="51.22114099" lon="6.28522399">
  <ele>65.152</ele>
 </trkpt>
 <trkpt lat="51.22050698" lon="6.28462301">
  <ele>64.231</ele>
 </trkpt>
 <trkpt lat="51.21986803" lon="6.28386302">
  <ele>64.572</ele>
 </trkpt>
 <trkpt lat="51.21924399" lon="6.28310697">
  <ele>64.282</ele>
 </trkpt>
 <trkpt lat="51.21879204" lon="6.28241898">
  <ele>63.718</ele>
 </trkpt>
 <trkpt lat="51.21835400" lon="6.28171499">
  <ele>63.564</ele>
 </trkpt>
 <trkpt lat="51.21825904" lon="6.28164500">
  <ele>64.129</ele>
 </trkpt>
 <trkpt lat="51.21820003" lon="6.28153302">
  <ele>64.429</ele>
 </trkpt>
 <trkpt lat="51.21797003" lon="6.28094503">
  <ele>64.509</ele>
 </trkpt>
 <trkpt lat="51.21779300" lon="6.28052300">
  <ele>64.404</ele>
 </trkpt>
 <trkpt lat="51.21771103" lon="6.28032703">
  <ele>64.588</ele>
 </trkpt>
 <trkpt lat="51.21761497" lon="6.27998203">
  <ele>65.125</ele>
 </trkpt>
 <trkpt lat="51.21759804" lon="6.27971096">
  <ele>64.670</ele>
 </trkpt>
 <trkpt lat="51.21717299" lon="6.27837304">
  <ele>65.665</ele>
 </trkpt>
 <trkpt lat="51.21676798" lon="6.27706999">
  <ele>65.568</ele>
 </trkpt>
 <trkpt lat="51.21647101" lon="6.27636298">
  <ele>65.755</ele>
 </trkpt>
 <trkpt lat="51.21610103" lon="6.27548900">
  <ele>66.126</ele>
 </trkpt>
 <trkpt lat="51.21576802" lon="6.27480696">
  <ele>65.231</ele>
 </trkpt>
 <trkpt lat="51.21537399" lon="6.27423598">
  <ele>64.555</ele>
 </trkpt>
 <trkpt lat="51.21482204" lon="6.27332697">
  <ele>62.263</ele>
 </trkpt>
 <trkpt lat="51.21478599" lon="6.27326997">
  <ele>62.625</ele>
 </trkpt>
 <trkpt lat="51.21481399" lon="6.27294903">
  <ele>62.164</ele>
 </trkpt>
 <trkpt lat="51.21479002" lon="6.27285398">
  <ele>62.350</ele>
 </trkpt>
 <trkpt lat="51.21476303" lon="6.27278399">
  <ele>62.326</ele>
 </trkpt>
 <trkpt lat="51.21478599" lon="6.27271299">
  <ele>62.737</ele>
 </trkpt>
 <trkpt lat="51.21481600" lon="6.27258701">
  <ele>61.269</ele>
 </trkpt>
 <trkpt lat="51.21503896" lon="6.27185603">
  <ele>61.552</ele>
 </trkpt>
 <trkpt lat="51.21507400" lon="6.27156601">
  <ele>62.339</ele>
 </trkpt>
 <trkpt lat="51.21505296" lon="6.27142000">
  <ele>62.401</ele>
 </trkpt>
 <trkpt lat="51.21514197" lon="6.27103401">
  <ele>60.687</ele>
 </trkpt>
 <trkpt lat="51.21585804" lon="6.27016196">
  <ele>58.677</ele>
 </trkpt>
 <trkpt lat="51.21580398" lon="6.26994898">
  <ele>58.216</ele>
 </trkpt>
 <trkpt lat="51.21558898" lon="6.26946702">
  <ele>57.126</ele>
 </trkpt>
 <trkpt lat="51.21549603" lon="6.26919804">
  <ele>57.186</ele>
 </trkpt>
 <trkpt lat="51.21541296" lon="6.26900501">
  <ele>56.686</ele>
 </trkpt>
 <trkpt lat="51.21512798" lon="6.26808300">
  <ele>55.753</ele>
 </trkpt>
 <trkpt lat="51.21478801" lon="6.26707197">
  <ele>53.482</ele>
 </trkpt>
 <trkpt lat="51.21472397" lon="6.26691397">
  <ele>53.182</ele>
 </trkpt>
 <trkpt lat="51.21464300" lon="6.26645498">
  <ele>53.277</ele>
 </trkpt>
 <trkpt lat="51.21460796" lon="6.26642296">
  <ele>52.566</ele>
 </trkpt>
 <trkpt lat="51.21440001" lon="6.26612498">
  <ele>49.929</ele>
 </trkpt>
 <trkpt lat="51.21433899" lon="6.26584201">
  <ele>48.962</ele>
 </trkpt>
 <trkpt lat="51.21411603" lon="6.26549701">
  <ele>49.511</ele>
 </trkpt>
 <trkpt lat="51.21403900" lon="6.26525402">
  <ele>50.413</ele>
 </trkpt>
 <trkpt lat="51.21397102" lon="6.26468900">
  <ele>50.681</ele>
 </trkpt>
 <trkpt lat="51.21408300" lon="6.26449001">
  <ele>49.004</ele>
 </trkpt>
 <trkpt lat="51.21434201" lon="6.26420997">
  <ele>50.804</ele>
 </trkpt>
 <trkpt lat="51.21443798" lon="6.26378300">
  <ele>51.806</ele>
 </trkpt>
 <trkpt lat="51.21445902" lon="6.26339802">
  <ele>52.241</ele>
 </trkpt>
 <trkpt lat="51.21442297" lon="6.26313499">
  <ele>51.969</ele>
 </trkpt>
 <trkpt lat="51.21439297" lon="6.26301203">
  <ele>52.233</ele>
 </trkpt>
 <trkpt lat="51.21425500" lon="6.26258003">
  <ele>52.756</ele>
 </trkpt>
 <trkpt lat="51.21435299" lon="6.26222103">
  <ele>52.883</ele>
 </trkpt>
 <trkpt lat="51.21437704" lon="6.26217300">
  <ele>52.600</ele>
 </trkpt>
 <trkpt lat="51.21449799" lon="6.26187502">
  <ele>52.377</ele>
 </trkpt>
 <trkpt lat="51.21455197" lon="6.26166003">
  <ele>52.812</ele>
 </trkpt>
 <trkpt lat="51.21479304" lon="6.26086903">
  <ele>52.100</ele>
 </trkpt>
 <trkpt lat="51.21508699" lon="6.26021197">
  <ele>50.343</ele>
 </trkpt>
 <trkpt lat="51.21528103" lon="6.26015003">
  <ele>50.628</ele>
 </trkpt>
 <trkpt lat="51.21539100" lon="6.25987200">
  <ele>50.183</ele>
 </trkpt>
 <trkpt lat="51.21556903" lon="6.25946003">
  <ele>50.406</ele>
 </trkpt>
 <trkpt lat="51.21563902" lon="6.25929600">
  <ele>50.444</ele>
 </trkpt>
 <trkpt lat="51.21571898" lon="6.25913699">
  <ele>50.460</ele>
 </trkpt>
 <trkpt lat="51.21581898" lon="6.25889702">
  <ele>50.292</ele>
 </trkpt>
 <trkpt lat="51.21608896" lon="6.25823099">
  <ele>49.647</ele>
 </trkpt>
 <trkpt lat="51.21639700" lon="6.25743999">
  <ele>47.895</ele>
 </trkpt>
 <trkpt lat="51.21670998" lon="6.25664203">
  <ele>46.665</ele>
 </trkpt>
 <trkpt lat="51.21681098" lon="6.25643098">
  <ele>47.011</ele>
 </trkpt>
 <trkpt lat="51.21707702" lon="6.25575699">
  <ele>46.134</ele>
 </trkpt>
 <trkpt lat="51.21736997" lon="6.25504402">
  <ele>46.557</ele>
 </trkpt>
 <trkpt lat="51.21775202" lon="6.25419603">
  <ele>47.526</ele>
 </trkpt>
 <trkpt lat="51.21804002" lon="6.25356001">
  <ele>46.119</ele>
 </trkpt>
 <trkpt lat="51.21813599" lon="6.25337804">
  <ele>46.704</ele>
 </trkpt>
 <trkpt lat="51.21825501" lon="6.25312801">
  <ele>46.983</ele>
 </trkpt>
 <trkpt lat="51.21860697" lon="6.25241102">
  <ele>46.912</ele>
 </trkpt>
 <trkpt lat="51.21896303" lon="6.25158397">
  <ele>46.916</ele>
 </trkpt>
 <trkpt lat="51.21911902" lon="6.25124602">
  <ele>47.463</ele>
 </trkpt>
 <trkpt lat="51.21936997" lon="6.25071896">
  <ele>46.889</ele>
 </trkpt>
 <trkpt lat="51.21959302" lon="6.25035703">
  <ele>47.271</ele>
 </trkpt>
 <trkpt lat="51.21978002" lon="6.25007104">
  <ele>46.222</ele>
 </trkpt>
 <trkpt lat="51.22004103" lon="6.24966997">
  <ele>46.127</ele>
 </trkpt>
 <trkpt lat="51.22056699" lon="6.24919396">
  <ele>45.532</ele>
 </trkpt>
 <trkpt lat="51.22071804" lon="6.24910000">
  <ele>45.438</ele>
 </trkpt>
 <trkpt lat="51.22142304" lon="6.24874402">
  <ele>45.243</ele>
 </trkpt>
 <trkpt lat="51.22207196" lon="6.24866900">
  <ele>45.191</ele>
 </trkpt>
 <trkpt lat="51.22269901" lon="6.24869901">
  <ele>45.541</ele>
 </trkpt>
 <trkpt lat="51.22329497" lon="6.24874502">
  <ele>45.287</ele>
 </trkpt>
 <trkpt lat="51.22406602" lon="6.24879800">
  <ele>44.969</ele>
 </trkpt>
 <trkpt lat="51.22477404" lon="6.24886396">
  <ele>45.647</ele>
 </trkpt>
 <trkpt lat="51.22572597" lon="6.24893102">
  <ele>45.173</ele>
 </trkpt>
 <trkpt lat="51.22591197" lon="6.24891602">
  <ele>45.348</ele>
 </trkpt>
 <trkpt lat="51.22658897" lon="6.24865802">
  <ele>44.320</ele>
 </trkpt>
 <trkpt lat="51.22713304" lon="6.24824496">
  <ele>42.830</ele>
 </trkpt>
 <trkpt lat="51.22761098" lon="6.24765404">
  <ele>42.338</ele>
 </trkpt>
 <trkpt lat="51.22807601" lon="6.24689598">
  <ele>42.578</ele>
 </trkpt>
 <trkpt lat="51.22838597" lon="6.24644704">
  <ele>42.419</ele>
 </trkpt>
 <trkpt lat="51.22880104" lon="6.24582301">
  <ele>42.013</ele>
 </trkpt>
 <trkpt lat="51.22919298" lon="6.24532202">
  <ele>42.105</ele>
 </trkpt>
 <trkpt lat="51.22935802" lon="6.24515397">
  <ele>41.618</ele>
 </trkpt>
 <trkpt lat="51.22969103" lon="6.24484702">
  <ele>42.645</ele>
 </trkpt>
 <trkpt lat="51.23024097" lon="6.24440999">
  <ele>42.236</ele>
 </trkpt>
 <trkpt lat="51.23102903" lon="6.24388603">
  <ele>41.853</ele>
 </trkpt>
 <trkpt lat="51.23179497" lon="6.24332998">
  <ele>40.964</ele>
 </trkpt>
 <trkpt lat="51.23251297" lon="6.24284500">
  <ele>41.393</ele>
 </trkpt>
 <trkpt lat="51.23301596" lon="6.24248902">
  <ele>41.858</ele>
 </trkpt>
 <trkpt lat="51.23324001" lon="6.24229196">
  <ele>41.297</ele>
 </trkpt>
 <trkpt lat="51.23316600" lon="6.24203296">
  <ele>41.885</ele>
 </trkpt>
 <trkpt lat="51.23323599" lon="6.24187103">
  <ele>42.075</ele>
 </trkpt>
 <trkpt lat="51.23385399" lon="6.24128496">
  <ele>41.611</ele>
 </trkpt>
 <trkpt lat="51.23443100" lon="6.24050997">
  <ele>42.526</ele>
 </trkpt>
 <trkpt lat="51.23449998" lon="6.24040503">
  <ele>42.156</ele>
 </trkpt>
 <trkpt lat="51.23469704" lon="6.24025701">
  <ele>42.170</ele>
 </trkpt>
 <trkpt lat="51.23492201" lon="6.24004402">
  <ele>42.329</ele>
 </trkpt>
 <trkpt lat="51.23502301" lon="6.23992299">
  <ele>41.754</ele>
 </trkpt>
 <trkpt lat="51.23515201" lon="6.23960800">
  <ele>41.033</ele>
 </trkpt>
 <trkpt lat="51.23543900" lon="6.23908698">
  <ele>41.676</ele>
 </trkpt>
 <trkpt lat="51.23574100" lon="6.23854701">
  <ele>40.758</ele>
 </trkpt>
 <trkpt lat="51.23608198" lon="6.23797202">
  <ele>40.211</ele>
 </trkpt>
 <trkpt lat="51.23631198" lon="6.23762400">
  <ele>39.623</ele>
 </trkpt>
 <trkpt lat="51.23644601" lon="6.23782198">
  <ele>39.107</ele>
 </trkpt>
 <trkpt lat="51.23695898" lon="6.23875799">
  <ele>39.201</ele>
 </trkpt>
 <trkpt lat="51.23731999" lon="6.23930298">
  <ele>39.603</ele>
 </trkpt>
 <trkpt lat="51.23766096" lon="6.23970799">
  <ele>40.445</ele>
 </trkpt>
 <trkpt lat="51.23781703" lon="6.23979701">
  <ele>40.499</ele>
 </trkpt>
 <trkpt lat="51.23792700" lon="6.23946299">
  <ele>40.897</ele>
 </trkpt>
 <trkpt lat="51.23807000" lon="6.23846102">
  <ele>40.511</ele>
 </trkpt>
 <trkpt lat="51.23827502" lon="6.23734497">
  <ele>39.955</ele>
 </trkpt>
 <trkpt lat="51.23838801" lon="6.23631198">
  <ele>39.225</ele>
 </trkpt>
 <trkpt lat="51.23859596" lon="6.23548804">
  <ele>38.833</ele>
 </trkpt>
 <trkpt lat="51.23866302" lon="6.23532300">
  <ele>39.315</ele>
 </trkpt>
 <trkpt lat="51.23877400" lon="6.23513399">
  <ele>38.508</ele>
 </trkpt>
 <trkpt lat="51.23894901" lon="6.23494799">
  <ele>38.340</ele>
 </trkpt>
 <trkpt lat="51.23928504" lon="6.23464901">
  <ele>38.842</ele>
 </trkpt>
 <trkpt lat="51.23973196" lon="6.23444701">
  <ele>38.834</ele>
 </trkpt>
 <trkpt lat="51.24006699" lon="6.23454600">
  <ele>39.787</ele>
 </trkpt>
 <trkpt lat="51.24016497" lon="6.23462898">
  <ele>39.942</ele>
 </trkpt>
 <trkpt lat="51.24045499" lon="6.23514597">
  <ele>41.718</ele>
 </trkpt>
 <trkpt lat="51.24074098" lon="6.23551100">
  <ele>41.865</ele>
 </trkpt>
 <trkpt lat="51.24105597" lon="6.23531202">
  <ele>42.757</ele>
 </trkpt>
 <trkpt lat="51.24135604" lon="6.23511404">
  <ele>42.709</ele>
 </trkpt>
 <trkpt lat="51.24165100" lon="6.23490298">
  <ele>42.879</ele>
 </trkpt>
 <trkpt lat="51.24188402" lon="6.23479301">
  <ele>44.528</ele>
 </trkpt>
 <trkpt lat="51.24198502" lon="6.23511999">
  <ele>44.892</ele>
 </trkpt>
 <trkpt lat="51.24210396" lon="6.23547999">
  <ele>44.925</ele>
 </trkpt>
 <trkpt lat="51.24229599" lon="6.23603102">
  <ele>45.646</ele>
 </trkpt>
 <trkpt lat="51.24253697" lon="6.23651700">
  <ele>45.625</ele>
 </trkpt>
 <trkpt lat="51.24273302" lon="6.23691497">
  <ele>45.900</ele>
 </trkpt>
 <trkpt lat="51.24292103" lon="6.23747799">
  <ele>45.943</ele>
 </trkpt>
 <trkpt lat="51.24311700" lon="6.23797202">
  <ele>45.974</ele>
 </trkpt>
 <trkpt lat="51.24326703" lon="6.23844601">
  <ele>45.668</ele>
 </trkpt>
 <trkpt lat="51.24328203" lon="6.23850401">
  <ele>45.833</ele>
 </trkpt>
 <trkpt lat="51.24348102" lon="6.23848096">
  <ele>46.306</ele>
 </trkpt>
 <trkpt lat="51.24354003" lon="6.23842003">
  <ele>46.503</ele>
 </trkpt>
 <trkpt lat="51.24387396" lon="6.23803698">
  <ele>47.753</ele>
 </trkpt>
 <trkpt lat="51.24408100" lon="6.23769701">
  <ele>48.008</ele>
 </trkpt>
 <trkpt lat="51.24432298" lon="6.23722603">
  <ele>49.280</ele>
 </trkpt>
 <trkpt lat="51.24453999" lon="6.23676402">
  <ele>49.281</ele>
 </trkpt>
 <trkpt lat="51.24483000" lon="6.23630402">
  <ele>49.451</ele>
 </trkpt>
 <trkpt lat="51.24512899" lon="6.23582197">
  <ele>49.874</ele>
 </trkpt>
 <trkpt lat="51.24538698" lon="6.23541302">
  <ele>50.010</ele>
 </trkpt>
 <trkpt lat="51.24560198" lon="6.23478698">
  <ele>49.943</ele>
 </trkpt>
 <trkpt lat="51.24579602" lon="6.23434399">
  <ele>49.939</ele>
 </trkpt>
 <trkpt lat="51.24586299" lon="6.23409497">
  <ele>50.719</ele>
 </trkpt>
 <trkpt lat="51.24597397" lon="6.23389003">
  <ele>50.407</ele>
 </trkpt>
 <trkpt lat="51.24614596" lon="6.23338100">
  <ele>49.788</ele>
 </trkpt>
 <trkpt lat="51.24623196" lon="6.23300096">
  <ele>50.308</ele>
 </trkpt>
 <trkpt lat="51.24627002" lon="6.23272704">
  <ele>50.371</ele>
 </trkpt>
 <trkpt lat="51.24628896" lon="6.23256401">
  <ele>50.943</ele>
 </trkpt>
 <trkpt lat="51.24634998" lon="6.23208096">
  <ele>50.208</ele>
 </trkpt>
 <trkpt lat="51.24636398" lon="6.23189203">
  <ele>50.419</ele>
 </trkpt>
 <trkpt lat="51.24638703" lon="6.23150596">
  <ele>50.403</ele>
 </trkpt>
 <trkpt lat="51.24639499" lon="6.23130798">
  <ele>50.048</ele>
 </trkpt>
 <trkpt lat="51.24646104" lon="6.23078504">
  <ele>49.778</ele>
 </trkpt>
 <trkpt lat="51.24649901" lon="6.23036996">
  <ele>48.730</ele>
 </trkpt>
 <trkpt lat="51.24650798" lon="6.23021004">
  <ele>48.829</ele>
 </trkpt>
 <trkpt lat="51.24652399" lon="6.23005103">
  <ele>48.095</ele>
 </trkpt>
 <trkpt lat="51.24661401" lon="6.22920404">
  <ele>47.186</ele>
 </trkpt>
 <trkpt lat="51.24662197" lon="6.22911100">
  <ele>46.590</ele>
 </trkpt>
 <trkpt lat="51.24668500" lon="6.22841204">
  <ele>46.544</ele>
 </trkpt>
 <trkpt lat="51.24676002" lon="6.22755004">
  <ele>45.218</ele>
 </trkpt>
 <trkpt lat="51.24685097" lon="6.22666298">
  <ele>44.449</ele>
 </trkpt>
 <trkpt lat="51.24686304" lon="6.22618396">
  <ele>43.891</ele>
 </trkpt>
 <trkpt lat="51.24688600" lon="6.22591096">
  <ele>43.424</ele>
 </trkpt>
 <trkpt lat="51.24694803" lon="6.22556403">
  <ele>42.627</ele>
 </trkpt>
 <trkpt lat="51.24709404" lon="6.22435100">
  <ele>43.011</ele>
 </trkpt>
 <trkpt lat="51.24730803" lon="6.22348004">
  <ele>43.964</ele>
 </trkpt>
 <trkpt lat="51.24716403" lon="6.22343201">
  <ele>43.975</ele>
 </trkpt>
 <trkpt lat="51.24708096" lon="6.22317201">
  <ele>43.432</ele>
 </trkpt>
 <trkpt lat="51.24707904" lon="6.22274897">
  <ele>42.167</ele>
 </trkpt>
 <trkpt lat="51.24708096" lon="6.22252903">
  <ele>41.688</ele>
 </trkpt>
 <trkpt lat="51.24709496" lon="6.22224497">
  <ele>41.707</ele>
 </trkpt>
 <trkpt lat="51.24712799" lon="6.22176301">
  <ele>41.392</ele>
 </trkpt>
 <trkpt lat="51.24712296" lon="6.22126797">
  <ele>42.605</ele>
 </trkpt>
 <trkpt lat="51.24704601" lon="6.22056196">
  <ele>42.707</ele>
 </trkpt>
 <trkpt lat="51.24683303" lon="6.21973098">
  <ele>43.528</ele>
 </trkpt>
 <trkpt lat="51.24654402" lon="6.21899497">
  <ele>44.237</ele>
 </trkpt>
 <trkpt lat="51.24617999" lon="6.21808100">
  <ele>44.175</ele>
 </trkpt>
 <trkpt lat="51.24579602" lon="6.21712203">
  <ele>44.999</ele>
 </trkpt>
 <trkpt lat="51.24539000" lon="6.21614998">
  <ele>46.212</ele>
 </trkpt>
 <trkpt lat="51.24533501" lon="6.21603699">
  <ele>46.261</ele>
 </trkpt>
 <trkpt lat="51.24493101" lon="6.21505899">
  <ele>45.197</ele>
 </trkpt>
 <trkpt lat="51.24456204" lon="6.21414503">
  <ele>44.703</ele>
 </trkpt>
 <trkpt lat="51.24434503" lon="6.21347498">
  <ele>43.546</ele>
 </trkpt>
 <trkpt lat="51.24429599" lon="6.21332402">
  <ele>44.441</ele>
 </trkpt>
 <trkpt lat="51.24429599" lon="6.21332402">
  <ele>44.441</ele>
 </trkpt>
 <trkpt lat="51.24406298" lon="6.21335998">
  <ele>42.966</ele>
 </trkpt>
 <trkpt lat="51.24401503" lon="6.21336401">
  <ele>42.559</ele>
 </trkpt>
 <trkpt lat="51.24386298" lon="6.21334104">
  <ele>42.544</ele>
 </trkpt>
 <trkpt lat="51.24357297" lon="6.21318304">
  <ele>42.244</ele>
 </trkpt>
 <trkpt lat="51.24340600" lon="6.21299302">
  <ele>41.590</ele>
 </trkpt>
 <trkpt lat="51.24295296" lon="6.21232297">
  <ele>40.593</ele>
 </trkpt>
 <trkpt lat="51.24286302" lon="6.21198602">
  <ele>39.890</ele>
 </trkpt>
 <trkpt lat="51.24283503" lon="6.21156299">
  <ele>40.126</ele>
 </trkpt>
 <trkpt lat="51.24302404" lon="6.21090601">
  <ele>41.482</ele>
 </trkpt>
 <trkpt lat="51.24307198" lon="6.21042296">
  <ele>41.720</ele>
 </trkpt>
 <trkpt lat="51.24310803" lon="6.21016597">
  <ele>41.692</ele>
 </trkpt>
 <trkpt lat="51.24318598" lon="6.20994897">
  <ele>42.245</ele>
 </trkpt>
 <trkpt lat="51.24330299" lon="6.20977596">
  <ele>42.217</ele>
 </trkpt>
 <trkpt lat="51.24329704" lon="6.20968200">
  <ele>42.197</ele>
 </trkpt>
 <trkpt lat="51.24318598" lon="6.20963599">
  <ele>41.934</ele>
 </trkpt>
 <trkpt lat="51.24302999" lon="6.20961000">
  <ele>40.673</ele>
 </trkpt>
 <trkpt lat="51.24250403" lon="6.20944999">
  <ele>38.499</ele>
 </trkpt>
 <trkpt lat="51.24224897" lon="6.20934597">
  <ele>38.077</ele>
 </trkpt>
 <trkpt lat="51.24226296" lon="6.20888798">
  <ele>38.209</ele>
 </trkpt>
 <trkpt lat="51.24231602" lon="6.20784502">
  <ele>38.061</ele>
 </trkpt>
 <trkpt lat="51.24237402" lon="6.20680500">
  <ele>37.777</ele>
 </trkpt>
 <trkpt lat="51.24238098" lon="6.20643402">
  <ele>37.571</ele>
 </trkpt>
 <trkpt lat="51.24235500" lon="6.20607401">
  <ele>38.113</ele>
 </trkpt>
 <trkpt lat="51.24234402" lon="6.20585298">
  <ele>38.009</ele>
 </trkpt>
 <trkpt lat="51.24234301" lon="6.20562399">
  <ele>37.315</ele>
 </trkpt>
 <trkpt lat="51.24234200" lon="6.20547504">
  <ele>37.404</ele>
 </trkpt>
 <trkpt lat="51.24235399" lon="6.20506902">
  <ele>37.671</ele>
 </trkpt>
 <trkpt lat="51.24234200" lon="6.20439302">
  <ele>37.908</ele>
 </trkpt>
 <trkpt lat="51.24228199" lon="6.20383998">
  <ele>38.124</ele>
 </trkpt>
 <trkpt lat="51.24222097" lon="6.20344897">
  <ele>39.276</ele>
 </trkpt>
 <trkpt lat="51.24204101" lon="6.20271597">
  <ele>38.914</ele>
 </trkpt>
 <trkpt lat="51.24196398" lon="6.20233200">
  <ele>39.406</ele>
 </trkpt>
 <trkpt lat="51.24185200" lon="6.20188499">
  <ele>38.605</ele>
 </trkpt>
 <trkpt lat="51.24173096" lon="6.20105099">
  <ele>38.281</ele>
 </trkpt>
 <trkpt lat="51.24168503" lon="6.20076399">
  <ele>38.653</ele>
 </trkpt>
 <trkpt lat="51.24163399" lon="6.19985699">
  <ele>38.103</ele>
 </trkpt>
 <trkpt lat="51.24162300" lon="6.19970703">
  <ele>38.221</ele>
 </trkpt>
 <trkpt lat="51.24157296" lon="6.19937402">
  <ele>37.751</ele>
 </trkpt>
 <trkpt lat="51.24153499" lon="6.19878603">
  <ele>38.394</ele>
 </trkpt>
 <trkpt lat="51.24147900" lon="6.19796997">
  <ele>37.961</ele>
 </trkpt>
 <trkpt lat="51.24144900" lon="6.19774198">
  <ele>37.604</ele>
 </trkpt>
 <trkpt lat="51.24141698" lon="6.19705098">
  <ele>37.807</ele>
 </trkpt>
 <trkpt lat="51.24150801" lon="6.19655100">
  <ele>37.760</ele>
 </trkpt>
 <trkpt lat="51.24153600" lon="6.19635997">
  <ele>38.177</ele>
 </trkpt>
 <trkpt lat="51.24158604" lon="6.19603802">
  <ele>37.878</ele>
 </trkpt>
 <trkpt lat="51.24166097" lon="6.19561298">
  <ele>37.649</ele>
 </trkpt>
 <trkpt lat="51.24179400" lon="6.19501300">
  <ele>37.772</ele>
 </trkpt>
 <trkpt lat="51.24186298" lon="6.19471100">
  <ele>37.637</ele>
 </trkpt>
 <trkpt lat="51.24203204" lon="6.19412502">
  <ele>38.488</ele>
 </trkpt>
 <trkpt lat="51.24203699" lon="6.19341700">
  <ele>37.772</ele>
 </trkpt>
 <trkpt lat="51.24209197" lon="6.19209702">
  <ele>36.278</ele>
 </trkpt>
 <trkpt lat="51.24206599" lon="6.19109002">
  <ele>36.532</ele>
 </trkpt>
 <trkpt lat="51.24202299" lon="6.18985302">
  <ele>37.333</ele>
 </trkpt>
 <trkpt lat="51.24186097" lon="6.18877997">
  <ele>36.978</ele>
 </trkpt>
 <trkpt lat="51.24154497" lon="6.18790104">
  <ele>36.925</ele>
 </trkpt>
 <trkpt lat="51.24146299" lon="6.18765696">
  <ele>36.439</ele>
 </trkpt>
 <trkpt lat="51.24140700" lon="6.18738698">
  <ele>37.228</ele>
 </trkpt>
 <trkpt lat="51.24129200" lon="6.18678097">
  <ele>36.960</ele>
 </trkpt>
  </trkseg>
  </trk>

</gpx>
