<?xml version="1.0" encoding="UTF-8" standalone="no"?>
<gpx xmlns="http://www.topografix.com/GPX/1/1" creator="MapSource 6.16.3" version="1.1">

  <trk>
    <name>NW 2.12</name>
    <trkseg>
 <trkpt lat="51.67859098" lon="7.80948004">
  <ele>74.289</ele>
 </trkpt>
 <trkpt lat="51.67894101" lon="7.80955204">
  <ele>73.771</ele>
 </trkpt>
 <trkpt lat="51.67899298" lon="7.80984901">
  <ele>74.120</ele>
 </trkpt>
 <trkpt lat="51.67908199" lon="7.81006099">
  <ele>73.550</ele>
 </trkpt>
 <trkpt lat="51.67928601" lon="7.81027196">
  <ele>72.919</ele>
 </trkpt>
 <trkpt lat="51.67935700" lon="7.81039601">
  <ele>72.904</ele>
 </trkpt>
 <trkpt lat="51.67946203" lon="7.81056197">
  <ele>72.332</ele>
 </trkpt>
 <trkpt lat="51.67996000" lon="7.81112096">
  <ele>72.276</ele>
 </trkpt>
 <trkpt lat="51.68028999" lon="7.81148599">
  <ele>71.353</ele>
 </trkpt>
 <trkpt lat="51.68045998" lon="7.81168699">
  <ele>71.276</ele>
 </trkpt>
 <trkpt lat="51.68068796" lon="7.81204297">
  <ele>71.181</ele>
 </trkpt>
 <trkpt lat="51.68077203" lon="7.81224296">
  <ele>71.841</ele>
 </trkpt>
 <trkpt lat="51.68085502" lon="7.81241203">
  <ele>71.855</ele>
 </trkpt>
 <trkpt lat="51.68113296" lon="7.81210299">
  <ele>71.714</ele>
 </trkpt>
 <trkpt lat="51.68159899" lon="7.81156202">
  <ele>71.009</ele>
 </trkpt>
 <trkpt lat="51.68182698" lon="7.81140402">
  <ele>71.496</ele>
 </trkpt>
 <trkpt lat="51.68196101" lon="7.81135398">
  <ele>71.291</ele>
 </trkpt>
 <trkpt lat="51.68225697" lon="7.81165296">
  <ele>71.592</ele>
 </trkpt>
 <trkpt lat="51.68254799" lon="7.81246902">
  <ele>71.882</ele>
 </trkpt>
 <trkpt lat="51.68259602" lon="7.81256299">
  <ele>71.694</ele>
 </trkpt>
 <trkpt lat="51.68274103" lon="7.81248897">
  <ele>71.603</ele>
 </trkpt>
 <trkpt lat="51.68304403" lon="7.81286004">
  <ele>71.032</ele>
 </trkpt>
 <trkpt lat="51.68337797" lon="7.81369203">
  <ele>71.199</ele>
 </trkpt>
 <trkpt lat="51.68375800" lon="7.81461303">
  <ele>69.724</ele>
 </trkpt>
 <trkpt lat="51.68382397" lon="7.81491796">
  <ele>70.287</ele>
 </trkpt>
 <trkpt lat="51.68395297" lon="7.81537402">
  <ele>70.922</ele>
 </trkpt>
 <trkpt lat="51.68425497" lon="7.81625303">
  <ele>71.521</ele>
 </trkpt>
 <trkpt lat="51.68454104" lon="7.81710103">
  <ele>71.182</ele>
 </trkpt>
 <trkpt lat="51.68481303" lon="7.81791299">
  <ele>70.671</ele>
 </trkpt>
 <trkpt lat="51.68520899" lon="7.81918301">
  <ele>70.060</ele>
 </trkpt>
 <trkpt lat="51.68564200" lon="7.82042798">
  <ele>70.998</ele>
 </trkpt>
 <trkpt lat="51.68597502" lon="7.82137102">
  <ele>72.639</ele>
 </trkpt>
 <trkpt lat="51.68631197" lon="7.82241298">
  <ele>72.454</ele>
 </trkpt>
 <trkpt lat="51.68675596" lon="7.82367496">
  <ele>72.147</ele>
 </trkpt>
 <trkpt lat="51.68703902" lon="7.82457903">
  <ele>72.394</ele>
 </trkpt>
 <trkpt lat="51.68752299" lon="7.82601703">
  <ele>72.939</ele>
 </trkpt>
 <trkpt lat="51.68772097" lon="7.82670502">
  <ele>70.230</ele>
 </trkpt>
 <trkpt lat="51.68784100" lon="7.82702101">
  <ele>70.308</ele>
 </trkpt>
 <trkpt lat="51.68832203" lon="7.82790598">
  <ele>71.387</ele>
 </trkpt>
 <trkpt lat="51.68891598" lon="7.82894097">
  <ele>70.311</ele>
 </trkpt>
 <trkpt lat="51.68917799" lon="7.82937599">
  <ele>70.544</ele>
 </trkpt>
 <trkpt lat="51.68958703" lon="7.83003397">
  <ele>71.796</ele>
 </trkpt>
 <trkpt lat="51.69003898" lon="7.83085498">
  <ele>71.453</ele>
 </trkpt>
 <trkpt lat="51.69039597" lon="7.83151003">
  <ele>71.144</ele>
 </trkpt>
 <trkpt lat="51.69061004" lon="7.83190800">
  <ele>71.477</ele>
 </trkpt>
 <trkpt lat="51.69082898" lon="7.83248903">
  <ele>70.793</ele>
 </trkpt>
 <trkpt lat="51.69089000" lon="7.83262499">
  <ele>71.287</ele>
 </trkpt>
 <trkpt lat="51.69103199" lon="7.83309496">
  <ele>71.203</ele>
 </trkpt>
 <trkpt lat="51.69111103" lon="7.83340601">
  <ele>70.591</ele>
 </trkpt>
 <trkpt lat="51.69119501" lon="7.83373400">
  <ele>70.763</ele>
 </trkpt>
 <trkpt lat="51.69133700" lon="7.83419098">
  <ele>70.803</ele>
 </trkpt>
 <trkpt lat="51.69144002" lon="7.83465701">
  <ele>71.060</ele>
 </trkpt>
 <trkpt lat="51.69156197" lon="7.83512900">
  <ele>71.755</ele>
 </trkpt>
 <trkpt lat="51.69163599" lon="7.83541298">
  <ele>71.160</ele>
 </trkpt>
 <trkpt lat="51.69183698" lon="7.83606199">
  <ele>70.931</ele>
 </trkpt>
 <trkpt lat="51.69187403" lon="7.83633197">
  <ele>70.933</ele>
 </trkpt>
 <trkpt lat="51.69191100" lon="7.83656901">
  <ele>71.501</ele>
 </trkpt>
 <trkpt lat="51.69202499" lon="7.83703202">
  <ele>71.139</ele>
 </trkpt>
 <trkpt lat="51.69213597" lon="7.83751700">
  <ele>71.424</ele>
 </trkpt>
 <trkpt lat="51.69234099" lon="7.83837799">
  <ele>70.990</ele>
 </trkpt>
 <trkpt lat="51.69258004" lon="7.83935599">
  <ele>70.541</ele>
 </trkpt>
 <trkpt lat="51.69273896" lon="7.83999201">
  <ele>71.214</ele>
 </trkpt>
 <trkpt lat="51.69276000" lon="7.84005999">
  <ele>71.511</ele>
 </trkpt>
 <trkpt lat="51.69285698" lon="7.84016300">
  <ele>69.806</ele>
 </trkpt>
 <trkpt lat="51.69289797" lon="7.84032502">
  <ele>68.573</ele>
 </trkpt>
 <trkpt lat="51.69306904" lon="7.84147401">
  <ele>70.202</ele>
 </trkpt>
 <trkpt lat="51.69322997" lon="7.84272199">
  <ele>69.653</ele>
 </trkpt>
 <trkpt lat="51.69323701" lon="7.84295199">
  <ele>70.576</ele>
 </trkpt>
 <trkpt lat="51.69330197" lon="7.84347896">
  <ele>69.502</ele>
 </trkpt>
 <trkpt lat="51.69335201" lon="7.84387099">
  <ele>69.727</ele>
 </trkpt>
 <trkpt lat="51.69342200" lon="7.84417701">
  <ele>69.595</ele>
 </trkpt>
 <trkpt lat="51.69349903" lon="7.84482703">
  <ele>70.596</ele>
 </trkpt>
 <trkpt lat="51.69360800" lon="7.84575800">
  <ele>70.400</ele>
 </trkpt>
 <trkpt lat="51.69371101" lon="7.84703599">
  <ele>69.603</ele>
 </trkpt>
 <trkpt lat="51.69377798" lon="7.84799396">
  <ele>70.623</ele>
 </trkpt>
 <trkpt lat="51.69385602" lon="7.84903399">
  <ele>70.170</ele>
 </trkpt>
 <trkpt lat="51.69391201" lon="7.85013403">
  <ele>70.079</ele>
 </trkpt>
 <trkpt lat="51.69393900" lon="7.85059302">
  <ele>70.411</ele>
 </trkpt>
 <trkpt lat="51.69417403" lon="7.85393698">
  <ele>70.692</ele>
 </trkpt>
 <trkpt lat="51.69418501" lon="7.85413102">
  <ele>70.405</ele>
 </trkpt>
 <trkpt lat="51.69423304" lon="7.85489604">
  <ele>70.911</ele>
 </trkpt>
 <trkpt lat="51.69435197" lon="7.85623899">
  <ele>70.152</ele>
 </trkpt>
 <trkpt lat="51.69445097" lon="7.85711196">
  <ele>70.336</ele>
 </trkpt>
 <trkpt lat="51.69462497" lon="7.85841602">
  <ele>70.826</ele>
 </trkpt>
 <trkpt lat="51.69477099" lon="7.85957297">
  <ele>69.835</ele>
 </trkpt>
 <trkpt lat="51.69490099" lon="7.86067100">
  <ele>70.680</ele>
 </trkpt>
 <trkpt lat="51.69496997" lon="7.86199400">
  <ele>69.586</ele>
 </trkpt>
 <trkpt lat="51.69493896" lon="7.86315900">
  <ele>70.858</ele>
 </trkpt>
 <trkpt lat="51.69486796" lon="7.86438100">
  <ele>71.594</ele>
 </trkpt>
 <trkpt lat="51.69481801" lon="7.86482499">
  <ele>71.930</ele>
 </trkpt>
 <trkpt lat="51.69478599" lon="7.86503898">
  <ele>72.643</ele>
 </trkpt>
 <trkpt lat="51.69477501" lon="7.86517200">
  <ele>71.618</ele>
 </trkpt>
 <trkpt lat="51.69470997" lon="7.86601396">
  <ele>71.258</ele>
 </trkpt>
 <trkpt lat="51.69462397" lon="7.86705399">
  <ele>71.428</ele>
 </trkpt>
 <trkpt lat="51.69447804" lon="7.86860003">
  <ele>71.138</ele>
 </trkpt>
 <trkpt lat="51.69443898" lon="7.86966202">
  <ele>70.990</ele>
 </trkpt>
 <trkpt lat="51.69442398" lon="7.86995597">
  <ele>70.873</ele>
 </trkpt>
 <trkpt lat="51.69453998" lon="7.87006200">
  <ele>71.151</ele>
 </trkpt>
 <trkpt lat="51.69462900" lon="7.87009201">
  <ele>71.853</ele>
 </trkpt>
 <trkpt lat="51.69468298" lon="7.87021900">
  <ele>72.242</ele>
 </trkpt>
 <trkpt lat="51.69468700" lon="7.87047800">
  <ele>72.943</ele>
 </trkpt>
 <trkpt lat="51.69467602" lon="7.87087002">
  <ele>73.127</ele>
 </trkpt>
 <trkpt lat="51.69463101" lon="7.87166202">
  <ele>72.204</ele>
 </trkpt>
 <trkpt lat="51.69452104" lon="7.87312701">
  <ele>72.357</ele>
 </trkpt>
 <trkpt lat="51.69446404" lon="7.87447801">
  <ele>73.361</ele>
 </trkpt>
 <trkpt lat="51.69439003" lon="7.87608004">
  <ele>73.619</ele>
 </trkpt>
 <trkpt lat="51.69431300" lon="7.87779498">
  <ele>72.493</ele>
 </trkpt>
 <trkpt lat="51.69424896" lon="7.87907800">
  <ele>73.301</ele>
 </trkpt>
 <trkpt lat="51.69419196" lon="7.88036797">
  <ele>73.482</ele>
 </trkpt>
 <trkpt lat="51.69412499" lon="7.88186599">
  <ele>73.377</ele>
 </trkpt>
 <trkpt lat="51.69409398" lon="7.88244400">
  <ele>72.778</ele>
 </trkpt>
 <trkpt lat="51.69408099" lon="7.88264299">
  <ele>72.384</ele>
 </trkpt>
 <trkpt lat="51.69402902" lon="7.88393397">
  <ele>72.570</ele>
 </trkpt>
 <trkpt lat="51.69393598" lon="7.88542704">
  <ele>72.975</ele>
 </trkpt>
 <trkpt lat="51.69384101" lon="7.88693896">
  <ele>73.418</ele>
 </trkpt>
 <trkpt lat="51.69381302" lon="7.88716201">
  <ele>72.910</ele>
 </trkpt>
 <trkpt lat="51.69369902" lon="7.88812098">
  <ele>73.307</ele>
 </trkpt>
 <trkpt lat="51.69350498" lon="7.88958002">
  <ele>73.052</ele>
 </trkpt>
 <trkpt lat="51.69326300" lon="7.89116797">
  <ele>72.683</ele>
 </trkpt>
 <trkpt lat="51.69303400" lon="7.89265702">
  <ele>72.292</ele>
 </trkpt>
 <trkpt lat="51.69282496" lon="7.89404104">
  <ele>72.596</ele>
 </trkpt>
 <trkpt lat="51.69256797" lon="7.89572001">
  <ele>72.707</ele>
 </trkpt>
 <trkpt lat="51.69236303" lon="7.89709297">
  <ele>72.649</ele>
 </trkpt>
 <trkpt lat="51.69216396" lon="7.89838202">
  <ele>72.381</ele>
 </trkpt>
 <trkpt lat="51.69194100" lon="7.89990300">
  <ele>73.009</ele>
 </trkpt>
 <trkpt lat="51.69175501" lon="7.90107002">
  <ele>73.323</ele>
 </trkpt>
 <trkpt lat="51.69162098" lon="7.90189899">
  <ele>73.075</ele>
 </trkpt>
 <trkpt lat="51.69152099" lon="7.90174903">
  <ele>72.826</ele>
 </trkpt>
 <trkpt lat="51.69148997" lon="7.90182497">
  <ele>72.835</ele>
 </trkpt>
 <trkpt lat="51.69153498" lon="7.90211197">
  <ele>73.233</ele>
 </trkpt>
 <trkpt lat="51.69137699" lon="7.90300598">
  <ele>72.580</ele>
 </trkpt>
 <trkpt lat="51.69108203" lon="7.90355802">
  <ele>74.530</ele>
 </trkpt>
 <trkpt lat="51.69108002" lon="7.90394501">
  <ele>75.977</ele>
 </trkpt>
 <trkpt lat="51.69129903" lon="7.90420602">
  <ele>77.410</ele>
 </trkpt>
 <trkpt lat="51.69144496" lon="7.90427903">
  <ele>77.759</ele>
 </trkpt>
 <trkpt lat="51.69180103" lon="7.90441498">
  <ele>77.154</ele>
 </trkpt>
 <trkpt lat="51.69217796" lon="7.90430602">
  <ele>74.525</ele>
 </trkpt>
 <trkpt lat="51.69241902" lon="7.90422999">
  <ele>74.064</ele>
 </trkpt>
 <trkpt lat="51.69237100" lon="7.90415104">
  <ele>73.706</ele>
 </trkpt>
 <trkpt lat="51.69220696" lon="7.90416101">
  <ele>72.198</ele>
 </trkpt>
 <trkpt lat="51.69179499" lon="7.90420803">
  <ele>72.321</ele>
 </trkpt>
 <trkpt lat="51.69170396" lon="7.90417199">
  <ele>71.971</ele>
 </trkpt>
 <trkpt lat="51.69163699" lon="7.90442797">
  <ele>72.224</ele>
 </trkpt>
 <trkpt lat="51.69151797" lon="7.90519701">
  <ele>72.846</ele>
 </trkpt>
 <trkpt lat="51.69137799" lon="7.90606102">
  <ele>72.284</ele>
 </trkpt>
 <trkpt lat="51.69122301" lon="7.90711001">
  <ele>72.981</ele>
 </trkpt>
 <trkpt lat="51.69118504" lon="7.90734303">
  <ele>72.480</ele>
 </trkpt>
 <trkpt lat="51.69117398" lon="7.90758200">
  <ele>71.978</ele>
 </trkpt>
 <trkpt lat="51.69120600" lon="7.90779096">
  <ele>71.906</ele>
 </trkpt>
 <trkpt lat="51.69120398" lon="7.90809204">
  <ele>72.712</ele>
 </trkpt>
 <trkpt lat="51.69116903" lon="7.90833101">
  <ele>71.420</ele>
 </trkpt>
 <trkpt lat="51.69095001" lon="7.90975501">
  <ele>71.745</ele>
 </trkpt>
 <trkpt lat="51.69085102" lon="7.91036597">
  <ele>72.785</ele>
 </trkpt>
 <trkpt lat="51.69069797" lon="7.91095303">
  <ele>72.439</ele>
 </trkpt>
 <trkpt lat="51.69074398" lon="7.91147397">
  <ele>72.603</ele>
 </trkpt>
 <trkpt lat="51.69077299" lon="7.91171101">
  <ele>72.399</ele>
 </trkpt>
 <trkpt lat="51.69080802" lon="7.91192701">
  <ele>72.359</ele>
 </trkpt>
 <trkpt lat="51.69094599" lon="7.91244702">
  <ele>72.439</ele>
 </trkpt>
 <trkpt lat="51.69103400" lon="7.91266504">
  <ele>72.592</ele>
 </trkpt>
 <trkpt lat="51.69112704" lon="7.91288498">
  <ele>72.341</ele>
 </trkpt>
 <trkpt lat="51.69154303" lon="7.91388201">
  <ele>71.854</ele>
 </trkpt>
 <trkpt lat="51.69184101" lon="7.91490996">
  <ele>71.951</ele>
 </trkpt>
 <trkpt lat="51.69203798" lon="7.91596801">
  <ele>71.513</ele>
 </trkpt>
 <trkpt lat="51.69206497" lon="7.91619700">
  <ele>71.543</ele>
 </trkpt>
 <trkpt lat="51.69209003" lon="7.91644603">
  <ele>71.050</ele>
 </trkpt>
 <trkpt lat="51.69216698" lon="7.91727701">
  <ele>71.993</ele>
 </trkpt>
 <trkpt lat="51.69217704" lon="7.91736603">
  <ele>71.362</ele>
 </trkpt>
 <trkpt lat="51.69219799" lon="7.91758496">
  <ele>71.738</ele>
 </trkpt>
 <trkpt lat="51.69220503" lon="7.91773601">
  <ele>71.209</ele>
 </trkpt>
 <trkpt lat="51.69227804" lon="7.91787598">
  <ele>71.938</ele>
 </trkpt>
 <trkpt lat="51.69234803" lon="7.91809400">
  <ele>71.530</ele>
 </trkpt>
 <trkpt lat="51.69239497" lon="7.91826599">
  <ele>71.081</ele>
 </trkpt>
 <trkpt lat="51.69289503" lon="7.91988404">
  <ele>71.301</ele>
 </trkpt>
 <trkpt lat="51.69306803" lon="7.92045602">
  <ele>72.464</ele>
 </trkpt>
 <trkpt lat="51.69326702" lon="7.92152404">
  <ele>72.697</ele>
 </trkpt>
 <trkpt lat="51.69327901" lon="7.92172696">
  <ele>72.503</ele>
 </trkpt>
 <trkpt lat="51.69329502" lon="7.92196501">
  <ele>72.271</ele>
 </trkpt>
 <trkpt lat="51.69328898" lon="7.92274101">
  <ele>72.546</ele>
 </trkpt>
 <trkpt lat="51.69324900" lon="7.92434103">
  <ele>71.714</ele>
 </trkpt>
 <trkpt lat="51.69327398" lon="7.92541701">
  <ele>71.685</ele>
 </trkpt>
 <trkpt lat="51.69341404" lon="7.92598003">
  <ele>71.296</ele>
 </trkpt>
 <trkpt lat="51.69359400" lon="7.92644698">
  <ele>71.691</ele>
 </trkpt>
 <trkpt lat="51.69377597" lon="7.92688804">
  <ele>71.763</ele>
 </trkpt>
 <trkpt lat="51.69389097" lon="7.92717998">
  <ele>71.840</ele>
 </trkpt>
 <trkpt lat="51.69418601" lon="7.92767996">
  <ele>71.590</ele>
 </trkpt>
 <trkpt lat="51.69440696" lon="7.92807902">
  <ele>71.960</ele>
 </trkpt>
 <trkpt lat="51.69454501" lon="7.92830701">
  <ele>71.784</ele>
 </trkpt>
 <trkpt lat="51.69488900" lon="7.92883297">
  <ele>71.298</ele>
 </trkpt>
 <trkpt lat="51.69504298" lon="7.92903297">
  <ele>72.149</ele>
 </trkpt>
 <trkpt lat="51.69522101" lon="7.92918401">
  <ele>72.014</ele>
 </trkpt>
 <trkpt lat="51.69539703" lon="7.92930404">
  <ele>70.685</ele>
 </trkpt>
 <trkpt lat="51.69561898" lon="7.92941703">
  <ele>71.346</ele>
 </trkpt>
 <trkpt lat="51.69614302" lon="7.92950696">
  <ele>71.543</ele>
 </trkpt>
 <trkpt lat="51.69657502" lon="7.92946698">
  <ele>70.994</ele>
 </trkpt>
 <trkpt lat="51.69707702" lon="7.92941904">
  <ele>71.323</ele>
 </trkpt>
 <trkpt lat="51.69718699" lon="7.92941501">
  <ele>71.509</ele>
 </trkpt>
 <trkpt lat="51.69738103" lon="7.92937201">
  <ele>70.977</ele>
 </trkpt>
 <trkpt lat="51.69776400" lon="7.92931200">
  <ele>70.562</ele>
 </trkpt>
 <trkpt lat="51.69806298" lon="7.92929096">
  <ele>71.356</ele>
 </trkpt>
 <trkpt lat="51.69872297" lon="7.92924704">
  <ele>71.437</ele>
 </trkpt>
 <trkpt lat="51.69928397" lon="7.92917001">
  <ele>71.441</ele>
 </trkpt>
 <trkpt lat="51.69958396" lon="7.92917403">
  <ele>70.885</ele>
 </trkpt>
 <trkpt lat="51.69973601" lon="7.92919801">
  <ele>71.245</ele>
 </trkpt>
 <trkpt lat="51.69988596" lon="7.92915702">
  <ele>71.621</ele>
 </trkpt>
 <trkpt lat="51.70004304" lon="7.92917596">
  <ele>70.790</ele>
 </trkpt>
 <trkpt lat="51.70080001" lon="7.92909198">
  <ele>70.198</ele>
 </trkpt>
 <trkpt lat="51.70134902" lon="7.92902802">
  <ele>71.468</ele>
 </trkpt>
 <trkpt lat="51.70149302" lon="7.92903003">
  <ele>70.502</ele>
 </trkpt>
 <trkpt lat="51.70205704" lon="7.92904504">
  <ele>70.348</ele>
 </trkpt>
 <trkpt lat="51.70261301" lon="7.92919700">
  <ele>71.576</ele>
 </trkpt>
 <trkpt lat="51.70275299" lon="7.92924704">
  <ele>71.857</ele>
 </trkpt>
 <trkpt lat="51.70293496" lon="7.92932097">
  <ele>70.799</ele>
 </trkpt>
 <trkpt lat="51.70322397" lon="7.92942197">
  <ele>71.492</ele>
 </trkpt>
 <trkpt lat="51.70367802" lon="7.92960101">
  <ele>71.138</ele>
 </trkpt>
 <trkpt lat="51.70421697" lon="7.92976898">
  <ele>71.253</ele>
 </trkpt>
 <trkpt lat="51.70472399" lon="7.92985104">
  <ele>70.722</ele>
 </trkpt>
 <trkpt lat="51.70536001" lon="7.92992698">
  <ele>71.038</ele>
 </trkpt>
 <trkpt lat="51.70575899" lon="7.92999999">
  <ele>71.023</ele>
 </trkpt>
 <trkpt lat="51.70604800" lon="7.93004600">
  <ele>70.858</ele>
 </trkpt>
 <trkpt lat="51.70656097" lon="7.93013996">
  <ele>71.607</ele>
 </trkpt>
 <trkpt lat="51.70704301" lon="7.93034499">
  <ele>72.518</ele>
 </trkpt>
 <trkpt lat="51.70718702" lon="7.93041497">
  <ele>73.150</ele>
 </trkpt>
 <trkpt lat="51.70742196" lon="7.93054104">
  <ele>74.484</ele>
 </trkpt>
 <trkpt lat="51.70756001" lon="7.93062603">
  <ele>74.904</ele>
 </trkpt>
 <trkpt lat="51.70765598" lon="7.93068403">
  <ele>75.000</ele>
 </trkpt>
 <trkpt lat="51.70799201" lon="7.93090900">
  <ele>74.363</ele>
 </trkpt>
 <trkpt lat="51.70835897" lon="7.93114596">
  <ele>75.170</ele>
 </trkpt>
 <trkpt lat="51.70880103" lon="7.93142499">
  <ele>76.089</ele>
 </trkpt>
 <trkpt lat="51.70919096" lon="7.93167796">
  <ele>77.134</ele>
 </trkpt>
 <trkpt lat="51.70941400" lon="7.93183504">
  <ele>76.828</ele>
 </trkpt>
 <trkpt lat="51.70979999" lon="7.93210099">
  <ele>78.346</ele>
 </trkpt>
 <trkpt lat="51.71024499" lon="7.93239101">
  <ele>79.609</ele>
 </trkpt>
 <trkpt lat="51.71050298" lon="7.93256401">
  <ele>80.347</ele>
 </trkpt>
 <trkpt lat="51.71071202" lon="7.93268303">
  <ele>81.422</ele>
 </trkpt>
 <trkpt lat="51.71126104" lon="7.93304396">
  <ele>81.696</ele>
 </trkpt>
 <trkpt lat="51.71188097" lon="7.93344897">
  <ele>82.515</ele>
 </trkpt>
 <trkpt lat="51.71199404" lon="7.93351997">
  <ele>82.383</ele>
 </trkpt>
 <trkpt lat="51.71260198" lon="7.93369498">
  <ele>83.428</ele>
 </trkpt>
 <trkpt lat="51.71322802" lon="7.93371904">
  <ele>84.603</ele>
 </trkpt>
 <trkpt lat="51.71377997" lon="7.93374703">
  <ele>86.030</ele>
 </trkpt>
 <trkpt lat="51.71437701" lon="7.93377000">
  <ele>86.673</ele>
 </trkpt>
 <trkpt lat="51.71498897" lon="7.93380797">
  <ele>87.306</ele>
 </trkpt>
 <trkpt lat="51.71535904" lon="7.93390604">
  <ele>88.794</ele>
 </trkpt>
 <trkpt lat="51.71567101" lon="7.93405297">
  <ele>88.981</ele>
 </trkpt>
 <trkpt lat="51.71582700" lon="7.93414903">
  <ele>90.441</ele>
 </trkpt>
 <trkpt lat="51.71619002" lon="7.93446897">
  <ele>90.623</ele>
 </trkpt>
 <trkpt lat="51.71659302" lon="7.93495998">
  <ele>91.064</ele>
 </trkpt>
 <trkpt lat="51.71686501" lon="7.93534697">
  <ele>91.625</ele>
 </trkpt>
 <trkpt lat="51.71710901" lon="7.93577503">
  <ele>91.906</ele>
 </trkpt>
 <trkpt lat="51.71736298" lon="7.93617996">
  <ele>92.628</ele>
 </trkpt>
 <trkpt lat="51.71752199" lon="7.93642103">
  <ele>93.190</ele>
 </trkpt>
 <trkpt lat="51.71776297" lon="7.93672898">
  <ele>94.000</ele>
 </trkpt>
 <trkpt lat="51.71802700" lon="7.93704799">
  <ele>94.747</ele>
 </trkpt>
 <trkpt lat="51.71836697" lon="7.93732703">
  <ele>95.197</ele>
 </trkpt>
 <trkpt lat="51.71926802" lon="7.93760899">
  <ele>96.267</ele>
 </trkpt>
 <trkpt lat="51.71962702" lon="7.93768200">
  <ele>97.174</ele>
 </trkpt>
 <trkpt lat="51.72026798" lon="7.93782198">
  <ele>97.616</ele>
 </trkpt>
 <trkpt lat="51.72085396" lon="7.93796103">
  <ele>97.471</ele>
 </trkpt>
 <trkpt lat="51.72148797" lon="7.93812004">
  <ele>98.411</ele>
 </trkpt>
 <trkpt lat="51.72228500" lon="7.93831701">
  <ele>98.817</ele>
 </trkpt>
 <trkpt lat="51.72295799" lon="7.93849404">
  <ele>99.452</ele>
 </trkpt>
 <trkpt lat="51.72309796" lon="7.93852204">
  <ele>99.788</ele>
 </trkpt>
 <trkpt lat="51.72363197" lon="7.93865799">
  <ele>100.292</ele>
 </trkpt>
 <trkpt lat="51.72394202" lon="7.93871004">
  <ele>100.543</ele>
 </trkpt>
 <trkpt lat="51.72412500" lon="7.93869797">
  <ele>100.168</ele>
 </trkpt>
 <trkpt lat="51.72447301" lon="7.93864399">
  <ele>100.500</ele>
 </trkpt>
 <trkpt lat="51.72490401" lon="7.93847401">
  <ele>100.650</ele>
 </trkpt>
 <trkpt lat="51.72534599" lon="7.93830402">
  <ele>100.896</ele>
 </trkpt>
 <trkpt lat="51.72569803" lon="7.93815902">
  <ele>101.279</ele>
 </trkpt>
 <trkpt lat="51.72594898" lon="7.93804502">
  <ele>101.617</ele>
 </trkpt>
 <trkpt lat="51.72677603" lon="7.93770798">
  <ele>99.269</ele>
 </trkpt>
 <trkpt lat="51.72744800" lon="7.93745502">
  <ele>98.251</ele>
 </trkpt>
 <trkpt lat="51.72749704" lon="7.93744002">
  <ele>98.329</ele>
 </trkpt>
 <trkpt lat="51.72765001" lon="7.93738302">
  <ele>97.893</ele>
 </trkpt>
 <trkpt lat="51.72830899" lon="7.93712402">
  <ele>96.117</ele>
 </trkpt>
 <trkpt lat="51.72864402" lon="7.93699804">
  <ele>96.465</ele>
 </trkpt>
 <trkpt lat="51.72878701" lon="7.93694196">
  <ele>96.019</ele>
 </trkpt>
 <trkpt lat="51.72931298" lon="7.93673501">
  <ele>94.872</ele>
 </trkpt>
 <trkpt lat="51.73022602" lon="7.93637300">
  <ele>91.860</ele>
 </trkpt>
 <trkpt lat="51.73139999" lon="7.93591099">
  <ele>90.529</ele>
 </trkpt>
 <trkpt lat="51.73209300" lon="7.93554503">
  <ele>83.731</ele>
 </trkpt>
 <trkpt lat="51.73233096" lon="7.93544797">
  <ele>83.539</ele>
 </trkpt>
 <trkpt lat="51.73284796" lon="7.93523599">
  <ele>82.645</ele>
 </trkpt>
 <trkpt lat="51.73297604" lon="7.93518403">
  <ele>83.233</ele>
 </trkpt>
 <trkpt lat="51.73325398" lon="7.93507900">
  <ele>82.839</ele>
 </trkpt>
 <trkpt lat="51.73395102" lon="7.93479603">
  <ele>82.512</ele>
 </trkpt>
 <trkpt lat="51.73465502" lon="7.93453300">
  <ele>81.015</ele>
 </trkpt>
 <trkpt lat="51.73523999" lon="7.93430200">
  <ele>80.905</ele>
 </trkpt>
 <trkpt lat="51.73537603" lon="7.93425196">
  <ele>81.464</ele>
 </trkpt>
 <trkpt lat="51.73561097" lon="7.93416202">
  <ele>80.548</ele>
 </trkpt>
 <trkpt lat="51.73643097" lon="7.93383999">
  <ele>80.573</ele>
 </trkpt>
 <trkpt lat="51.73699901" lon="7.93361996">
  <ele>79.783</ele>
 </trkpt>
 <trkpt lat="51.73760000" lon="7.93338996">
  <ele>79.133</ele>
 </trkpt>
 <trkpt lat="51.73806896" lon="7.93319701">
  <ele>79.243</ele>
 </trkpt>
 <trkpt lat="51.73818204" lon="7.93315896">
  <ele>78.816</ele>
 </trkpt>
 <trkpt lat="51.73863399" lon="7.93289199">
  <ele>79.089</ele>
 </trkpt>
 <trkpt lat="51.73925098" lon="7.93242202">
  <ele>77.615</ele>
 </trkpt>
 <trkpt lat="51.73939004" lon="7.93228699">
  <ele>77.431</ele>
 </trkpt>
 <trkpt lat="51.73949003" lon="7.93219504">
  <ele>76.707</ele>
 </trkpt>
 <trkpt lat="51.73989303" lon="7.93172498">
  <ele>76.861</ele>
 </trkpt>
 <trkpt lat="51.74000099" lon="7.93156799">
  <ele>76.687</ele>
 </trkpt>
 <trkpt lat="51.74007400" lon="7.93146498">
  <ele>76.801</ele>
 </trkpt>
 <trkpt lat="51.74046703" lon="7.93083499">
  <ele>77.640</ele>
 </trkpt>
 <trkpt lat="51.74055504" lon="7.93065403">
  <ele>77.910</ele>
 </trkpt>
 <trkpt lat="51.74087598" lon="7.92986202">
  <ele>76.684</ele>
 </trkpt>
 <trkpt lat="51.74104898" lon="7.92932197">
  <ele>76.586</ele>
 </trkpt>
 <trkpt lat="51.74108896" lon="7.92919700">
  <ele>76.629</ele>
 </trkpt>
 <trkpt lat="51.74128301" lon="7.92836904">
  <ele>76.347</ele>
 </trkpt>
 <trkpt lat="51.74135903" lon="7.92798799">
  <ele>77.034</ele>
 </trkpt>
 <trkpt lat="51.74137998" lon="7.92787702">
  <ele>76.746</ele>
 </trkpt>
 <trkpt lat="51.74145903" lon="7.92722600">
  <ele>76.506</ele>
 </trkpt>
 <trkpt lat="51.74152499" lon="7.92669299">
  <ele>77.155</ele>
 </trkpt>
 <trkpt lat="51.74165499" lon="7.92577702">
  <ele>77.237</ele>
 </trkpt>
 <trkpt lat="51.74168400" lon="7.92553302">
  <ele>77.833</ele>
 </trkpt>
 <trkpt lat="51.74173303" lon="7.92517704">
  <ele>77.570</ele>
 </trkpt>
 <trkpt lat="51.74193101" lon="7.92370501">
  <ele>77.022</ele>
 </trkpt>
 <trkpt lat="51.74206504" lon="7.92274402">
  <ele>77.251</ele>
 </trkpt>
 <trkpt lat="51.74209404" lon="7.92250003">
  <ele>77.523</ele>
 </trkpt>
 <trkpt lat="51.74213000" lon="7.92224497">
  <ele>78.288</ele>
 </trkpt>
 <trkpt lat="51.74226897" lon="7.92124098">
  <ele>78.434</ele>
 </trkpt>
 <trkpt lat="51.74239201" lon="7.92031000">
  <ele>78.634</ele>
 </trkpt>
 <trkpt lat="51.74242102" lon="7.92007397">
  <ele>78.797</ele>
 </trkpt>
 <trkpt lat="51.74243996" lon="7.91995302">
  <ele>79.030</ele>
 </trkpt>
 <trkpt lat="51.74250199" lon="7.91981002">
  <ele>78.150</ele>
 </trkpt>
 <trkpt lat="51.74259402" lon="7.91982796">
  <ele>78.599</ele>
 </trkpt>
 <trkpt lat="51.74267197" lon="7.91987297">
  <ele>78.345</ele>
 </trkpt>
 <trkpt lat="51.74308503" lon="7.92004597">
  <ele>77.888</ele>
 </trkpt>
 <trkpt lat="51.74353598" lon="7.92018101">
  <ele>77.610</ele>
 </trkpt>
 <trkpt lat="51.74411299" lon="7.91998596">
  <ele>76.257</ele>
 </trkpt>
 <trkpt lat="51.74437601" lon="7.91987699">
  <ele>76.614</ele>
 </trkpt>
 <trkpt lat="51.74443703" lon="7.91983299">
  <ele>75.376</ele>
 </trkpt>
 <trkpt lat="51.74444701" lon="7.91974003">
  <ele>76.253</ele>
 </trkpt>
 <trkpt lat="51.74449403" lon="7.91962696">
  <ele>76.087</ele>
 </trkpt>
 <trkpt lat="51.74455396" lon="7.91932002">
  <ele>76.581</ele>
 </trkpt>
 <trkpt lat="51.74468698" lon="7.91911600">
  <ele>76.630</ele>
 </trkpt>
 <trkpt lat="51.74478304" lon="7.91914601">
  <ele>76.246</ele>
 </trkpt>
 <trkpt lat="51.74522501" lon="7.91930703">
  <ele>76.245</ele>
 </trkpt>
 <trkpt lat="51.74577101" lon="7.91947299">
  <ele>76.054</ele>
 </trkpt>
 <trkpt lat="51.74609003" lon="7.91966300">
  <ele>75.830</ele>
 </trkpt>
 <trkpt lat="51.74648901" lon="7.91985302">
  <ele>75.471</ele>
 </trkpt>
 <trkpt lat="51.74707197" lon="7.91991899">
  <ele>77.840</ele>
 </trkpt>
 <trkpt lat="51.74783003" lon="7.91995000">
  <ele>77.375</ele>
 </trkpt>
 <trkpt lat="51.74831098" lon="7.91995000">
  <ele>77.484</ele>
 </trkpt>
 <trkpt lat="51.74849899" lon="7.91965798">
  <ele>77.006</ele>
 </trkpt>
 <trkpt lat="51.74852698" lon="7.91922396">
  <ele>76.803</ele>
 </trkpt>
 <trkpt lat="51.74849496" lon="7.91880101">
  <ele>75.388</ele>
 </trkpt>
 <trkpt lat="51.74849597" lon="7.91841997">
  <ele>74.536</ele>
 </trkpt>
 <trkpt lat="51.74850100" lon="7.91738698">
  <ele>73.622</ele>
 </trkpt>
 <trkpt lat="51.74858004" lon="7.91720903">
  <ele>73.840</ele>
 </trkpt>
 <trkpt lat="51.74861499" lon="7.91720903">
  <ele>73.250</ele>
 </trkpt>
 <trkpt lat="51.74867199" lon="7.91708197">
  <ele>73.157</ele>
 </trkpt>
 <trkpt lat="51.74867400" lon="7.91644100">
  <ele>73.117</ele>
 </trkpt>
 <trkpt lat="51.74867501" lon="7.91615602">
  <ele>72.881</ele>
 </trkpt>
 <trkpt lat="51.74879897" lon="7.91612903">
  <ele>73.757</ele>
 </trkpt>
 <trkpt lat="51.74926702" lon="7.91613297">
  <ele>75.012</ele>
 </trkpt>
 <trkpt lat="51.74951797" lon="7.91615803">
  <ele>75.311</ele>
 </trkpt>
 <trkpt lat="51.75018400" lon="7.91618602">
  <ele>75.046</ele>
 </trkpt>
 <trkpt lat="51.75115496" lon="7.91620203">
  <ele>74.949</ele>
 </trkpt>
 <trkpt lat="51.75165100" lon="7.91621896">
  <ele>75.585</ele>
 </trkpt>
 <trkpt lat="51.75215098" lon="7.91622500">
  <ele>74.814</ele>
 </trkpt>
 <trkpt lat="51.75237402" lon="7.91623204">
  <ele>75.177</ele>
 </trkpt>
 <trkpt lat="51.75290803" lon="7.91623204">
  <ele>74.830</ele>
 </trkpt>
 <trkpt lat="51.75320501" lon="7.91624201">
  <ele>73.802</ele>
 </trkpt>
 <trkpt lat="51.75353902" lon="7.91622902">
  <ele>73.066</ele>
 </trkpt>
 <trkpt lat="51.75376098" lon="7.91608402">
  <ele>73.570</ele>
 </trkpt>
 <trkpt lat="51.75434704" lon="7.91574103">
  <ele>73.303</ele>
 </trkpt>
 <trkpt lat="51.75440001" lon="7.91573097">
  <ele>73.935</ele>
 </trkpt>
 <trkpt lat="51.75486102" lon="7.91588101">
  <ele>74.701</ele>
 </trkpt>
 <trkpt lat="51.75497501" lon="7.91596801">
  <ele>74.346</ele>
 </trkpt>
 <trkpt lat="51.75508901" lon="7.91593599">
  <ele>74.256</ele>
 </trkpt>
 <trkpt lat="51.75516704" lon="7.91585997">
  <ele>74.832</ele>
 </trkpt>
 <trkpt lat="51.75529000" lon="7.91576299">
  <ele>74.574</ele>
 </trkpt>
 <trkpt lat="51.75533996" lon="7.91568202">
  <ele>74.484</ele>
 </trkpt>
 <trkpt lat="51.75542696" lon="7.91567699">
  <ele>74.689</ele>
 </trkpt>
 <trkpt lat="51.75552101" lon="7.91572401">
  <ele>75.348</ele>
 </trkpt>
 <trkpt lat="51.75568496" lon="7.91582703">
  <ele>75.024</ele>
 </trkpt>
 <trkpt lat="51.75636901" lon="7.91622701">
  <ele>75.536</ele>
 </trkpt>
 <trkpt lat="51.75684602" lon="7.91650303">
  <ele>76.785</ele>
 </trkpt>
 <trkpt lat="51.75702204" lon="7.91661199">
  <ele>77.513</ele>
 </trkpt>
 <trkpt lat="51.75718004" lon="7.91666497">
  <ele>77.031</ele>
 </trkpt>
 <trkpt lat="51.75770600" lon="7.91676303">
  <ele>77.703</ele>
 </trkpt>
 <trkpt lat="51.75803902" lon="7.91677603">
  <ele>77.807</ele>
 </trkpt>
 <trkpt lat="51.75820800" lon="7.91674501">
  <ele>77.531</ele>
 </trkpt>
 <trkpt lat="51.75892800" lon="7.91656204">
  <ele>77.605</ele>
 </trkpt>
 <trkpt lat="51.75953904" lon="7.91636397">
  <ele>78.340</ele>
 </trkpt>
 <trkpt lat="51.75968698" lon="7.91627596">
  <ele>78.454</ele>
 </trkpt>
 <trkpt lat="51.75984800" lon="7.91617697">
  <ele>78.807</ele>
 </trkpt>
 <trkpt lat="51.76046600" lon="7.91584698">
  <ele>78.095</ele>
 </trkpt>
 <trkpt lat="51.76118902" lon="7.91546300">
  <ele>77.952</ele>
 </trkpt>
 <trkpt lat="51.76142396" lon="7.91534699">
  <ele>78.009</ele>
 </trkpt>
 <trkpt lat="51.76156201" lon="7.91526997">
  <ele>77.387</ele>
 </trkpt>
 <trkpt lat="51.76203702" lon="7.91502102">
  <ele>77.414</ele>
 </trkpt>
 <trkpt lat="51.76256399" lon="7.91472397">
  <ele>77.201</ele>
 </trkpt>
 <trkpt lat="51.76281796" lon="7.91459003">
  <ele>77.694</ele>
 </trkpt>
 <trkpt lat="51.76319296" lon="7.91436296">
  <ele>76.975</ele>
 </trkpt>
 <trkpt lat="51.76356504" lon="7.91410002">
  <ele>78.243</ele>
 </trkpt>
 <trkpt lat="51.76368599" lon="7.91401302">
  <ele>77.096</ele>
 </trkpt>
 <trkpt lat="51.76432997" lon="7.91354396">
  <ele>77.528</ele>
 </trkpt>
 <trkpt lat="51.76455502" lon="7.91338203">
  <ele>77.236</ele>
 </trkpt>
 <trkpt lat="51.76467597" lon="7.91329200">
  <ele>77.973</ele>
 </trkpt>
 <trkpt lat="51.76501502" lon="7.91296796">
  <ele>77.983</ele>
 </trkpt>
 <trkpt lat="51.76521200" lon="7.91285598">
  <ele>77.889</ele>
 </trkpt>
 <trkpt lat="51.76538701" lon="7.91275598">
  <ele>77.315</ele>
 </trkpt>
 <trkpt lat="51.76604700" lon="7.91256596">
  <ele>77.593</ele>
 </trkpt>
 <trkpt lat="51.76655998" lon="7.91241903">
  <ele>78.420</ele>
 </trkpt>
 <trkpt lat="51.76671102" lon="7.91237502">
  <ele>77.536</ele>
 </trkpt>
 <trkpt lat="51.76725701" lon="7.91220102">
  <ele>77.554</ele>
 </trkpt>
 <trkpt lat="51.76784802" lon="7.91208501">
  <ele>78.696</ele>
 </trkpt>
 <trkpt lat="51.76798004" lon="7.91209498">
  <ele>78.516</ele>
 </trkpt>
 <trkpt lat="51.76798096" lon="7.91174596">
  <ele>78.607</ele>
 </trkpt>
 <trkpt lat="51.76794701" lon="7.91125302">
  <ele>77.213</ele>
 </trkpt>
 <trkpt lat="51.76794601" lon="7.91107700">
  <ele>76.938</ele>
 </trkpt>
 <trkpt lat="51.76791801" lon="7.91078900">
  <ele>77.729</ele>
 </trkpt>
 <trkpt lat="51.76789697" lon="7.91014703">
  <ele>76.785</ele>
 </trkpt>
 <trkpt lat="51.76798699" lon="7.90974604">
  <ele>76.225</ele>
 </trkpt>
 <trkpt lat="51.76788297" lon="7.90943499">
  <ele>76.740</ele>
 </trkpt>
 <trkpt lat="51.76780301" lon="7.90801199">
  <ele>77.403</ele>
 </trkpt>
 <trkpt lat="51.76772003" lon="7.90673903">
  <ele>77.744</ele>
 </trkpt>
 <trkpt lat="51.76754502" lon="7.90621298">
  <ele>77.665</ele>
 </trkpt>
 <trkpt lat="51.76720798" lon="7.90518796">
  <ele>77.228</ele>
 </trkpt>
 <trkpt lat="51.76676097" lon="7.90384602">
  <ele>77.331</ele>
 </trkpt>
 <trkpt lat="51.76640298" lon="7.90278998">
  <ele>76.782</ele>
 </trkpt>
 <trkpt lat="51.76627499" lon="7.90246996">
  <ele>77.508</ele>
 </trkpt>
 <trkpt lat="51.76631204" lon="7.90191902">
  <ele>76.861</ele>
 </trkpt>
 <trkpt lat="51.76642997" lon="7.90157100">
  <ele>76.982</ele>
 </trkpt>
 <trkpt lat="51.76647197" lon="7.90146003">
  <ele>77.385</ele>
 </trkpt>
 <trkpt lat="51.76633601" lon="7.90140303">
  <ele>77.684</ele>
 </trkpt>
 <trkpt lat="51.76627600" lon="7.90134301">
  <ele>77.510</ele>
 </trkpt>
 <trkpt lat="51.76587098" lon="7.90077598">
  <ele>78.210</ele>
 </trkpt>
 <trkpt lat="51.76533597" lon="7.90004700">
  <ele>77.792</ele>
 </trkpt>
 <trkpt lat="51.76482400" lon="7.89940897">
  <ele>77.751</ele>
 </trkpt>
 <trkpt lat="51.76424104" lon="7.89871202">
  <ele>77.709</ele>
 </trkpt>
 <trkpt lat="51.76351801" lon="7.89785103">
  <ele>78.174</ele>
 </trkpt>
 <trkpt lat="51.76323202" lon="7.89741601">
  <ele>78.043</ele>
 </trkpt>
 <trkpt lat="51.76297001" lon="7.89712298">
  <ele>78.581</ele>
 </trkpt>
 <trkpt lat="51.76294503" lon="7.89701804">
  <ele>78.866</ele>
 </trkpt>
 <trkpt lat="51.76281796" lon="7.89684403">
  <ele>78.931</ele>
 </trkpt>
 <trkpt lat="51.76269801" lon="7.89675300">
  <ele>78.960</ele>
 </trkpt>
 <trkpt lat="51.76220097" lon="7.89616602">
  <ele>78.667</ele>
 </trkpt>
 <trkpt lat="51.76188497" lon="7.89576100">
  <ele>78.154</ele>
 </trkpt>
 <trkpt lat="51.76179101" lon="7.89538901">
  <ele>78.845</ele>
 </trkpt>
 <trkpt lat="51.76179696" lon="7.89522104">
  <ele>78.784</ele>
 </trkpt>
 <trkpt lat="51.76171599" lon="7.89475702">
  <ele>79.009</ele>
 </trkpt>
    </trkseg>
  </trk>

</gpx>
