<?xml version="1.0" encoding="UTF-8" standalone="no"?>
<gpx xmlns="http://www.topografix.com/GPX/1/1" creator="MapSource 6.16.3" version="1.1">

<trk>
  <name>NW 2.11*</name>
<trkseg>
 <trkpt lat="51.67090000" lon="8.34836000">
 </trkpt>
 <trkpt lat="51.67118000" lon="8.34872000">
 </trkpt>
 <trkpt lat="51.67113000" lon="8.34966000">
 </trkpt>
 <trkpt lat="51.67114000" lon="8.35026000">
 </trkpt>
 <trkpt lat="51.67123000" lon="8.35115000">
 </trkpt>
 <trkpt lat="51.67154000" lon="8.35273000">
 </trkpt>
 <trkpt lat="51.67204000" lon="8.35555000">
 </trkpt>
 <trkpt lat="51.67277000" lon="8.35532000">
 </trkpt>
 <trkpt lat="51.67341000" lon="8.35516000">
 </trkpt>
 <trkpt lat="51.67518000" lon="8.35476000">
 </trkpt>
 <trkpt lat="51.67562000" lon="8.35666000">
 </trkpt>
 <trkpt lat="51.67576000" lon="8.35734000">
 </trkpt>
 <trkpt lat="51.67576000" lon="8.35807000">
 </trkpt>
 <trkpt lat="51.67607000" lon="8.35804000">
 </trkpt>
 <trkpt lat="51.67703000" lon="8.35791000">
 </trkpt>
 <trkpt lat="51.67801000" lon="8.35758000">
 </trkpt>
 <trkpt lat="51.67819000" lon="8.35749000">
 </trkpt>
 <trkpt lat="51.67826000" lon="8.35768000">
 </trkpt>
 <trkpt lat="51.67868000" lon="8.35760000">
 </trkpt>
 <trkpt lat="51.67932000" lon="8.35733000">
 </trkpt>
 <trkpt lat="51.68007000" lon="8.35679000">
 </trkpt>
 <trkpt lat="51.68067000" lon="8.35614000">
 </trkpt>
 <trkpt lat="51.68135000" lon="8.35515000">
 </trkpt>
 <trkpt lat="51.68087000" lon="8.35303000">
 </trkpt>
 <trkpt lat="51.68106000" lon="8.35282000">
 </trkpt>
 <trkpt lat="51.68093000" lon="8.35252000">
 </trkpt>
 <trkpt lat="51.68088000" lon="8.35230000">
 </trkpt>
 <trkpt lat="51.68097000" lon="8.35213000">
 </trkpt>
 <trkpt lat="51.68122000" lon="8.35199000">
 </trkpt>
 <trkpt lat="51.68180000" lon="8.35176000">
 </trkpt>
 <trkpt lat="51.68194000" lon="8.35171000">
 </trkpt>
 <trkpt lat="51.68197000" lon="8.35108000">
 </trkpt>
 <trkpt lat="51.68205000" lon="8.35022000">
 </trkpt>
 <trkpt lat="51.68229000" lon="8.34854000">
 </trkpt>
 <trkpt lat="51.68251000" lon="8.34823000">
 </trkpt>
 <trkpt lat="51.68287000" lon="8.34676000">
 </trkpt>
 <trkpt lat="51.68338000" lon="8.34487000">
 </trkpt>
 <trkpt lat="51.68342000" lon="8.34438000">
 </trkpt>
 <trkpt lat="51.68340000" lon="8.34425000">
 </trkpt>
 <trkpt lat="51.68402000" lon="8.34404000">
 </trkpt>
 <trkpt lat="51.68463000" lon="8.34377000">
 </trkpt>
 <trkpt lat="51.68521000" lon="8.34355000">
 </trkpt>
 <trkpt lat="51.68552000" lon="8.34351000">
 </trkpt>
 <trkpt lat="51.68582000" lon="8.34339000">
 </trkpt>
 <trkpt lat="51.68627000" lon="8.34307000">
 </trkpt>
 <trkpt lat="51.68753000" lon="8.34254000">
 </trkpt>
 <trkpt lat="51.68842000" lon="8.34226000">
 </trkpt>
 <trkpt lat="51.69078000" lon="8.34174000">
 </trkpt>
 <trkpt lat="51.69206000" lon="8.34143000">
 </trkpt>
 <trkpt lat="51.69452000" lon="8.34091000">
 </trkpt>
 <trkpt lat="51.69577000" lon="8.34060000">
 </trkpt>
 <trkpt lat="51.69737000" lon="8.34029000">
 </trkpt>
 <trkpt lat="51.70054000" lon="8.33959000">
 </trkpt>
 <trkpt lat="51.70210000" lon="8.33920000">
 </trkpt>
 <trkpt lat="51.70364000" lon="8.33892000">
 </trkpt>
 <trkpt lat="51.70480000" lon="8.33860000">
 </trkpt>
 <trkpt lat="51.70594000" lon="8.33837000">
 </trkpt>
 <trkpt lat="51.70862000" lon="8.33777000">
 </trkpt>
 <trkpt lat="51.71013000" lon="8.33746000">
 </trkpt>
 <trkpt lat="51.71456000" lon="8.33645000">
 </trkpt>
 <trkpt lat="51.71535000" lon="8.33621000">
 </trkpt>
 <trkpt lat="51.71667000" lon="8.33593000">
 </trkpt>
 <trkpt lat="51.71971000" lon="8.33531000">
 </trkpt>
 <trkpt lat="51.72283000" lon="8.33465000">
 </trkpt>
 <trkpt lat="51.72757000" lon="8.33353000">
 </trkpt>
 <trkpt lat="51.72916000" lon="8.33324000">
 </trkpt>
 <trkpt lat="51.73071000" lon="8.33290000">
 </trkpt>
 <trkpt lat="51.73189000" lon="8.33261000">
 </trkpt>
 <trkpt lat="51.73336000" lon="8.33230000">
 </trkpt>
 <trkpt lat="51.73659000" lon="8.33150000">
 </trkpt>
 <trkpt lat="51.73750000" lon="8.33115000">
 </trkpt>
 <trkpt lat="51.73780000" lon="8.33118000">
 </trkpt>
 <trkpt lat="51.73899000" lon="8.33104000">
 </trkpt>
 <trkpt lat="51.74179000" lon="8.33038000">
 </trkpt>
 <trkpt lat="51.74336000" lon="8.33006000">
 </trkpt>
 <trkpt lat="51.74430000" lon="8.32981000">
 </trkpt>
 <trkpt lat="51.74728000" lon="8.32913000">
 </trkpt>
 <trkpt lat="51.74850000" lon="8.32890000">
 </trkpt>
 <trkpt lat="51.74995000" lon="8.32858000">
 </trkpt>
</trkseg>
</trk>

</gpx>
