<?xml version="1.0" encoding="UTF-8" standalone="no"?>
<gpx xmlns="http://www.topografix.com/GPX/1/1" creator="MapSource 6.16.3" version="1.1">

  <trk>
    <name>NW 2.09</name>
    <trkseg>
 <trkpt lat="52.20199500" lon="7.18437000">
  <ele>52.244</ele>
 </trkpt>
 <trkpt lat="52.20198600" lon="7.18452200">
  <ele>53.088</ele>
 </trkpt>
 <trkpt lat="52.20185500" lon="7.18503200">
  <ele>52.770</ele>
 </trkpt>
 <trkpt lat="52.20179500" lon="7.18570600">
  <ele>52.537</ele>
 </trkpt>
 <trkpt lat="52.20173400" lon="7.18639700">
  <ele>52.182</ele>
 </trkpt>
 <trkpt lat="52.20172600" lon="7.18667600">
  <ele>52.573</ele>
 </trkpt>
 <trkpt lat="52.20148900" lon="7.18669400">
  <ele>51.848</ele>
 </trkpt>
 <trkpt lat="52.20115100" lon="7.18664800">
  <ele>50.956</ele>
 </trkpt>
 <trkpt lat="52.20062000" lon="7.18652900">
  <ele>50.523</ele>
 </trkpt>
 <trkpt lat="52.20054200" lon="7.18687600">
  <ele>50.453</ele>
 </trkpt>
 <trkpt lat="52.20058800" lon="7.18765200">
  <ele>51.143</ele>
 </trkpt>
 <trkpt lat="52.20066000" lon="7.18842600">
  <ele>51.807</ele>
 </trkpt>
 <trkpt lat="52.20060600" lon="7.18933900">
  <ele>52.377</ele>
 </trkpt>
 <trkpt lat="52.20051800" lon="7.19008500">
  <ele>52.677</ele>
 </trkpt>
 <trkpt lat="52.20049000" lon="7.19075400">
  <ele>52.472</ele>
 </trkpt>
 <trkpt lat="52.20049600" lon="7.19172700">
  <ele>52.416</ele>
 </trkpt>
 <trkpt lat="52.20056500" lon="7.19272100">
  <ele>52.814</ele>
 </trkpt>
 <trkpt lat="52.20069400" lon="7.19350300">
  <ele>52.501</ele>
 </trkpt>
 <trkpt lat="52.20087200" lon="7.19459500">
  <ele>51.830</ele>
 </trkpt>
 <trkpt lat="52.20101700" lon="7.19551400">
  <ele>50.564</ele>
 </trkpt>
 <trkpt lat="52.20109700" lon="7.19600700">
  <ele>50.776</ele>
 </trkpt>
 <trkpt lat="52.20122300" lon="7.19679400">
  <ele>50.924</ele>
 </trkpt>
 <trkpt lat="52.20132900" lon="7.19756700">
  <ele>50.621</ele>
 </trkpt>
 <trkpt lat="52.20142200" lon="7.19812200">
  <ele>49.368</ele>
 </trkpt>
 <trkpt lat="52.20155300" lon="7.19892100">
  <ele>49.125</ele>
 </trkpt>
 <trkpt lat="52.20173700" lon="7.20009800">
  <ele>48.924</ele>
 </trkpt>
 <trkpt lat="52.20191600" lon="7.20123500">
  <ele>49.028</ele>
 </trkpt>
 <trkpt lat="52.20206100" lon="7.20211800">
  <ele>48.129</ele>
 </trkpt>
 <trkpt lat="52.20223100" lon="7.20316500">
  <ele>48.410</ele>
 </trkpt>
 <trkpt lat="52.20237200" lon="7.20415200">
  <ele>47.739</ele>
 </trkpt>
 <trkpt lat="52.20254800" lon="7.20528200">
  <ele>47.784</ele>
 </trkpt>
 <trkpt lat="52.20262100" lon="7.20592000">
  <ele>48.305</ele>
 </trkpt>
 <trkpt lat="52.20297500" lon="7.20625200">
  <ele>49.261</ele>
 </trkpt>
 <trkpt lat="52.20334800" lon="7.20662400">
  <ele>50.733</ele>
 </trkpt>
 <trkpt lat="52.20358800" lon="7.20689800">
  <ele>50.188</ele>
 </trkpt>
 <trkpt lat="52.20360400" lon="7.20725100">
  <ele>50.395</ele>
 </trkpt>
 <trkpt lat="52.20378400" lon="7.20830000">
  <ele>49.308</ele>
 </trkpt>
 <trkpt lat="52.20389300" lon="7.20883300">
  <ele>47.957</ele>
 </trkpt>
 <trkpt lat="52.20403900" lon="7.20981500">
  <ele>49.187</ele>
 </trkpt>
 <trkpt lat="52.20415100" lon="7.21043500">
  <ele>49.219</ele>
 </trkpt>
 <trkpt lat="52.20453200" lon="7.21088400">
  <ele>48.972</ele>
 </trkpt>
 <trkpt lat="52.20501200" lon="7.21142700">
  <ele>50.001</ele>
 </trkpt>
 <trkpt lat="52.20542900" lon="7.21184100">
  <ele>50.091</ele>
 </trkpt>
 <trkpt lat="52.20549200" lon="7.21198300">
  <ele>50.014</ele>
 </trkpt>
 <trkpt lat="52.20542800" lon="7.21218000">
  <ele>49.945</ele>
 </trkpt>
 <trkpt lat="52.20532100" lon="7.21246300">
  <ele>50.535</ele>
 </trkpt>
 <trkpt lat="52.20527800" lon="7.21263000">
  <ele>49.693</ele>
 </trkpt>
 <trkpt lat="52.20542800" lon="7.21282700">
  <ele>51.340</ele>
 </trkpt>
 <trkpt lat="52.20562100" lon="7.21297700">
  <ele>51.016</ele>
 </trkpt>
 <trkpt lat="52.20598900" lon="7.21337700">
  <ele>51.540</ele>
 </trkpt>
 <trkpt lat="52.20666500" lon="7.21402700">
  <ele>51.418</ele>
 </trkpt>
 <trkpt lat="52.20725100" lon="7.21461900">
  <ele>52.120</ele>
 </trkpt>
 <trkpt lat="52.20792100" lon="7.21529000">
  <ele>51.398</ele>
 </trkpt>
 <trkpt lat="52.20832300" lon="7.21564900">
  <ele>51.920</ele>
 </trkpt>
 <trkpt lat="52.20886500" lon="7.21617700">
  <ele>52.576</ele>
 </trkpt>
 <trkpt lat="52.20941600" lon="7.21671900">
  <ele>53.167</ele>
 </trkpt>
 <trkpt lat="52.20990000" lon="7.21721900">
  <ele>53.660</ele>
 </trkpt>
 <trkpt lat="52.21025600" lon="7.21758200">
  <ele>53.602</ele>
 </trkpt>
 <trkpt lat="52.21071600" lon="7.21804400">
  <ele>53.611</ele>
 </trkpt>
 <trkpt lat="52.21085300" lon="7.21811800">
  <ele>53.768</ele>
 </trkpt>
 <trkpt lat="52.21084500" lon="7.21822400">
  <ele>53.842</ele>
 </trkpt>
 <trkpt lat="52.21062300" lon="7.21873600">
  <ele>53.075</ele>
 </trkpt>
 <trkpt lat="52.21034500" lon="7.21917200">
  <ele>52.887</ele>
 </trkpt>
 <trkpt lat="52.21010600" lon="7.21942300">
  <ele>51.923</ele>
 </trkpt>
 <trkpt lat="52.20986000" lon="7.21965300">
  <ele>51.745</ele>
 </trkpt>
 <trkpt lat="52.20962400" lon="7.21989000">
  <ele>50.589</ele>
 </trkpt>
 <trkpt lat="52.20920100" lon="7.22028300">
  <ele>49.258</ele>
 </trkpt>
 <trkpt lat="52.20879500" lon="7.22071600">
  <ele>48.792</ele>
 </trkpt>
 <trkpt lat="52.20839400" lon="7.22112900">
  <ele>49.078</ele>
 </trkpt>
 <trkpt lat="52.20800900" lon="7.22150100">
  <ele>48.960</ele>
 </trkpt>
 <trkpt lat="52.20773300" lon="7.22176100">
  <ele>48.922</ele>
 </trkpt>
 <trkpt lat="52.20741800" lon="7.22207500">
  <ele>49.766</ele>
 </trkpt>
 <trkpt lat="52.20706300" lon="7.22242400">
  <ele>49.318</ele>
 </trkpt>
 <trkpt lat="52.20676400" lon="7.22271600">
  <ele>48.874</ele>
 </trkpt>
 <trkpt lat="52.20639400" lon="7.22313300">
  <ele>49.682</ele>
 </trkpt>
 <trkpt lat="52.20622400" lon="7.22331400">
  <ele>49.164</ele>
 </trkpt>
 <trkpt lat="52.20623300" lon="7.22367700">
  <ele>49.147</ele>
 </trkpt>
 <trkpt lat="52.20630500" lon="7.22392600">
  <ele>48.853</ele>
 </trkpt>
 <trkpt lat="52.20641600" lon="7.22480700">
  <ele>48.842</ele>
 </trkpt>
 <trkpt lat="52.20646900" lon="7.22571000">
  <ele>48.973</ele>
 </trkpt>
 <trkpt lat="52.20646900" lon="7.22592900">
  <ele>48.891</ele>
 </trkpt>
 <trkpt lat="52.20650000" lon="7.22678200">
  <ele>48.911</ele>
 </trkpt>
 <trkpt lat="52.20650900" lon="7.22719700">
  <ele>48.736</ele>
 </trkpt>
 <trkpt lat="52.20651200" lon="7.22776300">
  <ele>48.998</ele>
 </trkpt>
 <trkpt lat="52.20651400" lon="7.22882500">
  <ele>48.552</ele>
 </trkpt>
 <trkpt lat="52.20650900" lon="7.22973600">
  <ele>47.978</ele>
 </trkpt>
 <trkpt lat="52.20650100" lon="7.23067100">
  <ele>48.819</ele>
 </trkpt>
 <trkpt lat="52.20649500" lon="7.23169200">
  <ele>48.587</ele>
 </trkpt>
 <trkpt lat="52.20648600" lon="7.23287700">
  <ele>48.479</ele>
 </trkpt>
 <trkpt lat="52.20646500" lon="7.23397700">
  <ele>48.418</ele>
 </trkpt>
 <trkpt lat="52.20646100" lon="7.23498000">
  <ele>48.495</ele>
 </trkpt>
 <trkpt lat="52.20645600" lon="7.23561600">
  <ele>47.272</ele>
 </trkpt>
 <trkpt lat="52.20644100" lon="7.23684800">
  <ele>47.391</ele>
 </trkpt>
 <trkpt lat="52.20643000" lon="7.23796400">
  <ele>47.142</ele>
 </trkpt>
 <trkpt lat="52.20642600" lon="7.23862300">
  <ele>46.293</ele>
 </trkpt>
 <trkpt lat="52.20642700" lon="7.23878700">
  <ele>46.180</ele>
 </trkpt>
 <trkpt lat="52.20641200" lon="7.23927500">
  <ele>46.347</ele>
 </trkpt>
 <trkpt lat="52.20637400" lon="7.24005600">
  <ele>47.287</ele>
 </trkpt>
 <trkpt lat="52.20627700" lon="7.24111600">
  <ele>47.194</ele>
 </trkpt>
 <trkpt lat="52.20611100" lon="7.24224900">
  <ele>47.280</ele>
 </trkpt>
 <trkpt lat="52.20599200" lon="7.24296500">
  <ele>47.216</ele>
 </trkpt>
 <trkpt lat="52.20588400" lon="7.24356600">
  <ele>47.283</ele>
 </trkpt>
 <trkpt lat="52.20574100" lon="7.24411600">
  <ele>46.693</ele>
 </trkpt>
 <trkpt lat="52.20575200" lon="7.24433000">
  <ele>46.491</ele>
 </trkpt>
 <trkpt lat="52.20563900" lon="7.24488500">
  <ele>47.253</ele>
 </trkpt>
 <trkpt lat="52.20541900" lon="7.24597900">
  <ele>47.932</ele>
 </trkpt>
 <trkpt lat="52.20530000" lon="7.24654600">
  <ele>48.376</ele>
 </trkpt>
 <trkpt lat="52.20520000" lon="7.24705500">
  <ele>47.349</ele>
 </trkpt>
 <trkpt lat="52.20504300" lon="7.24783600">
  <ele>47.711</ele>
 </trkpt>
 <trkpt lat="52.20491800" lon="7.24844700">
  <ele>46.967</ele>
 </trkpt>
 <trkpt lat="52.20476400" lon="7.24924200">
  <ele>46.955</ele>
 </trkpt>
 <trkpt lat="52.20465800" lon="7.24971900">
  <ele>46.456</ele>
 </trkpt>
 <trkpt lat="52.20448200" lon="7.25053300">
  <ele>46.982</ele>
 </trkpt>
 <trkpt lat="52.20433500" lon="7.25122700">
  <ele>47.558</ele>
 </trkpt>
 <trkpt lat="52.20420100" lon="7.25189600">
  <ele>47.357</ele>
 </trkpt>
 <trkpt lat="52.20415500" lon="7.25217700">
  <ele>47.054</ele>
 </trkpt>
 <trkpt lat="52.20400300" lon="7.25297000">
  <ele>47.302</ele>
 </trkpt>
 <trkpt lat="52.20393200" lon="7.25335600">
  <ele>46.379</ele>
 </trkpt>
 <trkpt lat="52.20388000" lon="7.25365500">
  <ele>47.430</ele>
 </trkpt>
 <trkpt lat="52.20381800" lon="7.25399700">
  <ele>46.473</ele>
 </trkpt>
 <trkpt lat="52.20375400" lon="7.25457900">
  <ele>46.912</ele>
 </trkpt>
 <trkpt lat="52.20369000" lon="7.25516600">
  <ele>47.258</ele>
 </trkpt>
 <trkpt lat="52.20359200" lon="7.25559400">
  <ele>47.255</ele>
 </trkpt>
 <trkpt lat="52.20354900" lon="7.25581100">
  <ele>46.597</ele>
 </trkpt>
 <trkpt lat="52.20356100" lon="7.25590800">
  <ele>47.426</ele>
 </trkpt>
 <trkpt lat="52.20363600" lon="7.25594700">
  <ele>46.616</ele>
 </trkpt>
 <trkpt lat="52.20367500" lon="7.25608800">
  <ele>47.932</ele>
 </trkpt>
 <trkpt lat="52.20367200" lon="7.25652200">
  <ele>47.011</ele>
 </trkpt>
 <trkpt lat="52.20362100" lon="7.25739900">
  <ele>47.355</ele>
 </trkpt>
 <trkpt lat="52.20355900" lon="7.25829700">
  <ele>48.548</ele>
 </trkpt>
 <trkpt lat="52.20352300" lon="7.25901800">
  <ele>47.649</ele>
 </trkpt>
 <trkpt lat="52.20350700" lon="7.25957200">
  <ele>47.831</ele>
 </trkpt>
 <trkpt lat="52.20347700" lon="7.26029300">
  <ele>47.672</ele>
 </trkpt>
 <trkpt lat="52.20343100" lon="7.26109500">
  <ele>47.887</ele>
 </trkpt>
 <trkpt lat="52.20338500" lon="7.26192500">
  <ele>47.985</ele>
 </trkpt>
 <trkpt lat="52.20333700" lon="7.26282000">
  <ele>47.619</ele>
 </trkpt>
 <trkpt lat="52.20329600" lon="7.26364700">
  <ele>47.528</ele>
 </trkpt>
 <trkpt lat="52.20324900" lon="7.26442500">
  <ele>47.298</ele>
 </trkpt>
 <trkpt lat="52.20319800" lon="7.26535600">
  <ele>47.644</ele>
 </trkpt>
 <trkpt lat="52.20316900" lon="7.26603200">
  <ele>47.596</ele>
 </trkpt>
 <trkpt lat="52.20315000" lon="7.26629700">
  <ele>48.028</ele>
 </trkpt>
 <trkpt lat="52.20310900" lon="7.26689100">
  <ele>47.620</ele>
 </trkpt>
 <trkpt lat="52.20307300" lon="7.26749500">
  <ele>48.260</ele>
 </trkpt>
 <trkpt lat="52.20304900" lon="7.26797300">
  <ele>48.086</ele>
 </trkpt>
 <trkpt lat="52.20301600" lon="7.26865400">
  <ele>48.076</ele>
 </trkpt>
 <trkpt lat="52.20296100" lon="7.26973300">
  <ele>48.513</ele>
 </trkpt>
 <trkpt lat="52.20290400" lon="7.27075100">
  <ele>49.038</ele>
 </trkpt>
 <trkpt lat="52.20285400" lon="7.27159500">
  <ele>49.837</ele>
 </trkpt>
 <trkpt lat="52.20279300" lon="7.27230900">
  <ele>49.841</ele>
 </trkpt>
 <trkpt lat="52.20274300" lon="7.27309100">
  <ele>50.193</ele>
 </trkpt>
 <trkpt lat="52.20273100" lon="7.27360600">
  <ele>49.656</ele>
 </trkpt>
 <trkpt lat="52.20266900" lon="7.27401200">
  <ele>49.695</ele>
 </trkpt>
 <trkpt lat="52.20264400" lon="7.27440800">
  <ele>50.296</ele>
 </trkpt>
 <trkpt lat="52.20264400" lon="7.27518900">
  <ele>50.253</ele>
 </trkpt>
 <trkpt lat="52.20258800" lon="7.27606200">
  <ele>51.022</ele>
 </trkpt>
 <trkpt lat="52.20256400" lon="7.27674800">
  <ele>51.297</ele>
 </trkpt>
 <trkpt lat="52.20252300" lon="7.27756100">
  <ele>51.474</ele>
 </trkpt>
 <trkpt lat="52.20250000" lon="7.27822100">
  <ele>51.476</ele>
 </trkpt>
 <trkpt lat="52.20244800" lon="7.27898400">
  <ele>51.053</ele>
 </trkpt>
 <trkpt lat="52.20239800" lon="7.27980500">
  <ele>52.320</ele>
 </trkpt>
 <trkpt lat="52.20236000" lon="7.28069300">
  <ele>52.496</ele>
 </trkpt>
 <trkpt lat="52.20229100" lon="7.28188100">
  <ele>53.227</ele>
 </trkpt>
 <trkpt lat="52.20226400" lon="7.28232100">
  <ele>53.203</ele>
 </trkpt>
 <trkpt lat="52.20224900" lon="7.28334600">
  <ele>53.468</ele>
 </trkpt>
 <trkpt lat="52.20229900" lon="7.28421700">
  <ele>53.254</ele>
 </trkpt>
 <trkpt lat="52.20234400" lon="7.28458400">
  <ele>53.090</ele>
 </trkpt>
 <trkpt lat="52.20241800" lon="7.28518700">
  <ele>53.592</ele>
 </trkpt>
 <trkpt lat="52.20250500" lon="7.28572700">
  <ele>53.411</ele>
 </trkpt>
 <trkpt lat="52.20257400" lon="7.28615200">
  <ele>53.720</ele>
 </trkpt>
 <trkpt lat="52.20263000" lon="7.28640300">
  <ele>53.508</ele>
 </trkpt>
 <trkpt lat="52.20270100" lon="7.28667900">
  <ele>53.864</ele>
 </trkpt>
 <trkpt lat="52.20292100" lon="7.28728400">
  <ele>53.500</ele>
 </trkpt>
 <trkpt lat="52.20315300" lon="7.28777800">
  <ele>53.620</ele>
 </trkpt>
 <trkpt lat="52.20342500" lon="7.28836300">
  <ele>52.956</ele>
 </trkpt>
 <trkpt lat="52.20370800" lon="7.28894700">
  <ele>52.844</ele>
 </trkpt>
 <trkpt lat="52.20392600" lon="7.28930700">
  <ele>52.677</ele>
 </trkpt>
 <trkpt lat="52.20416200" lon="7.28968700">
  <ele>52.734</ele>
 </trkpt>
 <trkpt lat="52.20439800" lon="7.29005600">
  <ele>52.491</ele>
 </trkpt>
 <trkpt lat="52.20452200" lon="7.29030400">
  <ele>52.362</ele>
 </trkpt>
 <trkpt lat="52.20483500" lon="7.29080700">
  <ele>52.304</ele>
 </trkpt>
 <trkpt lat="52.20513800" lon="7.29130500">
  <ele>52.699</ele>
 </trkpt>
 <trkpt lat="52.20551000" lon="7.29188400">
  <ele>52.517</ele>
 </trkpt>
 <trkpt lat="52.20574600" lon="7.29226500">
  <ele>52.609</ele>
 </trkpt>
 <trkpt lat="52.20614700" lon="7.29289800">
  <ele>52.219</ele>
 </trkpt>
 <trkpt lat="52.20650200" lon="7.29343600">
  <ele>52.533</ele>
 </trkpt>
 <trkpt lat="52.20674200" lon="7.29382900">
  <ele>52.701</ele>
 </trkpt>
 <trkpt lat="52.20696400" lon="7.29423600">
  <ele>52.552</ele>
 </trkpt>
 <trkpt lat="52.20720200" lon="7.29460900">
  <ele>52.678</ele>
 </trkpt>
 <trkpt lat="52.20745800" lon="7.29502000">
  <ele>52.260</ele>
 </trkpt>
 <trkpt lat="52.20759400" lon="7.29526600">
  <ele>52.025</ele>
 </trkpt>
 <trkpt lat="52.20792000" lon="7.29575400">
  <ele>52.629</ele>
 </trkpt>
 <trkpt lat="52.20819600" lon="7.29621400">
  <ele>52.268</ele>
 </trkpt>
 <trkpt lat="52.20851400" lon="7.29678700">
  <ele>52.484</ele>
 </trkpt>
 <trkpt lat="52.20876800" lon="7.29735200">
  <ele>51.773</ele>
 </trkpt>
 <trkpt lat="52.20888300" lon="7.29758900">
  <ele>52.225</ele>
 </trkpt>
 <trkpt lat="52.20895100" lon="7.29786400">
  <ele>51.640</ele>
 </trkpt>
 <trkpt lat="52.20900800" lon="7.29803400">
  <ele>51.944</ele>
 </trkpt>
 <trkpt lat="52.20915500" lon="7.29847500">
  <ele>52.022</ele>
 </trkpt>
 <trkpt lat="52.20933700" lon="7.29925700">
  <ele>52.159</ele>
 </trkpt>
 <trkpt lat="52.20953800" lon="7.30036300">
  <ele>51.577</ele>
 </trkpt>
 <trkpt lat="52.20962400" lon="7.30097000">
  <ele>52.005</ele>
 </trkpt>
 <trkpt lat="52.20980900" lon="7.30181600">
  <ele>52.241</ele>
 </trkpt>
 <trkpt lat="52.20996100" lon="7.30269600">
  <ele>52.167</ele>
 </trkpt>
 <trkpt lat="52.21015000" lon="7.30378400">
  <ele>52.200</ele>
 </trkpt>
 <trkpt lat="52.21030700" lon="7.30472200">
  <ele>52.527</ele>
 </trkpt>
 <trkpt lat="52.21047100" lon="7.30556900">
  <ele>51.907</ele>
 </trkpt>
 <trkpt lat="52.21049700" lon="7.30578900">
  <ele>52.773</ele>
 </trkpt>
 <trkpt lat="52.21067400" lon="7.30677600">
  <ele>52.085</ele>
 </trkpt>
 <trkpt lat="52.21079100" lon="7.30744300">
  <ele>51.961</ele>
 </trkpt>
 <trkpt lat="52.21088000" lon="7.30807100">
  <ele>52.392</ele>
 </trkpt>
 <trkpt lat="52.21096000" lon="7.30827600">
  <ele>51.950</ele>
 </trkpt>
 <trkpt lat="52.21104100" lon="7.30857800">
  <ele>52.547</ele>
 </trkpt>
 <trkpt lat="52.21105900" lon="7.30874400">
  <ele>55.061</ele>
 </trkpt>
 <trkpt lat="52.21103900" lon="7.30885100">
  <ele>51.099</ele>
 </trkpt>
 <trkpt lat="52.21108900" lon="7.30917600">
  <ele>52.088</ele>
 </trkpt>
 <trkpt lat="52.21121900" lon="7.31007100">
  <ele>52.033</ele>
 </trkpt>
 <trkpt lat="52.21141500" lon="7.31094700">
  <ele>52.767</ele>
 </trkpt>
 <trkpt lat="52.21153800" lon="7.31162600">
  <ele>51.940</ele>
 </trkpt>
 <trkpt lat="52.21155900" lon="7.31213500">
  <ele>52.163</ele>
 </trkpt>
 <trkpt lat="52.21163800" lon="7.31271900">
  <ele>52.036</ele>
 </trkpt>
 <trkpt lat="52.21188500" lon="7.31364800">
  <ele>52.709</ele>
 </trkpt>
 <trkpt lat="52.21202100" lon="7.31453000">
  <ele>52.742</ele>
 </trkpt>
 <trkpt lat="52.21214200" lon="7.31514900">
  <ele>52.482</ele>
 </trkpt>
 <trkpt lat="52.21218600" lon="7.31530700">
  <ele>51.669</ele>
 </trkpt>
 <trkpt lat="52.21227200" lon="7.31574400">
  <ele>51.920</ele>
 </trkpt>
 <trkpt lat="52.21237300" lon="7.31634100">
  <ele>51.852</ele>
 </trkpt>
 <trkpt lat="52.21245400" lon="7.31686300">
  <ele>52.600</ele>
 </trkpt>
 <trkpt lat="52.21254600" lon="7.31715800">
  <ele>51.551</ele>
 </trkpt>
 <trkpt lat="52.21260800" lon="7.31750100">
  <ele>51.035</ele>
 </trkpt>
 <trkpt lat="52.21266000" lon="7.31767900">
  <ele>50.439</ele>
 </trkpt>
 <trkpt lat="52.21268400" lon="7.31783000">
  <ele>51.305</ele>
 </trkpt>
 <trkpt lat="52.21282500" lon="7.31863500">
  <ele>50.801</ele>
 </trkpt>
 <trkpt lat="52.21280400" lon="7.31874200">
  <ele>50.896</ele>
 </trkpt>
 <trkpt lat="52.21284000" lon="7.31895000">
  <ele>50.505</ele>
 </trkpt>
 <trkpt lat="52.21287800" lon="7.31907700">
  <ele>50.560</ele>
 </trkpt>
 <trkpt lat="52.21296300" lon="7.31962700">
  <ele>50.356</ele>
 </trkpt>
 <trkpt lat="52.21306700" lon="7.32029400">
  <ele>50.430</ele>
 </trkpt>
 <trkpt lat="52.21322600" lon="7.32118700">
  <ele>50.831</ele>
 </trkpt>
 <trkpt lat="52.21336400" lon="7.32194000">
  <ele>50.697</ele>
 </trkpt>
 <trkpt lat="52.21340700" lon="7.32217200">
  <ele>50.194</ele>
 </trkpt>
 <trkpt lat="52.21351900" lon="7.32276300">
  <ele>50.443</ele>
 </trkpt>
 <trkpt lat="52.21356200" lon="7.32302400">
  <ele>50.474</ele>
 </trkpt>
 <trkpt lat="52.21357500" lon="7.32314700">
  <ele>50.898</ele>
 </trkpt>
 <trkpt lat="52.21361500" lon="7.32347700">
  <ele>50.559</ele>
 </trkpt>
 <trkpt lat="52.21358300" lon="7.32375900">
  <ele>50.526</ele>
 </trkpt>
 <trkpt lat="52.21353500" lon="7.32418200">
  <ele>50.162</ele>
 </trkpt>
 <trkpt lat="52.21353500" lon="7.32443700">
  <ele>49.860</ele>
 </trkpt>
 <trkpt lat="52.21358900" lon="7.32446900">
  <ele>49.945</ele>
 </trkpt>
 <trkpt lat="52.21372300" lon="7.32444200">
  <ele>50.089</ele>
 </trkpt>
 <trkpt lat="52.21386200" lon="7.32449500">
  <ele>50.236</ele>
 </trkpt>
 <trkpt lat="52.21390800" lon="7.32450200">
  <ele>50.599</ele>
 </trkpt>
 <trkpt lat="52.21401000" lon="7.32464500">
  <ele>50.828</ele>
 </trkpt>
 <trkpt lat="52.21411500" lon="7.32510600">
  <ele>50.801</ele>
 </trkpt>
 <trkpt lat="52.21435300" lon="7.32586800">
  <ele>50.211</ele>
 </trkpt>
 <trkpt lat="52.21459600" lon="7.32656300">
  <ele>49.985</ele>
 </trkpt>
 <trkpt lat="52.21484300" lon="7.32726000">
  <ele>49.636</ele>
 </trkpt>
 <trkpt lat="52.21504400" lon="7.32787400">
  <ele>49.559</ele>
 </trkpt>
 <trkpt lat="52.21521000" lon="7.32842600">
  <ele>49.499</ele>
 </trkpt>
 <trkpt lat="52.21532900" lon="7.32887900">
  <ele>49.530</ele>
 </trkpt>
 <trkpt lat="52.21547900" lon="7.32923100">
  <ele>49.576</ele>
 </trkpt>
 <trkpt lat="52.21567300" lon="7.32972300">
  <ele>49.373</ele>
 </trkpt>
 <trkpt lat="52.21593500" lon="7.33040800">
  <ele>49.388</ele>
 </trkpt>
 <trkpt lat="52.21620400" lon="7.33117800">
  <ele>49.545</ele>
 </trkpt>
 <trkpt lat="52.21643900" lon="7.33174700">
  <ele>49.254</ele>
 </trkpt>
 <trkpt lat="52.21671900" lon="7.33234700">
  <ele>48.705</ele>
 </trkpt>
 <trkpt lat="52.21697300" lon="7.33287800">
  <ele>49.181</ele>
 </trkpt>
 <trkpt lat="52.21713200" lon="7.33327500">
  <ele>49.357</ele>
 </trkpt>
 <trkpt lat="52.21721000" lon="7.33354500">
  <ele>50.116</ele>
 </trkpt>
 <trkpt lat="52.21750600" lon="7.33410400">
  <ele>51.180</ele>
 </trkpt>
 <trkpt lat="52.21787700" lon="7.33470200">
  <ele>51.911</ele>
 </trkpt>
 <trkpt lat="52.21807400" lon="7.33507300">
  <ele>51.510</ele>
 </trkpt>
 <trkpt lat="52.21825300" lon="7.33537600">
  <ele>51.877</ele>
 </trkpt>
 <trkpt lat="52.21854800" lon="7.33586000">
  <ele>52.223</ele>
 </trkpt>
 <trkpt lat="52.21864000" lon="7.33600700">
  <ele>51.835</ele>
 </trkpt>
 <trkpt lat="52.21905900" lon="7.33672200">
  <ele>52.350</ele>
 </trkpt>
 <trkpt lat="52.21917500" lon="7.33692400">
  <ele>50.786</ele>
 </trkpt>
 <trkpt lat="52.21931300" lon="7.33716600">
  <ele>51.449</ele>
 </trkpt>
 <trkpt lat="52.21984300" lon="7.33798500">
  <ele>52.001</ele>
 </trkpt>
 <trkpt lat="52.22026000" lon="7.33864900">
  <ele>51.665</ele>
 </trkpt>
 <trkpt lat="52.22068000" lon="7.33932300">
  <ele>52.361</ele>
 </trkpt>
 <trkpt lat="52.22108100" lon="7.33999000">
  <ele>51.318</ele>
 </trkpt>
 <trkpt lat="52.22154200" lon="7.34075400">
  <ele>51.092</ele>
 </trkpt>
 <trkpt lat="52.22186800" lon="7.34130900">
  <ele>51.114</ele>
 </trkpt>
 <trkpt lat="52.22205000" lon="7.34155300">
  <ele>51.410</ele>
 </trkpt>
 <trkpt lat="52.22232400" lon="7.34198200">
  <ele>51.468</ele>
 </trkpt>
 <trkpt lat="52.22258400" lon="7.34244300">
  <ele>51.125</ele>
 </trkpt>
 <trkpt lat="52.22284700" lon="7.34286400">
  <ele>51.197</ele>
 </trkpt>
 <trkpt lat="52.22311600" lon="7.34333700">
  <ele>51.060</ele>
 </trkpt>
 <trkpt lat="52.22334500" lon="7.34371700">
  <ele>51.162</ele>
 </trkpt>
 <trkpt lat="52.22361100" lon="7.34408300">
  <ele>51.700</ele>
 </trkpt>
 <trkpt lat="52.22383900" lon="7.34436800">
  <ele>51.829</ele>
 </trkpt>
 <trkpt lat="52.22398100" lon="7.34463300">
  <ele>51.492</ele>
 </trkpt>
 <trkpt lat="52.22431300" lon="7.34500100">
  <ele>52.077</ele>
 </trkpt>
 <trkpt lat="52.22486400" lon="7.34547700">
  <ele>51.971</ele>
 </trkpt>
 <trkpt lat="52.22536900" lon="7.34589400">
  <ele>51.514</ele>
 </trkpt>
 <trkpt lat="52.22606900" lon="7.34646300">
  <ele>52.394</ele>
 </trkpt>
 <trkpt lat="52.22639800" lon="7.34671700">
  <ele>51.600</ele>
 </trkpt>
 <trkpt lat="52.22682700" lon="7.34708200">
  <ele>52.553</ele>
 </trkpt>
 <trkpt lat="52.22721400" lon="7.34740000">
  <ele>51.588</ele>
 </trkpt>
 <trkpt lat="52.22748300" lon="7.34759600">
  <ele>52.453</ele>
 </trkpt>
 <trkpt lat="52.22778200" lon="7.34784400">
  <ele>54.221</ele>
 </trkpt>
 <trkpt lat="52.22874200" lon="7.34863900">
  <ele>55.036</ele>
 </trkpt>
 <trkpt lat="52.22934300" lon="7.34913200">
  <ele>55.412</ele>
 </trkpt>
 <trkpt lat="52.22994600" lon="7.34961100">
  <ele>54.980</ele>
 </trkpt>
 <trkpt lat="52.23018000" lon="7.34981400">
  <ele>55.036</ele>
 </trkpt>
 <trkpt lat="52.23052500" lon="7.35012900">
  <ele>55.370</ele>
 </trkpt>
 <trkpt lat="52.23082500" lon="7.35037400">
  <ele>56.593</ele>
 </trkpt>
 <trkpt lat="52.23114200" lon="7.35065400">
  <ele>56.216</ele>
 </trkpt>
 <trkpt lat="52.23166000" lon="7.35111600">
  <ele>57.038</ele>
 </trkpt>
 <trkpt lat="52.23194800" lon="7.35137900">
  <ele>55.952</ele>
 </trkpt>
 <trkpt lat="52.23205300" lon="7.35134700">
  <ele>55.298</ele>
 </trkpt>
 <trkpt lat="52.23246700" lon="7.35168800">
  <ele>57.152</ele>
 </trkpt>
 <trkpt lat="52.23278600" lon="7.35194100">
  <ele>57.224</ele>
 </trkpt>
 <trkpt lat="52.23317500" lon="7.35227900">
  <ele>57.340</ele>
 </trkpt>
 <trkpt lat="52.23341700" lon="7.35247900">
  <ele>56.625</ele>
 </trkpt>
 <trkpt lat="52.23352000" lon="7.35255500">
  <ele>56.707</ele>
 </trkpt>
 <trkpt lat="52.23362200" lon="7.35263700">
  <ele>58.253</ele>
 </trkpt>
 <trkpt lat="52.23376300" lon="7.35276100">
  <ele>57.335</ele>
 </trkpt>
 <trkpt lat="52.23403500" lon="7.35297300">
  <ele>57.336</ele>
 </trkpt>
 <trkpt lat="52.23445800" lon="7.35331800">
  <ele>56.964</ele>
 </trkpt>
 <trkpt lat="52.23465700" lon="7.35351000">
  <ele>57.891</ele>
 </trkpt>
 <trkpt lat="52.23506600" lon="7.35384100">
  <ele>57.183</ele>
 </trkpt>
 <trkpt lat="52.23522000" lon="7.35394100">
  <ele>57.524</ele>
 </trkpt>
 <trkpt lat="52.23537900" lon="7.35408900">
  <ele>57.610</ele>
 </trkpt>
 <trkpt lat="52.23548400" lon="7.35418100">
  <ele>57.435</ele>
 </trkpt>
 <trkpt lat="52.23560600" lon="7.35427000">
  <ele>57.562</ele>
 </trkpt>
 <trkpt lat="52.23591600" lon="7.35454300">
  <ele>58.948</ele>
 </trkpt>
 <trkpt lat="52.23646500" lon="7.35502700">
  <ele>58.264</ele>
 </trkpt>
 <trkpt lat="52.23717000" lon="7.35561200">
  <ele>58.948</ele>
 </trkpt>
 <trkpt lat="52.23735700" lon="7.35576300">
  <ele>58.605</ele>
 </trkpt>
 <trkpt lat="52.23742600" lon="7.35580400">
  <ele>59.088</ele>
 </trkpt>
 <trkpt lat="52.23785100" lon="7.35612800">
  <ele>59.371</ele>
 </trkpt>
 <trkpt lat="52.23829800" lon="7.35653500">
  <ele>60.251</ele>
 </trkpt>
 <trkpt lat="52.23866300" lon="7.35681500">
  <ele>60.274</ele>
 </trkpt>
 <trkpt lat="52.23910600" lon="7.35716500">
  <ele>60.478</ele>
 </trkpt>
 <trkpt lat="52.23966500" lon="7.35761000">
  <ele>60.779</ele>
 </trkpt>
 <trkpt lat="52.24000800" lon="7.35789100">
  <ele>60.460</ele>
 </trkpt>
 <trkpt lat="52.24017100" lon="7.35798800">
  <ele>60.476</ele>
 </trkpt>
 <trkpt lat="52.24038300" lon="7.35820200">
  <ele>61.202</ele>
 </trkpt>
 <trkpt lat="52.24081100" lon="7.35864900">
  <ele>62.232</ele>
 </trkpt>
 <trkpt lat="52.24128600" lon="7.35920200">
  <ele>62.379</ele>
 </trkpt>
 <trkpt lat="52.24161100" lon="7.35966800">
  <ele>62.642</ele>
 </trkpt>
 <trkpt lat="52.24173000" lon="7.35985500">
  <ele>61.682</ele>
 </trkpt>
 <trkpt lat="52.24192300" lon="7.36015500">
  <ele>63.159</ele>
 </trkpt>
 <trkpt lat="52.24241100" lon="7.36090200">
  <ele>63.223</ele>
 </trkpt>
 <trkpt lat="52.24260100" lon="7.36124800">
  <ele>63.199</ele>
 </trkpt>
 <trkpt lat="52.24301200" lon="7.36193300">
  <ele>63.268</ele>
 </trkpt>
 <trkpt lat="52.24351400" lon="7.36280200">
  <ele>64.186</ele>
 </trkpt>
 <trkpt lat="52.24407200" lon="7.36376900">
  <ele>64.017</ele>
 </trkpt>
 <trkpt lat="52.24453300" lon="7.36457400">
  <ele>64.534</ele>
 </trkpt>
 <trkpt lat="52.24467200" lon="7.36483900">
  <ele>64.134</ele>
 </trkpt>
 <trkpt lat="52.24503900" lon="7.36549900">
  <ele>63.517</ele>
 </trkpt>
 <trkpt lat="52.24528800" lon="7.36591100">
  <ele>63.202</ele>
 </trkpt>
 <trkpt lat="52.24535500" lon="7.36605800">
  <ele>63.258</ele>
 </trkpt>
 <trkpt lat="52.24562800" lon="7.36651200">
  <ele>62.886</ele>
 </trkpt>
 <trkpt lat="52.24572300" lon="7.36669400">
  <ele>62.644</ele>
 </trkpt>
 <trkpt lat="52.24581400" lon="7.36686100">
  <ele>62.883</ele>
 </trkpt>
 <trkpt lat="52.24585000" lon="7.36701200">
  <ele>63.214</ele>
 </trkpt>
 <trkpt lat="52.24591100" lon="7.36715800">
  <ele>62.603</ele>
 </trkpt>
 <trkpt lat="52.24607800" lon="7.36749100">
  <ele>63.164</ele>
 </trkpt>
 <trkpt lat="52.24649300" lon="7.36822100">
  <ele>63.465</ele>
 </trkpt>
 <trkpt lat="52.24677700" lon="7.36872600">
  <ele>63.803</ele>
 </trkpt>
 <trkpt lat="52.24702200" lon="7.36913100">
  <ele>62.882</ele>
 </trkpt>
 <trkpt lat="52.24713800" lon="7.36928700">
  <ele>62.992</ele>
 </trkpt>
 <trkpt lat="52.24724400" lon="7.36946100">
  <ele>62.742</ele>
 </trkpt>
 <trkpt lat="52.24733000" lon="7.36961300">
  <ele>62.621</ele>
 </trkpt>
 <trkpt lat="52.24762900" lon="7.37017300">
  <ele>63.802</ele>
 </trkpt>
 <trkpt lat="52.24795700" lon="7.37075600">
  <ele>63.186</ele>
 </trkpt>
 <trkpt lat="52.24835600" lon="7.37141400">
  <ele>63.873</ele>
 </trkpt>
 <trkpt lat="52.24859100" lon="7.37184100">
  <ele>64.379</ele>
 </trkpt>
 <trkpt lat="52.24893400" lon="7.37247100">
  <ele>63.398</ele>
 </trkpt>
 <trkpt lat="52.24905000" lon="7.37291100">
  <ele>63.803</ele>
 </trkpt>
 <trkpt lat="52.24914500" lon="7.37290900">
  <ele>64.203</ele>
 </trkpt>
 <trkpt lat="52.24937000" lon="7.37326200">
  <ele>64.816</ele>
 </trkpt>
 <trkpt lat="52.24987000" lon="7.37407900">
  <ele>64.688</ele>
 </trkpt>
 <trkpt lat="52.25010000" lon="7.37453400">
  <ele>64.964</ele>
 </trkpt>
 <trkpt lat="52.25022400" lon="7.37474600">
  <ele>64.831</ele>
 </trkpt>
 <trkpt lat="52.25058000" lon="7.37536600">
  <ele>64.933</ele>
 </trkpt>
 <trkpt lat="52.25100600" lon="7.37612300">
  <ele>65.695</ele>
 </trkpt>
 <trkpt lat="52.25136600" lon="7.37678300">
  <ele>64.152</ele>
 </trkpt>
 <trkpt lat="52.25162000" lon="7.37722300">
  <ele>64.642</ele>
 </trkpt>
 <trkpt lat="52.25192400" lon="7.37775700">
  <ele>65.038</ele>
 </trkpt>
 <trkpt lat="52.25218500" lon="7.37818900">
  <ele>65.765</ele>
 </trkpt>
 <trkpt lat="52.25251200" lon="7.37884300">
  <ele>65.653</ele>
 </trkpt>
 <trkpt lat="52.25269600" lon="7.37917800">
  <ele>65.338</ele>
 </trkpt>
 <trkpt lat="52.25278400" lon="7.37932300">
  <ele>65.928</ele>
 </trkpt>
 <trkpt lat="52.25317000" lon="7.38002000">
  <ele>66.599</ele>
 </trkpt>
 <trkpt lat="52.25347900" lon="7.38058100">
  <ele>66.281</ele>
 </trkpt>
 <trkpt lat="52.25377800" lon="7.38113500">
  <ele>65.757</ele>
 </trkpt>
 <trkpt lat="52.25405400" lon="7.38162100">
  <ele>66.359</ele>
 </trkpt>
 <trkpt lat="52.25414000" lon="7.38174700">
  <ele>66.048</ele>
 </trkpt>
 <trkpt lat="52.25447800" lon="7.38223100">
  <ele>65.649</ele>
 </trkpt>
 <trkpt lat="52.25460600" lon="7.38238800">
  <ele>66.273</ele>
 </trkpt>
 <trkpt lat="52.25468900" lon="7.38255600">
  <ele>66.203</ele>
 </trkpt>
 <trkpt lat="52.25478800" lon="7.38264600">
  <ele>65.431</ele>
 </trkpt>
 <trkpt lat="52.25502500" lon="7.38290300">
  <ele>66.145</ele>
 </trkpt>
 <trkpt lat="52.25560800" lon="7.38348400">
  <ele>65.727</ele>
 </trkpt>
 <trkpt lat="52.25610700" lon="7.38386900">
  <ele>65.867</ele>
 </trkpt>
 <trkpt lat="52.25651600" lon="7.38417700">
  <ele>64.612</ele>
 </trkpt>
 <trkpt lat="52.25661100" lon="7.38420200">
  <ele>64.234</ele>
 </trkpt>
 <trkpt lat="52.25686100" lon="7.38433600">
  <ele>64.657</ele>
 </trkpt>
 <trkpt lat="52.25698100" lon="7.38438500">
  <ele>64.331</ele>
 </trkpt>
 <trkpt lat="52.25732900" lon="7.38452200">
  <ele>65.178</ele>
 </trkpt>
 <trkpt lat="52.25789300" lon="7.38467100">
  <ele>64.796</ele>
 </trkpt>
 <trkpt lat="52.25854400" lon="7.38475900">
  <ele>65.270</ele>
 </trkpt>
 <trkpt lat="52.25903000" lon="7.38475200">
  <ele>65.155</ele>
 </trkpt>
 <trkpt lat="52.25962800" lon="7.38470900">
  <ele>64.541</ele>
 </trkpt>
 <trkpt lat="52.26016500" lon="7.38468500">
  <ele>64.792</ele>
 </trkpt>
 <trkpt lat="52.26109200" lon="7.38464000">
  <ele>63.954</ele>
 </trkpt>
 <trkpt lat="52.26183000" lon="7.38460700">
  <ele>63.905</ele>
 </trkpt>
 <trkpt lat="52.26264400" lon="7.38466200">
  <ele>62.964</ele>
 </trkpt>
 <trkpt lat="52.26289800" lon="7.38472500">
  <ele>63.240</ele>
 </trkpt>
 <trkpt lat="52.26305000" lon="7.38476700">
  <ele>62.716</ele>
 </trkpt>
 <trkpt lat="52.26331700" lon="7.38487500">
  <ele>63.372</ele>
 </trkpt>
 <trkpt lat="52.26390000" lon="7.38522800">
  <ele>62.811</ele>
 </trkpt>
 <trkpt lat="52.26404200" lon="7.38531300">
  <ele>61.717</ele>
 </trkpt>
 <trkpt lat="52.26436000" lon="7.38555300">
  <ele>63.123</ele>
 </trkpt>
 <trkpt lat="52.26490600" lon="7.38618600">
  <ele>62.029</ele>
 </trkpt>
 <trkpt lat="52.26542000" lon="7.38697400">
  <ele>61.145</ele>
 </trkpt>
 <trkpt lat="52.26588300" lon="7.38795500">
  <ele>60.848</ele>
 </trkpt>
 <trkpt lat="52.26619000" lon="7.38886200">
  <ele>60.766</ele>
 </trkpt>
 <trkpt lat="52.26625300" lon="7.38910300">
  <ele>59.907</ele>
 </trkpt>
 <trkpt lat="52.26637500" lon="7.38966600">
  <ele>60.716</ele>
 </trkpt>
 <trkpt lat="52.26649500" lon="7.39041200">
  <ele>60.132</ele>
 </trkpt>
 <trkpt lat="52.26652100" lon="7.39066300">
  <ele>59.478</ele>
 </trkpt>
 <trkpt lat="52.26657200" lon="7.39159600">
  <ele>59.588</ele>
 </trkpt>
 <trkpt lat="52.26660000" lon="7.39269200">
  <ele>59.137</ele>
 </trkpt>
 <trkpt lat="52.26661300" lon="7.39295400">
  <ele>58.635</ele>
 </trkpt>
 <trkpt lat="52.26663400" lon="7.39326600">
  <ele>58.798</ele>
 </trkpt>
 <trkpt lat="52.26665900" lon="7.39404500">
  <ele>58.199</ele>
 </trkpt>
 <trkpt lat="52.26669600" lon="7.39512400">
  <ele>57.922</ele>
 </trkpt>
 <trkpt lat="52.26675200" lon="7.39614700">
  <ele>57.733</ele>
 </trkpt>
 <trkpt lat="52.26679300" lon="7.39657200">
  <ele>57.887</ele>
 </trkpt>
 <trkpt lat="52.26680500" lon="7.39690700">
  <ele>57.648</ele>
 </trkpt>
 <trkpt lat="52.26681600" lon="7.39713400">
  <ele>57.767</ele>
 </trkpt>
 <trkpt lat="52.26689800" lon="7.39756200">
  <ele>57.887</ele>
 </trkpt>
 <trkpt lat="52.26705100" lon="7.39822500">
  <ele>57.633</ele>
 </trkpt>
 <trkpt lat="52.26721300" lon="7.39877200">
  <ele>57.526</ele>
 </trkpt>
 <trkpt lat="52.26748700" lon="7.39944200">
  <ele>56.132</ele>
 </trkpt>
 <trkpt lat="52.26788100" lon="7.40024900">
  <ele>56.056</ele>
 </trkpt>
 <trkpt lat="52.26827400" lon="7.40086500">
  <ele>55.616</ele>
 </trkpt>
 <trkpt lat="52.26878100" lon="7.40144800">
  <ele>54.322</ele>
 </trkpt>
 <trkpt lat="52.26943600" lon="7.40201300">
  <ele>54.006</ele>
 </trkpt>
 <trkpt lat="52.26996100" lon="7.40231200">
  <ele>53.332</ele>
 </trkpt>
 <trkpt lat="52.27030300" lon="7.40246300">
  <ele>54.192</ele>
 </trkpt>
 <trkpt lat="52.27053300" lon="7.40213700">
  <ele>53.280</ele>
 </trkpt>
 <trkpt lat="52.27059200" lon="7.40201800">
  <ele>52.273</ele>
 </trkpt>
 <trkpt lat="52.27072400" lon="7.40153500">
  <ele>50.624</ele>
 </trkpt>
 <trkpt lat="52.27095700" lon="7.40091800">
  <ele>50.308</ele>
 </trkpt>
 <trkpt lat="52.27140800" lon="7.40052000">
  <ele>50.399</ele>
 </trkpt>
 <trkpt lat="52.27186600" lon="7.40017100">
  <ele>50.153</ele>
 </trkpt>
 <trkpt lat="52.27226600" lon="7.39986400">
  <ele>49.905</ele>
 </trkpt>
 <trkpt lat="52.27263500" lon="7.39955200">
  <ele>49.359</ele>
 </trkpt>
 <trkpt lat="52.27297100" lon="7.39927200">
  <ele>48.109</ele>
 </trkpt>
 <trkpt lat="52.27325500" lon="7.39899500">
  <ele>46.888</ele>
 </trkpt>
 <trkpt lat="52.27344300" lon="7.39890200">
  <ele>47.007</ele>
 </trkpt>
 <trkpt lat="52.27358000" lon="7.39948100">
  <ele>47.790</ele>
 </trkpt>
 <trkpt lat="52.27379800" lon="7.40063900">
  <ele>48.735</ele>
 </trkpt>
 <trkpt lat="52.27399600" lon="7.40169100">
  <ele>50.425</ele>
 </trkpt>
 <trkpt lat="52.27420200" lon="7.40274900">
  <ele>50.846</ele>
 </trkpt>
 <trkpt lat="52.27442500" lon="7.40384500">
  <ele>51.032</ele>
 </trkpt>
 <trkpt lat="52.27453900" lon="7.40423600">
  <ele>51.362</ele>
 </trkpt>
 <trkpt lat="52.27464400" lon="7.40431100">
  <ele>50.977</ele>
 </trkpt>
 <trkpt lat="52.27510100" lon="7.40454200">
  <ele>51.364</ele>
 </trkpt>
 <trkpt lat="52.27567500" lon="7.40500600">
  <ele>50.597</ele>
 </trkpt>
 <trkpt lat="52.27581100" lon="7.40515200">
  <ele>51.208</ele>
 </trkpt>
 <trkpt lat="52.27629500" lon="7.40578200">
  <ele>50.672</ele>
 </trkpt>
 <trkpt lat="52.27666200" lon="7.40633200">
  <ele>50.235</ele>
 </trkpt>
 <trkpt lat="52.27697200" lon="7.40678300">
  <ele>49.924</ele>
 </trkpt>
 <trkpt lat="52.27709900" lon="7.40698600">
  <ele>49.856</ele>
 </trkpt>
 <trkpt lat="52.27747900" lon="7.40758900">
  <ele>49.432</ele>
 </trkpt>
 <trkpt lat="52.27787900" lon="7.40819800">
  <ele>49.554</ele>
 </trkpt>
 <trkpt lat="52.27799700" lon="7.40841800">
  <ele>49.559</ele>
 </trkpt>
 <trkpt lat="52.27815000" lon="7.40866400">
  <ele>49.523</ele>
 </trkpt>
 <trkpt lat="52.27862900" lon="7.40938900">
  <ele>49.089</ele>
 </trkpt>
 <trkpt lat="52.27895600" lon="7.40987600">
  <ele>49.130</ele>
 </trkpt>
 <trkpt lat="52.27937000" lon="7.41052900">
  <ele>48.739</ele>
 </trkpt>
 <trkpt lat="52.27972200" lon="7.41108000">
  <ele>48.783</ele>
 </trkpt>
 <trkpt lat="52.27990900" lon="7.41139700">
  <ele>48.341</ele>
 </trkpt>
 <trkpt lat="52.28009400" lon="7.41175000">
  <ele>46.533</ele>
 </trkpt>
 <trkpt lat="52.28024600" lon="7.41201700">
  <ele>47.498</ele>
 </trkpt>
 <trkpt lat="52.28031100" lon="7.41215700">
  <ele>47.021</ele>
 </trkpt>
 <trkpt lat="52.28057900" lon="7.41275600">
  <ele>47.998</ele>
 </trkpt>
 <trkpt lat="52.28080200" lon="7.41334300">
  <ele>47.265</ele>
 </trkpt>
 <trkpt lat="52.28098600" lon="7.41389100">
  <ele>47.059</ele>
 </trkpt>
 <trkpt lat="52.28117000" lon="7.41457700">
  <ele>46.091</ele>
 </trkpt>
 <trkpt lat="52.28137300" lon="7.41551700">
  <ele>46.187</ele>
 </trkpt>
 <trkpt lat="52.28146200" lon="7.41610300">
  <ele>46.048</ele>
 </trkpt>
 <trkpt lat="52.28154200" lon="7.41691500">
  <ele>45.277</ele>
 </trkpt>
 <trkpt lat="52.28160700" lon="7.41741700">
  <ele>45.455</ele>
 </trkpt>
 <trkpt lat="52.28165300" lon="7.41767400">
  <ele>45.455</ele>
 </trkpt>
 <trkpt lat="52.28173100" lon="7.41839300">
  <ele>45.270</ele>
 </trkpt>
 <trkpt lat="52.28183900" lon="7.41930500">
  <ele>43.866</ele>
 </trkpt>
 <trkpt lat="52.28187200" lon="7.42013800">
  <ele>43.346</ele>
 </trkpt>
 <trkpt lat="52.28187100" lon="7.42027200">
  <ele>43.433</ele>
 </trkpt>
 <trkpt lat="52.28184300" lon="7.42086100">
  <ele>43.671</ele>
 </trkpt>
 <trkpt lat="52.28181300" lon="7.42120300">
  <ele>42.835</ele>
 </trkpt>
 <trkpt lat="52.28179800" lon="7.42133600">
  <ele>43.241</ele>
 </trkpt>
 <trkpt lat="52.28174100" lon="7.42165900">
  <ele>42.884</ele>
 </trkpt>
 <trkpt lat="52.28170600" lon="7.42216600">
  <ele>42.597</ele>
 </trkpt>
 <trkpt lat="52.28168300" lon="7.42244300">
  <ele>42.454</ele>
 </trkpt>
 <trkpt lat="52.28164400" lon="7.42268400">
  <ele>42.865</ele>
 </trkpt>
 <trkpt lat="52.28153800" lon="7.42328500">
  <ele>42.398</ele>
 </trkpt>
 <trkpt lat="52.28132300" lon="7.42405200">
  <ele>42.857</ele>
 </trkpt>
 <trkpt lat="52.28113700" lon="7.42448500">
  <ele>42.288</ele>
 </trkpt>
 <trkpt lat="52.28066300" lon="7.42547400">
  <ele>42.677</ele>
 </trkpt>
 <trkpt lat="52.28022600" lon="7.42645000">
  <ele>42.670</ele>
 </trkpt>
 <trkpt lat="52.27983400" lon="7.42729500">
  <ele>42.351</ele>
 </trkpt>
 <trkpt lat="52.27946800" lon="7.42802800">
  <ele>42.107</ele>
 </trkpt>
 <trkpt lat="52.27916400" lon="7.42862700">
  <ele>41.857</ele>
 </trkpt>
 <trkpt lat="52.27894800" lon="7.42904700">
  <ele>41.002</ele>
 </trkpt>
 <trkpt lat="52.27889000" lon="7.42917700">
  <ele>41.090</ele>
 </trkpt>
 <trkpt lat="52.27861300" lon="7.42970400">
  <ele>41.251</ele>
 </trkpt>
 <trkpt lat="52.27849200" lon="7.42992100">
  <ele>40.287</ele>
 </trkpt>
 <trkpt lat="52.27832700" lon="7.43024200">
  <ele>41.178</ele>
 </trkpt>
 <trkpt lat="52.27821800" lon="7.43045200">
  <ele>41.681</ele>
 </trkpt>
 <trkpt lat="52.27812700" lon="7.43063100">
  <ele>40.750</ele>
 </trkpt>
 <trkpt lat="52.27793200" lon="7.43097300">
  <ele>41.350</ele>
 </trkpt>
 <trkpt lat="52.27783300" lon="7.43115300">
  <ele>41.059</ele>
 </trkpt>
 <trkpt lat="52.27777900" lon="7.43124300">
  <ele>41.167</ele>
 </trkpt>
 <trkpt lat="52.27770200" lon="7.43131200">
  <ele>40.984</ele>
 </trkpt>
 <trkpt lat="52.27762000" lon="7.43116800">
  <ele>40.388</ele>
 </trkpt>
 <trkpt lat="52.27736400" lon="7.43071200">
  <ele>40.785</ele>
 </trkpt>
 <trkpt lat="52.27732200" lon="7.43059200">
  <ele>40.513</ele>
 </trkpt>
 <trkpt lat="52.27727400" lon="7.43068900">
  <ele>40.752</ele>
 </trkpt>
 <trkpt lat="52.27703200" lon="7.43100600">
  <ele>40.224</ele>
 </trkpt>
 <trkpt lat="52.27659400" lon="7.43167900">
  <ele>38.247</ele>
 </trkpt>
 <trkpt lat="52.27616300" lon="7.43226600">
  <ele>37.317</ele>
 </trkpt>
    </trkseg>
  </trk>

</gpx>
