<?xml version="1.0" encoding="UTF-8" standalone="no"?>
<gpx xmlns="http://www.topografix.com/GPX/1/1" creator="MapSource 6.16.3" version="1.1">

  <trk>
    <name>NW 2.02</name>
    <trkseg>
 <trkpt lat="51.79761200" lon="6.41703900">
  <ele>18.882</ele>
 </trkpt>
 <trkpt lat="51.79749400" lon="6.41732800">
  <ele>19.934</ele>
 </trkpt>
 <trkpt lat="51.79732900" lon="6.41776200">
  <ele>20.196</ele>
 </trkpt>
 <trkpt lat="51.79731400" lon="6.41794600">
  <ele>19.851</ele>
 </trkpt>
 <trkpt lat="51.79755100" lon="6.41839200">
  <ele>20.158</ele>
 </trkpt>
 <trkpt lat="51.79742800" lon="6.41855900">
  <ele>20.273</ele>
 </trkpt>
 <trkpt lat="51.79731500" lon="6.41875400">
  <ele>19.536</ele>
 </trkpt>
 <trkpt lat="51.79701100" lon="6.41921200">
  <ele>18.840</ele>
 </trkpt>
 <trkpt lat="51.79675400" lon="6.41954700">
  <ele>19.939</ele>
 </trkpt>
 <trkpt lat="51.79637300" lon="6.42029900">
  <ele>20.027</ele>
 </trkpt>
 <trkpt lat="51.79616300" lon="6.42076000">
  <ele>19.395</ele>
 </trkpt>
 <trkpt lat="51.79613500" lon="6.42083100">
  <ele>19.184</ele>
 </trkpt>
 <trkpt lat="51.79596500" lon="6.42131800">
  <ele>19.484</ele>
 </trkpt>
 <trkpt lat="51.79566300" lon="6.42255500">
  <ele>19.998</ele>
 </trkpt>
 <trkpt lat="51.79557000" lon="6.42314000">
  <ele>19.578</ele>
 </trkpt>
 <trkpt lat="51.79551000" lon="6.42436400">
  <ele>19.660</ele>
 </trkpt>
 <trkpt lat="51.79557900" lon="6.42547500">
  <ele>19.062</ele>
 </trkpt>
 <trkpt lat="51.79581900" lon="6.42664800">
  <ele>19.289</ele>
 </trkpt>
 <trkpt lat="51.79587400" lon="6.42682900">
  <ele>18.800</ele>
 </trkpt>
 <trkpt lat="51.79595000" lon="6.42704700">
  <ele>19.095</ele>
 </trkpt>
 <trkpt lat="51.79619900" lon="6.42773000">
  <ele>19.246</ele>
 </trkpt>
 <trkpt lat="51.79664200" lon="6.42864100">
  <ele>19.115</ele>
 </trkpt>
 <trkpt lat="51.79676000" lon="6.42884800">
  <ele>18.808</ele>
 </trkpt>
 <trkpt lat="51.79702400" lon="6.42925500">
  <ele>19.113</ele>
 </trkpt>
 <trkpt lat="51.79769100" lon="6.42997000">
  <ele>19.484</ele>
 </trkpt>
 <trkpt lat="51.79859000" lon="6.43054200">
  <ele>19.072</ele>
 </trkpt>
 <trkpt lat="51.79959900" lon="6.43084700">
  <ele>19.124</ele>
 </trkpt>
 <trkpt lat="51.80058100" lon="6.43112700">
  <ele>18.882</ele>
 </trkpt>
 <trkpt lat="51.80084900" lon="6.43121000">
  <ele>18.729</ele>
 </trkpt>
 <trkpt lat="51.80144600" lon="6.43137200">
  <ele>18.511</ele>
 </trkpt>
 <trkpt lat="51.80173000" lon="6.43147000">
  <ele>18.787</ele>
 </trkpt>
 <trkpt lat="51.80175900" lon="6.43152000">
  <ele>18.752</ele>
 </trkpt>
 <trkpt lat="51.80167900" lon="6.43183500">
  <ele>19.436</ele>
 </trkpt>
 <trkpt lat="51.80162800" lon="6.43214400">
  <ele>19.694</ele>
 </trkpt>
 <trkpt lat="51.80156300" lon="6.43390300">
  <ele>19.335</ele>
 </trkpt>
 <trkpt lat="51.80155200" lon="6.43564500">
  <ele>19.139</ele>
 </trkpt>
 <trkpt lat="51.80177100" lon="6.43755900">
  <ele>19.056</ele>
 </trkpt>
 <trkpt lat="51.80205600" lon="6.43857900">
  <ele>19.269</ele>
 </trkpt>
 <trkpt lat="51.80263100" lon="6.43993500">
  <ele>19.344</ele>
 </trkpt>
 <trkpt lat="51.80290400" lon="6.44110400">
  <ele>19.594</ele>
 </trkpt>
 <trkpt lat="51.80295500" lon="6.44244800">
  <ele>19.322</ele>
 </trkpt>
 <trkpt lat="51.80296000" lon="6.44404900">
  <ele>18.584</ele>
 </trkpt>
 <trkpt lat="51.80295700" lon="6.44477700">
  <ele>18.800</ele>
 </trkpt>
 <trkpt lat="51.80282100" lon="6.44499500">
  <ele>19.422</ele>
 </trkpt>
 <trkpt lat="51.80211300" lon="6.44489300">
  <ele>20.732</ele>
 </trkpt>
 <trkpt lat="51.80114500" lon="6.44477700">
  <ele>21.129</ele>
 </trkpt>
 <trkpt lat="51.80035900" lon="6.44463100">
  <ele>20.319</ele>
 </trkpt>
 <trkpt lat="51.80017900" lon="6.44459400">
  <ele>20.152</ele>
 </trkpt>
 <trkpt lat="51.79943800" lon="6.44410800">
  <ele>18.899</ele>
 </trkpt>
 <trkpt lat="51.79861500" lon="6.44398700">
  <ele>19.167</ele>
 </trkpt>
 <trkpt lat="51.79812100" lon="6.44349700">
  <ele>19.500</ele>
 </trkpt>
 <trkpt lat="51.79764700" lon="6.44325300">
  <ele>19.444</ele>
 </trkpt>
 <trkpt lat="51.79734200" lon="6.44325600">
  <ele>19.853</ele>
 </trkpt>
 <trkpt lat="51.79715900" lon="6.44317200">
  <ele>19.101</ele>
 </trkpt>
 <trkpt lat="51.79708300" lon="6.44306000">
  <ele>19.055</ele>
 </trkpt>
 <trkpt lat="51.79690800" lon="6.44290900">
  <ele>19.494</ele>
 </trkpt>
 <trkpt lat="51.79670900" lon="6.44265900">
  <ele>19.382</ele>
 </trkpt>
 <trkpt lat="51.79661400" lon="6.44246400">
  <ele>19.692</ele>
 </trkpt>
 <trkpt lat="51.79644100" lon="6.44231800">
  <ele>19.015</ele>
 </trkpt>
 <trkpt lat="51.79591600" lon="6.44180100">
  <ele>19.239</ele>
 </trkpt>
 <trkpt lat="51.79571500" lon="6.44155900">
  <ele>19.040</ele>
 </trkpt>
 <trkpt lat="51.79561600" lon="6.44129500">
  <ele>19.360</ele>
 </trkpt>
 <trkpt lat="51.79557300" lon="6.44105500">
  <ele>19.617</ele>
 </trkpt>
 <trkpt lat="51.79542200" lon="6.44114100">
  <ele>19.484</ele>
 </trkpt>
 <trkpt lat="51.79498100" lon="6.44188000">
  <ele>20.341</ele>
 </trkpt>
 <trkpt lat="51.79443100" lon="6.44265000">
  <ele>20.903</ele>
 </trkpt>
 <trkpt lat="51.79397700" lon="6.44331200">
  <ele>20.644</ele>
 </trkpt>
 <trkpt lat="51.79403000" lon="6.44344400">
  <ele>21.122</ele>
 </trkpt>
 <trkpt lat="51.79445900" lon="6.44410600">
  <ele>21.720</ele>
 </trkpt>
 <trkpt lat="51.79473500" lon="6.44485300">
  <ele>20.874</ele>
 </trkpt>
 <trkpt lat="51.79508400" lon="6.44570600">
  <ele>20.368</ele>
 </trkpt>
 <trkpt lat="51.79574900" lon="6.44704400">
  <ele>20.208</ele>
 </trkpt>
 <trkpt lat="51.79647900" lon="6.44832000">
  <ele>19.849</ele>
 </trkpt>
 <trkpt lat="51.79672100" lon="6.44870800">
  <ele>19.916</ele>
 </trkpt>
 <trkpt lat="51.79666900" lon="6.44896200">
  <ele>20.469</ele>
 </trkpt>
 <trkpt lat="51.79628100" lon="6.44955000">
  <ele>18.795</ele>
 </trkpt>
 <trkpt lat="51.79626100" lon="6.44963700">
  <ele>18.613</ele>
 </trkpt>
 <trkpt lat="51.79620800" lon="6.44989600">
  <ele>19.256</ele>
 </trkpt>
 <trkpt lat="51.79602200" lon="6.45018000">
  <ele>19.831</ele>
 </trkpt>
 <trkpt lat="51.79536600" lon="6.45074900">
  <ele>20.116</ele>
 </trkpt>
 <trkpt lat="51.79456400" lon="6.45160100">
  <ele>19.453</ele>
 </trkpt>
 <trkpt lat="51.79394100" lon="6.45191800">
  <ele>19.501</ele>
 </trkpt>
 <trkpt lat="51.79349500" lon="6.45182500">
  <ele>19.571</ele>
 </trkpt>
 <trkpt lat="51.79316000" lon="6.45193700">
  <ele>19.528</ele>
 </trkpt>
 <trkpt lat="51.79262200" lon="6.45266900">
  <ele>19.920</ele>
 </trkpt>
 <trkpt lat="51.79236400" lon="6.45357700">
  <ele>19.322</ele>
 </trkpt>
 <trkpt lat="51.79236700" lon="6.45372100">
  <ele>19.624</ele>
 </trkpt>
    </trkseg>
  </trk>

</gpx>
