<?xml version="1.0" encoding="UTF-8" standalone="no"?>
<gpx xmlns="http://www.topografix.com/GPX/1/1" creator="www.bahntrassenradeln.de" version="1.1">

  <trk>
    <name>NW 2.07 Teil 1</name>
    <trkseg>
 <trkpt lat="51.98263002" lon="7.22724798">
  <ele>98.961</ele>
 </trkpt>
 <trkpt lat="51.98258702" lon="7.22739802">
  <ele>98.370</ele>
 </trkpt>
 <trkpt lat="51.98223498" lon="7.22790797">
  <ele>96.584</ele>
 </trkpt>
 <trkpt lat="51.98173600" lon="7.22858297">
  <ele>97.026</ele>
 </trkpt>
 <trkpt lat="51.98129998" lon="7.22918797">
  <ele>97.088</ele>
 </trkpt>
 <trkpt lat="51.98110200" lon="7.22944697">
  <ele>97.719</ele>
 </trkpt>
 <trkpt lat="51.98108599" lon="7.22954303">
  <ele>97.879</ele>
 </trkpt>
 <trkpt lat="51.98124600" lon="7.22974604">
  <ele>96.947</ele>
 </trkpt>
 <trkpt lat="51.98188503" lon="7.23059102">
  <ele>96.074</ele>
 </trkpt>
 <trkpt lat="51.98257897" lon="7.23102202">
  <ele>94.556</ele>
 </trkpt>
 <trkpt lat="51.98318901" lon="7.23139501">
  <ele>93.009</ele>
 </trkpt>
 <trkpt lat="51.98329596" lon="7.23149501">
  <ele>92.304</ele>
 </trkpt>
 <trkpt lat="51.98348899" lon="7.23226304">
  <ele>93.330</ele>
 </trkpt>
 <trkpt lat="51.98353903" lon="7.23238600">
  <ele>93.433</ele>
 </trkpt>
 <trkpt lat="51.98398998" lon="7.23292404">
  <ele>92.409</ele>
 </trkpt>
 <trkpt lat="51.98486497" lon="7.23374203">
  <ele>92.180</ele>
 </trkpt>
 <trkpt lat="51.98534802" lon="7.23418300">
  <ele>92.831</ele>
 </trkpt>
 <trkpt lat="51.98553803" lon="7.23394504">
  <ele>93.396</ele>
 </trkpt>
 <trkpt lat="51.98597498" lon="7.23258901">
  <ele>94.092</ele>
 </trkpt>
 <trkpt lat="51.98609602" lon="7.23204997">
  <ele>93.857</ele>
 </trkpt>
 <trkpt lat="51.98607003" lon="7.23189298">
  <ele>94.053</ele>
 </trkpt>
 <trkpt lat="51.98571196" lon="7.23145503">
  <ele>96.894</ele>
 </trkpt>
 <trkpt lat="51.98576502" lon="7.23136299">
  <ele>96.452</ele>
 </trkpt>
 <trkpt lat="51.98592897" lon="7.23145301">
  <ele>97.842</ele>
 </trkpt>
 <trkpt lat="51.98607003" lon="7.23157799">
  <ele>98.643</ele>
 </trkpt>
 <trkpt lat="51.98628302" lon="7.23173800">
  <ele>98.506</ele>
 </trkpt>
 <trkpt lat="51.98675802" lon="7.23214301">
  <ele>98.361</ele>
 </trkpt>
 <trkpt lat="51.98706103" lon="7.23240796">
  <ele>98.995</ele>
 </trkpt>
 <trkpt lat="51.98767098" lon="7.23292496">
  <ele>99.503</ele>
 </trkpt>
 <trkpt lat="51.98828403" lon="7.23344497">
  <ele>100.556</ele>
 </trkpt>
 <trkpt lat="51.98875098" lon="7.23382702">
  <ele>99.954</ele>
 </trkpt>
 <trkpt lat="51.98932104" lon="7.23431099">
  <ele>100.745</ele>
 </trkpt>
 <trkpt lat="51.99011296" lon="7.23498196">
  <ele>100.760</ele>
 </trkpt>
 <trkpt lat="51.99067002" lon="7.23546602">
  <ele>100.866</ele>
 </trkpt>
 <trkpt lat="51.99131702" lon="7.23602903">
  <ele>102.116</ele>
 </trkpt>
 <trkpt lat="51.99185799" lon="7.23648702">
  <ele>103.259</ele>
 </trkpt>
 <trkpt lat="51.99209796" lon="7.23667502">
  <ele>103.555</ele>
 </trkpt>
 <trkpt lat="51.99253399" lon="7.23703603">
  <ele>103.274</ele>
 </trkpt>
 <trkpt lat="51.99346002" lon="7.23782502">
  <ele>102.925</ele>
 </trkpt>
 <trkpt lat="51.99415899" lon="7.23842299">
  <ele>103.852</ele>
 </trkpt>
 <trkpt lat="51.99474103" lon="7.23895499">
  <ele>104.448</ele>
 </trkpt>
 <trkpt lat="51.99521301" lon="7.23941398">
  <ele>103.832</ele>
 </trkpt>
 <trkpt lat="51.99572900" lon="7.23998403">
  <ele>104.559</ele>
 </trkpt>
 <trkpt lat="51.99651296" lon="7.24090897">
  <ele>105.309</ele>
 </trkpt>
 <trkpt lat="51.99708704" lon="7.24165396">
  <ele>105.724</ele>
 </trkpt>
 <trkpt lat="51.99746498" lon="7.24218898">
  <ele>106.224</ele>
 </trkpt>
 <trkpt lat="51.99759004" lon="7.24234899">
  <ele>106.500</ele>
 </trkpt>
 <trkpt lat="51.99769297" lon="7.24247899">
  <ele>106.713</ele>
 </trkpt>
 <trkpt lat="51.99776002" lon="7.24265601">
  <ele>106.538</ele>
 </trkpt>
 <trkpt lat="51.99785398" lon="7.24272600">
  <ele>106.260</ele>
 </trkpt>
 <trkpt lat="51.99802497" lon="7.24301099">
  <ele>106.318</ele>
 </trkpt>
 <trkpt lat="51.99856896" lon="7.24388204">
  <ele>106.393</ele>
 </trkpt>
 <trkpt lat="51.99914002" lon="7.24481402">
  <ele>106.151</ele>
 </trkpt>
 <trkpt lat="51.99957998" lon="7.24550502">
  <ele>107.149</ele>
 </trkpt>
 <trkpt lat="51.99981501" lon="7.24586704">
  <ele>107.594</ele>
 </trkpt>
 <trkpt lat="52.00019496" lon="7.24647498">
  <ele>107.576</ele>
 </trkpt>
 <trkpt lat="52.00029697" lon="7.24662703">
  <ele>107.129</ele>
 </trkpt>
 <trkpt lat="52.00072202" lon="7.24729699">
  <ele>107.437</ele>
 </trkpt>
 <trkpt lat="52.00123700" lon="7.24811900">
  <ele>108.281</ele>
 </trkpt>
 <trkpt lat="52.00168996" lon="7.24882401">
  <ele>108.631</ele>
 </trkpt>
 <trkpt lat="52.00225096" lon="7.24972104">
  <ele>108.425</ele>
 </trkpt>
 <trkpt lat="52.00284398" lon="7.25066199">
  <ele>109.758</ele>
 </trkpt>
 <trkpt lat="52.00352903" lon="7.25176698">
  <ele>110.408</ele>
 </trkpt>
 <trkpt lat="52.00405802" lon="7.25262503">
  <ele>110.053</ele>
 </trkpt>
 <trkpt lat="52.00465104" lon="7.25357302">
  <ele>110.180</ele>
 </trkpt>
 <trkpt lat="52.00493803" lon="7.25400000">
  <ele>110.637</ele>
 </trkpt>
 <trkpt lat="52.00531304" lon="7.25460098">
  <ele>110.255</ele>
 </trkpt>
 <trkpt lat="52.00561303" lon="7.25505603">
  <ele>110.133</ele>
 </trkpt>
 <trkpt lat="52.00603103" lon="7.25570697">
  <ele>110.735</ele>
 </trkpt>
 <trkpt lat="52.00647703" lon="7.25640996">
  <ele>112.107</ele>
 </trkpt>
 <trkpt lat="52.00651500" lon="7.25646998">
  <ele>112.986</ele>
 </trkpt>
 <trkpt lat="52.00659597" lon="7.25662303">
  <ele>112.988</ele>
 </trkpt>
 <trkpt lat="52.00671500" lon="7.25680299">
  <ele>112.719</ele>
 </trkpt>
 <trkpt lat="52.00713602" lon="7.25747203">
  <ele>111.829</ele>
 </trkpt>
 <trkpt lat="52.00775896" lon="7.25847300">
  <ele>111.416</ele>
 </trkpt>
 <trkpt lat="52.00825299" lon="7.25923399">
  <ele>110.988</ele>
 </trkpt>
 <trkpt lat="52.00893503" lon="7.26032297">
  <ele>111.191</ele>
 </trkpt>
 <trkpt lat="52.00957096" lon="7.26130399">
  <ele>110.112</ele>
 </trkpt>
 <trkpt lat="52.00973801" lon="7.26155796">
  <ele>109.436</ele>
 </trkpt>
 <trkpt lat="52.01019701" lon="7.26229800">
  <ele>108.612</ele>
 </trkpt>
 <trkpt lat="52.01053899" lon="7.26282396">
  <ele>108.858</ele>
 </trkpt>
 <trkpt lat="52.01116696" lon="7.26384203">
  <ele>108.541</ele>
 </trkpt>
 <trkpt lat="52.01148899" lon="7.26435903">
  <ele>109.406</ele>
 </trkpt>
 <trkpt lat="52.01174104" lon="7.26476697">
  <ele>108.905</ele>
 </trkpt>
 <trkpt lat="52.01255601" lon="7.26607203">
  <ele>108.087</ele>
 </trkpt>
 <trkpt lat="52.01294501" lon="7.26669297">
  <ele>107.959</ele>
 </trkpt>
 <trkpt lat="52.01367801" lon="7.26784699">
  <ele>107.262</ele>
 </trkpt>
 <trkpt lat="52.01395604" lon="7.26828301">
  <ele>107.964</ele>
 </trkpt>
 <trkpt lat="52.01417497" lon="7.26863204">
  <ele>107.740</ele>
 </trkpt>
 <trkpt lat="52.01445099" lon="7.26907703">
  <ele>108.041</ele>
 </trkpt>
 <trkpt lat="52.01473597" lon="7.26952404">
  <ele>108.040</ele>
 </trkpt>
 <trkpt lat="52.01499498" lon="7.26995797">
  <ele>106.751</ele>
 </trkpt>
 <trkpt lat="52.01542497" lon="7.27064202">
  <ele>106.914</ele>
 </trkpt>
 <trkpt lat="52.01608001" lon="7.27161197">
  <ele>106.295</ele>
 </trkpt>
 <trkpt lat="52.01670698" lon="7.27242602">
  <ele>105.850</ele>
 </trkpt>
 <trkpt lat="52.01742003" lon="7.27325801">
  <ele>105.187</ele>
 </trkpt>
 <trkpt lat="52.01764500" lon="7.27352397">
  <ele>105.101</ele>
 </trkpt>
 <trkpt lat="52.01779101" lon="7.27368498">
  <ele>104.513</ele>
 </trkpt>
 <trkpt lat="52.01829200" lon="7.27426199">
  <ele>104.207</ele>
 </trkpt>
 <trkpt lat="52.01907604" lon="7.27514000">
  <ele>104.575</ele>
 </trkpt>
 <trkpt lat="52.01918702" lon="7.27526296">
  <ele>103.983</ele>
 </trkpt>
 <trkpt lat="52.01930202" lon="7.27539103">
  <ele>104.251</ele>
 </trkpt>
 <trkpt lat="52.01942900" lon="7.27540503">
  <ele>103.957</ele>
 </trkpt>
 <trkpt lat="52.01953503" lon="7.27561299">
  <ele>104.072</ele>
 </trkpt>
 <trkpt lat="52.01992697" lon="7.27607500">
  <ele>103.362</ele>
 </trkpt>
 <trkpt lat="52.02046802" lon="7.27671898">
  <ele>103.381</ele>
 </trkpt>
 <trkpt lat="52.02114897" lon="7.27751702">
  <ele>102.829</ele>
 </trkpt>
 <trkpt lat="52.02150696" lon="7.27794802">
  <ele>102.860</ele>
 </trkpt>
 <trkpt lat="52.02187300" lon="7.27838497">
  <ele>103.237</ele>
 </trkpt>
 <trkpt lat="52.02239804" lon="7.27894102">
  <ele>103.036</ele>
 </trkpt>
 <trkpt lat="52.02287899" lon="7.27946799">
  <ele>103.715</ele>
 </trkpt>
 <trkpt lat="52.02351904" lon="7.28021499">
  <ele>103.239</ele>
 </trkpt>
 <trkpt lat="52.02394098" lon="7.28071698">
  <ele>103.104</ele>
 </trkpt>
 <trkpt lat="52.02459703" lon="7.28146900">
  <ele>103.590</ele>
 </trkpt>
 <trkpt lat="52.02540999" lon="7.28238196">
  <ele>103.093</ele>
 </trkpt>
 <trkpt lat="52.02599002" lon="7.28308302">
  <ele>102.876</ele>
 </trkpt>
 <trkpt lat="52.02642999" lon="7.28374997">
  <ele>102.591</ele>
 </trkpt>
 <trkpt lat="52.02654700" lon="7.28394904">
  <ele>102.999</ele>
 </trkpt>
 <trkpt lat="52.02652797" lon="7.28427501">
  <ele>102.764</ele>
 </trkpt>
 <trkpt lat="52.02659000" lon="7.28481498">
  <ele>102.164</ele>
 </trkpt>
 <trkpt lat="52.02664398" lon="7.28501597">
  <ele>102.268</ele>
 </trkpt>
 <trkpt lat="52.02666602" lon="7.28560899">
  <ele>102.829</ele>
 </trkpt>
 <trkpt lat="52.02681103" lon="7.28654098">
  <ele>103.893</ele>
 </trkpt>
 <trkpt lat="52.02704698" lon="7.28786901">
  <ele>104.338</ele>
 </trkpt>
 <trkpt lat="52.02719701" lon="7.28857099">
  <ele>104.495</ele>
 </trkpt>
 <trkpt lat="52.02746297" lon="7.28855196">
  <ele>103.452</ele>
 </trkpt>
 <trkpt lat="52.02792096" lon="7.28851399">
  <ele>101.979</ele>
 </trkpt>
 <trkpt lat="52.02799900" lon="7.28865297">
  <ele>101.731</ele>
 </trkpt>
 <trkpt lat="52.02823201" lon="7.28964798">
  <ele>101.351</ele>
 </trkpt>
 <trkpt lat="52.02854197" lon="7.29091197">
  <ele>101.292</ele>
 </trkpt>
 <trkpt lat="52.02867902" lon="7.29144498">
  <ele>100.993</ele>
 </trkpt>
 <trkpt lat="52.02887700" lon="7.29227303">
  <ele>100.654</ele>
 </trkpt>
 <trkpt lat="52.02925997" lon="7.29384698">
  <ele>100.046</ele>
 </trkpt>
 <trkpt lat="52.02955099" lon="7.29502900">
  <ele>100.404</ele>
 </trkpt>
 <trkpt lat="52.02989599" lon="7.29640799">
  <ele>99.340</ele>
 </trkpt>
 <trkpt lat="52.03003102" lon="7.29703202">
  <ele>99.530</ele>
 </trkpt>
 <trkpt lat="52.03024501" lon="7.29792302">
  <ele>98.368</ele>
 </trkpt>
 <trkpt lat="52.03064399" lon="7.29951197">
  <ele>97.911</ele>
 </trkpt>
 <trkpt lat="52.03093803" lon="7.30045703">
  <ele>97.435</ele>
 </trkpt>
 <trkpt lat="52.03105596" lon="7.30077596">
  <ele>97.914</ele>
 </trkpt>
 <trkpt lat="52.03137204" lon="7.30156403">
  <ele>97.303</ele>
 </trkpt>
 <trkpt lat="52.03159500" lon="7.30199704">
  <ele>97.831</ele>
 </trkpt>
 <trkpt lat="52.03190102" lon="7.30258302">
  <ele>97.884</ele>
 </trkpt>
 <trkpt lat="52.03242699" lon="7.30343596">
  <ele>96.890</ele>
 </trkpt>
 <trkpt lat="52.03303199" lon="7.30421699">
  <ele>98.288</ele>
 </trkpt>
 <trkpt lat="52.03320600" lon="7.30440902">
  <ele>97.892</ele>
 </trkpt>
 <trkpt lat="52.03335604" lon="7.30455402">
  <ele>97.841</ele>
 </trkpt>
 <trkpt lat="52.03387203" lon="7.30504302">
  <ele>97.722</ele>
 </trkpt>
 <trkpt lat="52.03416003" lon="7.30527696">
  <ele>97.878</ele>
 </trkpt>
 <trkpt lat="52.03431501" lon="7.30539003">
  <ele>98.324</ele>
 </trkpt>
 <trkpt lat="52.03454099" lon="7.30556496">
  <ele>98.133</ele>
 </trkpt>
 <trkpt lat="52.03468197" lon="7.30566999">
  <ele>97.983</ele>
 </trkpt>
 <trkpt lat="52.03512697" lon="7.30600300">
  <ele>98.055</ele>
 </trkpt>
 <trkpt lat="52.03534397" lon="7.30616502">
  <ele>98.092</ele>
 </trkpt>
 <trkpt lat="52.03589701" lon="7.30657004">
  <ele>98.136</ele>
 </trkpt>
 <trkpt lat="52.03674199" lon="7.30718401">
  <ele>97.207</ele>
 </trkpt>
 <trkpt lat="52.03759401" lon="7.30781601">
  <ele>96.679</ele>
 </trkpt>
 <trkpt lat="52.03812199" lon="7.30820904">
  <ele>96.972</ele>
 </trkpt>
 <trkpt lat="52.03880704" lon="7.30871497">
  <ele>97.301</ele>
 </trkpt>
 <trkpt lat="52.03966702" lon="7.30934998">
  <ele>96.920</ele>
 </trkpt>
 <trkpt lat="52.04034504" lon="7.30983596">
  <ele>97.213</ele>
 </trkpt>
 <trkpt lat="52.04077302" lon="7.31015397">
  <ele>97.395</ele>
 </trkpt>
 <trkpt lat="52.04115498" lon="7.31043502">
  <ele>96.577</ele>
 </trkpt>
 <trkpt lat="52.04188697" lon="7.31097800">
  <ele>97.226</ele>
 </trkpt>
 <trkpt lat="52.04242299" lon="7.31136801">
  <ele>97.056</ele>
 </trkpt>
 <trkpt lat="52.04289498" lon="7.31172097">
  <ele>96.974</ele>
 </trkpt>
 <trkpt lat="52.04319698" lon="7.31194301">
  <ele>96.773</ele>
 </trkpt>
 <trkpt lat="52.04377298" lon="7.31236897">
  <ele>96.551</ele>
 </trkpt>
 <trkpt lat="52.04420499" lon="7.31268698">
  <ele>96.664</ele>
 </trkpt>
 <trkpt lat="52.04473204" lon="7.31307699">
  <ele>97.034</ele>
 </trkpt>
 <trkpt lat="52.04531198" lon="7.31349198">
  <ele>97.731</ele>
 </trkpt>
 <trkpt lat="52.04563200" lon="7.31372600">
  <ele>97.701</ele>
 </trkpt>
 <trkpt lat="52.04634899" lon="7.31423596">
  <ele>97.774</ele>
 </trkpt>
 <trkpt lat="52.04720001" lon="7.31487097">
  <ele>97.082</ele>
 </trkpt>
 <trkpt lat="52.04791700" lon="7.31538897">
  <ele>96.807</ele>
 </trkpt>
 <trkpt lat="52.04889600" lon="7.31609800">
  <ele>97.451</ele>
 </trkpt>
 <trkpt lat="52.04941903" lon="7.31649497">
  <ele>96.803</ele>
 </trkpt>
 <trkpt lat="52.04983100" lon="7.31679898">
  <ele>97.421</ele>
 </trkpt>
 <trkpt lat="52.05037097" lon="7.31718304">
  <ele>97.347</ele>
 </trkpt>
 <trkpt lat="52.05074597" lon="7.31747800">
  <ele>96.902</ele>
 </trkpt>
 <trkpt lat="52.05123698" lon="7.31784697">
  <ele>97.135</ele>
 </trkpt>
 <trkpt lat="52.05200301" lon="7.31839699">
  <ele>97.277</ele>
 </trkpt>
 <trkpt lat="52.05254800" lon="7.31880703">
  <ele>97.426</ele>
 </trkpt>
 <trkpt lat="52.05273399" lon="7.31893603">
  <ele>97.557</ele>
 </trkpt>
 <trkpt lat="52.05306097" lon="7.31914298">
  <ele>97.121</ele>
 </trkpt>
 <trkpt lat="52.05344100" lon="7.31942000">
  <ele>97.003</ele>
 </trkpt>
 <trkpt lat="52.05408004" lon="7.31978101">
  <ele>96.969</ele>
 </trkpt>
 <trkpt lat="52.05431800" lon="7.31988603">
  <ele>97.273</ele>
 </trkpt>
 <trkpt lat="52.05480298" lon="7.32001000">
  <ele>96.789</ele>
 </trkpt>
 <trkpt lat="52.05526097" lon="7.32009399">
  <ele>97.038</ele>
 </trkpt>
 <trkpt lat="52.05565098" lon="7.32015501">
  <ele>97.388</ele>
 </trkpt>
 <trkpt lat="52.05581702" lon="7.32016699">
  <ele>97.739</ele>
 </trkpt>
 <trkpt lat="52.05608499" lon="7.32018803">
  <ele>97.655</ele>
 </trkpt>
 <trkpt lat="52.05646503" lon="7.32021200">
  <ele>97.353</ele>
 </trkpt>
 <trkpt lat="52.05681900" lon="7.32021703">
  <ele>96.985</ele>
 </trkpt>
 <trkpt lat="52.05718604" lon="7.32023204">
  <ele>97.277</ele>
 </trkpt>
 <trkpt lat="52.05759902" lon="7.32024897">
  <ele>97.619</ele>
 </trkpt>
 <trkpt lat="52.05791300" lon="7.32026800">
  <ele>97.644</ele>
 </trkpt>
 <trkpt lat="52.05834601" lon="7.32027403">
  <ele>97.238</ele>
 </trkpt>
 <trkpt lat="52.05883300" lon="7.32028702">
  <ele>97.860</ele>
 </trkpt>
 <trkpt lat="52.05913802" lon="7.32030697">
  <ele>97.364</ele>
 </trkpt>
 <trkpt lat="52.05952300" lon="7.32028300">
  <ele>96.673</ele>
 </trkpt>
 <trkpt lat="52.05987202" lon="7.32029197">
  <ele>97.216</ele>
 </trkpt>
 <trkpt lat="52.06046001" lon="7.32030999">
  <ele>97.780</ele>
 </trkpt>
 <trkpt lat="52.06094197" lon="7.32033698">
  <ele>98.377</ele>
 </trkpt>
 <trkpt lat="52.06137003" lon="7.32036699">
  <ele>98.772</ele>
 </trkpt>
 <trkpt lat="52.06181503" lon="7.32037998">
  <ele>98.858</ele>
 </trkpt>
 <trkpt lat="52.06222298" lon="7.32042700">
  <ele>98.981</ele>
 </trkpt>
 <trkpt lat="52.06277601" lon="7.32048400">
  <ele>99.416</ele>
 </trkpt>
 <trkpt lat="52.06310400" lon="7.32050696">
  <ele>99.346</ele>
 </trkpt>
 <trkpt lat="52.06358696" lon="7.32054602">
  <ele>98.797</ele>
 </trkpt>
 <trkpt lat="52.06470201" lon="7.32059397">
  <ele>99.932</ele>
 </trkpt>
 <trkpt lat="52.06534700" lon="7.32061702">
  <ele>100.045</ele>
 </trkpt>
 <trkpt lat="52.06560901" lon="7.32063001">
  <ele>99.865</ele>
 </trkpt>
 <trkpt lat="52.06634302" lon="7.32065096">
  <ele>100.516</ele>
 </trkpt>
 <trkpt lat="52.06658802" lon="7.32065499">
  <ele>100.668</ele>
 </trkpt>
 <trkpt lat="52.06743602" lon="7.32068097">
  <ele>100.120</ele>
 </trkpt>
 <trkpt lat="52.06769602" lon="7.32068600">
  <ele>100.007</ele>
 </trkpt>
 <trkpt lat="52.06807799" lon="7.32070603">
  <ele>97.391</ele>
 </trkpt>
 <trkpt lat="52.06823297" lon="7.32069899">
  <ele>96.368</ele>
 </trkpt>
 <trkpt lat="52.06827404" lon="7.32069799">
  <ele>95.195</ele>
 </trkpt>
 <trkpt lat="52.06841100" lon="7.32055801">
  <ele>95.247</ele>
 </trkpt>
 <trkpt lat="52.06864896" lon="7.32007404">
  <ele>96.184</ele>
 </trkpt>
 <trkpt lat="52.06880000" lon="7.31989400">
  <ele>97.322</ele>
 </trkpt>
 <trkpt lat="52.06891098" lon="7.31994404">
  <ele>96.597</ele>
 </trkpt>
 <trkpt lat="52.06901299" lon="7.32003699">
  <ele>96.014</ele>
 </trkpt>
 <trkpt lat="52.06919697" lon="7.32020496">
  <ele>96.466</ele>
 </trkpt>
 <trkpt lat="52.06935698" lon="7.32035299">
  <ele>96.239</ele>
 </trkpt>
 <trkpt lat="52.06937400" lon="7.32046204">
  <ele>96.607</ele>
 </trkpt>
 <trkpt lat="52.06962604" lon="7.32054996">
  <ele>97.262</ele>
 </trkpt>
 <trkpt lat="52.07008101" lon="7.32066899">
  <ele>99.651</ele>
 </trkpt>
 <trkpt lat="52.07023499" lon="7.32066303">
  <ele>99.860</ele>
 </trkpt>
 <trkpt lat="52.07078903" lon="7.32069296">
  <ele>99.073</ele>
 </trkpt>
 <trkpt lat="52.07147299" lon="7.32070796">
  <ele>99.029</ele>
 </trkpt>
 <trkpt lat="52.07223399" lon="7.32073403">
  <ele>97.804</ele>
 </trkpt>
 <trkpt lat="52.07283698" lon="7.32074501">
  <ele>97.374</ele>
 </trkpt>
 <trkpt lat="52.07390098" lon="7.32077996">
  <ele>96.465</ele>
 </trkpt>
 <trkpt lat="52.07477203" lon="7.32080896">
  <ele>96.707</ele>
 </trkpt>
 <trkpt lat="52.07556596" lon="7.32083101">
  <ele>96.256</ele>
 </trkpt>
 <trkpt lat="52.07653700" lon="7.32086102">
  <ele>95.818</ele>
 </trkpt>
 <trkpt lat="52.07711200" lon="7.32087300">
  <ele>95.829</ele>
 </trkpt>
 <trkpt lat="52.07777803" lon="7.32088901">
  <ele>95.426</ele>
 </trkpt>
 <trkpt lat="52.07844397" lon="7.32090301">
  <ele>95.196</ele>
 </trkpt>
 <trkpt lat="52.07880397" lon="7.32091600">
  <ele>94.946</ele>
 </trkpt>
 <trkpt lat="52.07911997" lon="7.32093000">
  <ele>94.837</ele>
 </trkpt>
 <trkpt lat="52.07962900" lon="7.32102798">
  <ele>94.444</ele>
 </trkpt>
 <trkpt lat="52.08019302" lon="7.32116503">
  <ele>94.317</ele>
 </trkpt>
 <trkpt lat="52.08068697" lon="7.32133401">
  <ele>93.317</ele>
 </trkpt>
 <trkpt lat="52.08107103" lon="7.32151598">
  <ele>93.399</ele>
 </trkpt>
 <trkpt lat="52.08155299" lon="7.32176400">
  <ele>93.215</ele>
 </trkpt>
 <trkpt lat="52.08225598" lon="7.32213699">
  <ele>93.224</ele>
 </trkpt>
 <trkpt lat="52.08298797" lon="7.32251200">
  <ele>92.057</ele>
 </trkpt>
 <trkpt lat="52.08330598" lon="7.32267302">
  <ele>91.791</ele>
 </trkpt>
 <trkpt lat="52.08386002" lon="7.32296797">
  <ele>91.795</ele>
 </trkpt>
 <trkpt lat="52.08453803" lon="7.32332203">
  <ele>91.864</ele>
 </trkpt>
 <trkpt lat="52.08547102" lon="7.32380600">
  <ele>91.775</ele>
 </trkpt>
 <trkpt lat="52.08627300" lon="7.32423004">
  <ele>91.755</ele>
 </trkpt>
 <trkpt lat="52.08661096" lon="7.32441201">
  <ele>91.165</ele>
 </trkpt>
 <trkpt lat="52.08726601" lon="7.32474301">
  <ele>90.242</ele>
 </trkpt>
 <trkpt lat="52.08787898" lon="7.32506496">
  <ele>90.086</ele>
 </trkpt>
 <trkpt lat="52.08870803" lon="7.32547500">
  <ele>89.783</ele>
 </trkpt>
 <trkpt lat="52.08962903" lon="7.32595797">
  <ele>89.034</ele>
 </trkpt>
 <trkpt lat="52.09013698" lon="7.32623700">
  <ele>89.360</ele>
 </trkpt>
 <trkpt lat="52.09051701" lon="7.32645099">
  <ele>88.238</ele>
 </trkpt>
 <trkpt lat="52.09082798" lon="7.32662701">
  <ele>88.473</ele>
 </trkpt>
 <trkpt lat="52.09140700" lon="7.32690303">
  <ele>88.138</ele>
 </trkpt>
 <trkpt lat="52.09223396" lon="7.32732204">
  <ele>87.733</ele>
 </trkpt>
 <trkpt lat="52.09315698" lon="7.32779402">
  <ele>87.101</ele>
 </trkpt>
 <trkpt lat="52.09396097" lon="7.32821899">
  <ele>86.736</ele>
 </trkpt>
 <trkpt lat="52.09465097" lon="7.32858301">
  <ele>86.899</ele>
 </trkpt>
 <trkpt lat="52.09542696" lon="7.32899599">
  <ele>87.332</ele>
 </trkpt>
 <trkpt lat="52.09604697" lon="7.32930796">
  <ele>85.593</ele>
 </trkpt>
 <trkpt lat="52.09683403" lon="7.32973200">
  <ele>85.217</ele>
 </trkpt>
 <trkpt lat="52.09732002" lon="7.32996896">
  <ele>82.824</ele>
 </trkpt>
 <trkpt lat="52.09801303" lon="7.33032301">
  <ele>83.276</ele>
 </trkpt>
 <trkpt lat="52.09858996" lon="7.33061596">
  <ele>82.542</ele>
 </trkpt>
 <trkpt lat="52.09897997" lon="7.33080799">
  <ele>82.802</ele>
 </trkpt>
 <trkpt lat="52.09981699" lon="7.33129699">
  <ele>82.705</ele>
 </trkpt>
 <trkpt lat="52.10024002" lon="7.33153302">
  <ele>81.660</ele>
 </trkpt>
 <trkpt lat="52.10092700" lon="7.33190702">
  <ele>80.965</ele>
 </trkpt>
 <trkpt lat="52.10164600" lon="7.33227197">
  <ele>80.893</ele>
 </trkpt>
 <trkpt lat="52.10244597" lon="7.33268998">
  <ele>80.796</ele>
 </trkpt>
 <trkpt lat="52.10340503" lon="7.33315400">
  <ele>79.826</ele>
 </trkpt>
 <trkpt lat="52.10434698" lon="7.33354602">
  <ele>80.119</ele>
 </trkpt>
 <trkpt lat="52.10483800" lon="7.33374702">
  <ele>79.081</ele>
 </trkpt>
 <trkpt lat="52.10519196" lon="7.33391298">
  <ele>79.818</ele>
 </trkpt>
 <trkpt lat="52.10565699" lon="7.33410803">
  <ele>79.643</ele>
 </trkpt>
 <trkpt lat="52.10634003" lon="7.33438103">
  <ele>78.852</ele>
 </trkpt>
 <trkpt lat="52.10679299" lon="7.33457800">
  <ele>78.333</ele>
 </trkpt>
 <trkpt lat="52.10765298" lon="7.33492903">
  <ele>78.898</ele>
 </trkpt>
 <trkpt lat="52.10852704" lon="7.33527898">
  <ele>78.215</ele>
 </trkpt>
 <trkpt lat="52.10958802" lon="7.33573202">
  <ele>77.920</ele>
 </trkpt>
 <trkpt lat="52.11072603" lon="7.33620702">
  <ele>76.824</ele>
 </trkpt>
 <trkpt lat="52.11174603" lon="7.33662402">
  <ele>75.541</ele>
 </trkpt>
 <trkpt lat="52.11244902" lon="7.33693399">
  <ele>74.700</ele>
 </trkpt>
 <trkpt lat="52.11265898" lon="7.33696299">
  <ele>75.061</ele>
 </trkpt>
 <trkpt lat="52.11279502" lon="7.33713398">
  <ele>75.135</ele>
 </trkpt>
 <trkpt lat="52.11293399" lon="7.33713498">
  <ele>75.544</ele>
 </trkpt>
 <trkpt lat="52.11298403" lon="7.33715803">
  <ele>74.980</ele>
 </trkpt>
 <trkpt lat="52.11313097" lon="7.33721101">
  <ele>74.848</ele>
 </trkpt>
 <trkpt lat="52.11368904" lon="7.33744302">
  <ele>74.090</ele>
 </trkpt>
 <trkpt lat="52.11449102" lon="7.33778198">
  <ele>73.590</ele>
 </trkpt>
 <trkpt lat="52.11504598" lon="7.33802497">
  <ele>73.665</ele>
 </trkpt>
 <trkpt lat="52.11555200" lon="7.33823301">
  <ele>73.748</ele>
 </trkpt>
 <trkpt lat="52.11574403" lon="7.33831298">
  <ele>73.734</ele>
 </trkpt>
 <trkpt lat="52.11587696" lon="7.33835304">
  <ele>73.303</ele>
 </trkpt>
 <trkpt lat="52.11601200" lon="7.33838900">
  <ele>72.515</ele>
 </trkpt>
 <trkpt lat="52.11615801" lon="7.33843300">
  <ele>72.794</ele>
 </trkpt>
 <trkpt lat="52.11666503" lon="7.33864699">
  <ele>72.823</ele>
 </trkpt>
 <trkpt lat="52.11737699" lon="7.33894397">
  <ele>73.015</ele>
 </trkpt>
 <trkpt lat="52.11767497" lon="7.33913097">
  <ele>73.015</ele>
 </trkpt>
 <trkpt lat="52.11810596" lon="7.33931403">
  <ele>72.586</ele>
 </trkpt>
 <trkpt lat="52.11855699" lon="7.33950899">
  <ele>72.792</ele>
 </trkpt>
 <trkpt lat="52.11907298" lon="7.33972197">
  <ele>72.143</ele>
 </trkpt>
 <trkpt lat="52.11962401" lon="7.33994803">
  <ele>72.594</ele>
 </trkpt>
 <trkpt lat="52.12054200" lon="7.34033603">
  <ele>73.057</ele>
 </trkpt>
 <trkpt lat="52.12121800" lon="7.34061498">
  <ele>73.067</ele>
 </trkpt>
 <trkpt lat="52.12182200" lon="7.34087097">
  <ele>73.321</ele>
 </trkpt>
 <trkpt lat="52.12237202" lon="7.34109904">
  <ele>73.661</ele>
 </trkpt>
 <trkpt lat="52.12299798" lon="7.34133298">
  <ele>74.118</ele>
 </trkpt>
 <trkpt lat="52.12339302" lon="7.34146600">
  <ele>74.017</ele>
 </trkpt>
 <trkpt lat="52.12395603" lon="7.34162802">
  <ele>74.339</ele>
 </trkpt>
 <trkpt lat="52.12457897" lon="7.34179004">
  <ele>74.244</ele>
 </trkpt>
 <trkpt lat="52.12528196" lon="7.34190797">
  <ele>75.008</ele>
 </trkpt>
 <trkpt lat="52.12590097" lon="7.34197997">
  <ele>75.112</ele>
 </trkpt>
 <trkpt lat="52.12657403" lon="7.34200596">
  <ele>75.354</ele>
 </trkpt>
 <trkpt lat="52.12723302" lon="7.34198903">
  <ele>74.959</ele>
 </trkpt>
 <trkpt lat="52.12778002" lon="7.34195801">
  <ele>74.791</ele>
 </trkpt>
 <trkpt lat="52.12877302" lon="7.34191803">
  <ele>74.548</ele>
 </trkpt>
 <trkpt lat="52.12941801" lon="7.34187998">
  <ele>75.141</ele>
 </trkpt>
 <trkpt lat="52.13022603" lon="7.34182298">
  <ele>74.745</ele>
 </trkpt>
 <trkpt lat="52.13083698" lon="7.34179800">
  <ele>74.389</ele>
 </trkpt>
 <trkpt lat="52.13115600" lon="7.34178199">
  <ele>74.589</ele>
 </trkpt>
 <trkpt lat="52.13145196" lon="7.34175098">
  <ele>74.055</ele>
 </trkpt>
 <trkpt lat="52.13151701" lon="7.34164696">
  <ele>74.742</ele>
 </trkpt>
 <trkpt lat="52.13163100" lon="7.34134899">
  <ele>74.531</ele>
 </trkpt>
 <trkpt lat="52.13189696" lon="7.34153498">
  <ele>74.618</ele>
 </trkpt>
 <trkpt lat="52.13203602" lon="7.34153900">
  <ele>74.083</ele>
 </trkpt>
 <trkpt lat="52.13273196" lon="7.34148100">
  <ele>73.183</ele>
 </trkpt>
 <trkpt lat="52.13356404" lon="7.34141101">
  <ele>72.428</ele>
 </trkpt>
 <trkpt lat="52.13363302" lon="7.34140900">
  <ele>72.589</ele>
 </trkpt>
 <trkpt lat="52.13377702" lon="7.34144303">
  <ele>73.039</ele>
 </trkpt>
 <trkpt lat="52.13419100" lon="7.34159399">
  <ele>75.397</ele>
 </trkpt>
 <trkpt lat="52.13472401" lon="7.34155904">
  <ele>75.044</ele>
 </trkpt>
 <trkpt lat="52.13543002" lon="7.34150003">
  <ele>75.378</ele>
 </trkpt>
 <trkpt lat="52.13629000" lon="7.34143700">
  <ele>75.971</ele>
 </trkpt>
 <trkpt lat="52.13678604" lon="7.34139400">
  <ele>76.528</ele>
 </trkpt>
 <trkpt lat="52.13748300" lon="7.34127003">
  <ele>76.846</ele>
 </trkpt>
 <trkpt lat="52.13782104" lon="7.34119803">
  <ele>77.856</ele>
 </trkpt>
 <trkpt lat="52.13809001" lon="7.34108797">
  <ele>77.547</ele>
 </trkpt>
 <trkpt lat="52.13883600" lon="7.34079402">
  <ele>78.675</ele>
 </trkpt>
 <trkpt lat="52.13964703" lon="7.34030602">
  <ele>77.466</ele>
 </trkpt>
 <trkpt lat="52.14021298" lon="7.33984502">
  <ele>77.691</ele>
 </trkpt>
 <trkpt lat="52.14038498" lon="7.33973597">
  <ele>77.719</ele>
 </trkpt>
 <trkpt lat="52.14046997" lon="7.33959901">
  <ele>77.951</ele>
 </trkpt>
 <trkpt lat="52.14063501" lon="7.33932098">
  <ele>76.774</ele>
 </trkpt>
 <trkpt lat="52.14084003" lon="7.33902100">
  <ele>75.512</ele>
 </trkpt>
 <trkpt lat="52.14095201" lon="7.33882201">
  <ele>73.261</ele>
 </trkpt>
 <trkpt lat="52.14121403" lon="7.33871497">
  <ele>72.005</ele>
 </trkpt>
 <trkpt lat="52.14126499" lon="7.33855303">
  <ele>72.411</ele>
 </trkpt>
 <trkpt lat="52.14140899" lon="7.33818800">
  <ele>74.152</ele>
 </trkpt>
 <trkpt lat="52.14167504" lon="7.33780101">
  <ele>76.517</ele>
 </trkpt>
 <trkpt lat="52.14195600" lon="7.33733498">
  <ele>76.066</ele>
 </trkpt>
 <trkpt lat="52.14243301" lon="7.33640098">
  <ele>75.381</ele>
 </trkpt>
 <trkpt lat="52.14300902" lon="7.33540798">
  <ele>75.749</ele>
 </trkpt>
 <trkpt lat="52.14319903" lon="7.33515099">
  <ele>75.876</ele>
 </trkpt>
 <trkpt lat="52.14380203" lon="7.33436904">
  <ele>75.253</ele>
 </trkpt>
 <trkpt lat="52.14430704" lon="7.33373403">
  <ele>75.021</ele>
 </trkpt>
 <trkpt lat="52.14476796" lon="7.33318702">
  <ele>74.901</ele>
 </trkpt>
 <trkpt lat="52.14488296" lon="7.33302500">
  <ele>74.965</ele>
 </trkpt>
 <trkpt lat="52.14533801" lon="7.33257799">
  <ele>74.532</ele>
 </trkpt>
 <trkpt lat="52.14594604" lon="7.33210601">
  <ele>74.336</ele>
 </trkpt>
 <trkpt lat="52.14639103" lon="7.33176604">
  <ele>74.657</ele>
 </trkpt>
 <trkpt lat="52.14679403" lon="7.33131702">
  <ele>73.910</ele>
 </trkpt>
 <trkpt lat="52.14724003" lon="7.33083196">
  <ele>73.906</ele>
 </trkpt>
 <trkpt lat="52.14766500" lon="7.33038998">
  <ele>73.821</ele>
 </trkpt>
 <trkpt lat="52.14788401" lon="7.33016803">
  <ele>73.573</ele>
 </trkpt>
 <trkpt lat="52.14818400" lon="7.32972102">
  <ele>74.254</ele>
 </trkpt>
 <trkpt lat="52.14824997" lon="7.32957903">
  <ele>74.526</ele>
 </trkpt>
 <trkpt lat="52.14830001" lon="7.32938298">
  <ele>74.212</ele>
 </trkpt>
 <trkpt lat="52.14830202" lon="7.32910001">
  <ele>74.857</ele>
 </trkpt>
 <trkpt lat="52.14848097" lon="7.32901200">
  <ele>74.528</ele>
 </trkpt>
 <trkpt lat="52.14849103" lon="7.32897101">
  <ele>75.164</ele>
 </trkpt>
 <trkpt lat="52.14866596" lon="7.32857203">
  <ele>75.443</ele>
 </trkpt>
 <trkpt lat="52.14889403" lon="7.32828101">
  <ele>76.129</ele>
 </trkpt>
 <trkpt lat="52.14916502" lon="7.32796996">
  <ele>75.855</ele>
 </trkpt>
 <trkpt lat="52.14950298" lon="7.32757802">
  <ele>76.113</ele>
 </trkpt>
 <trkpt lat="52.14959200" lon="7.32747803">
  <ele>76.659</ele>
 </trkpt>
 <trkpt lat="52.14968503" lon="7.32763200">
  <ele>77.187</ele>
 </trkpt>
 <trkpt lat="52.14982199" lon="7.32795697">
  <ele>77.026</ele>
 </trkpt>
 <trkpt lat="52.14993398" lon="7.32796300">
  <ele>76.662</ele>
 </trkpt>
 <trkpt lat="52.15020496" lon="7.32795202">
  <ele>75.824</ele>
 </trkpt>
 <trkpt lat="52.15049900" lon="7.32787499">
  <ele>74.592</ele>
 </trkpt>
 <trkpt lat="52.15111197" lon="7.32775697">
  <ele>74.034</ele>
 </trkpt>
 <trkpt lat="52.15155202" lon="7.32773803">
  <ele>73.842</ele>
 </trkpt>
 <trkpt lat="52.15210799" lon="7.32781900">
  <ele>74.040</ele>
 </trkpt>
 <trkpt lat="52.15278399" lon="7.32802603">
  <ele>73.055</ele>
 </trkpt>
 <trkpt lat="52.15313100" lon="7.32823399">
  <ele>72.683</ele>
 </trkpt>
 <trkpt lat="52.15367700" lon="7.32864998">
  <ele>72.249</ele>
 </trkpt>
 <trkpt lat="52.15430799" lon="7.32926203">
  <ele>71.764</ele>
 </trkpt>
 <trkpt lat="52.15454897" lon="7.32953796">
  <ele>71.702</ele>
 </trkpt>
 <trkpt lat="52.15482700" lon="7.32987198">
  <ele>71.259</ele>
 </trkpt>
 <trkpt lat="52.15514400" lon="7.33020399">
  <ele>70.558</ele>
 </trkpt>
 <trkpt lat="52.15564298" lon="7.33078804">
  <ele>69.996</ele>
 </trkpt>
 <trkpt lat="52.15635301" lon="7.33162799">
  <ele>69.266</ele>
 </trkpt>
 <trkpt lat="52.15686497" lon="7.33220701">
  <ele>68.719</ele>
 </trkpt>
 <trkpt lat="52.15757199" lon="7.33295803">
  <ele>68.408</ele>
 </trkpt>
 <trkpt lat="52.15791397" lon="7.33336899">
  <ele>68.132</ele>
 </trkpt>
 <trkpt lat="52.15840003" lon="7.33389898">
  <ele>67.770</ele>
 </trkpt>
 <trkpt lat="52.15858502" lon="7.33411700">
  <ele>67.689</ele>
 </trkpt>
 <trkpt lat="52.15887504" lon="7.33447800">
  <ele>67.197</ele>
 </trkpt>
 <trkpt lat="52.15916002" lon="7.33480599">
  <ele>66.661</ele>
 </trkpt>
 <trkpt lat="52.15956101" lon="7.33530404">
  <ele>66.685</ele>
 </trkpt>
 <trkpt lat="52.16017004" lon="7.33629897">
  <ele>65.929</ele>
 </trkpt>
 <trkpt lat="52.16169999" lon="7.33915896">
  <ele>64.012</ele>
 </trkpt>
 <trkpt lat="52.16211397" lon="7.33993898">
  <ele>63.892</ele>
 </trkpt>
 <trkpt lat="52.16262401" lon="7.34089997">
  <ele>63.091</ele>
 </trkpt>
 <trkpt lat="52.16295501" lon="7.34151696">
  <ele>63.145</ele>
 </trkpt>
 <trkpt lat="52.16344401" lon="7.34240502">
  <ele>62.470</ele>
 </trkpt>
 <trkpt lat="52.16372598" lon="7.34296401">
  <ele>62.263</ele>
 </trkpt>
 <trkpt lat="52.16379798" lon="7.34313902">
  <ele>62.433</ele>
 </trkpt>
 <trkpt lat="52.16381298" lon="7.34373297">
  <ele>62.979</ele>
 </trkpt>
 <trkpt lat="52.16401901" lon="7.34380396">
  <ele>62.153</ele>
 </trkpt>
 <trkpt lat="52.16418497" lon="7.34381603">
  <ele>62.156</ele>
 </trkpt>
 <trkpt lat="52.16422504" lon="7.34386104">
  <ele>62.550</ele>
 </trkpt>
 <trkpt lat="52.16433501" lon="7.34404804">
  <ele>62.630</ele>
 </trkpt>
 <trkpt lat="52.16481999" lon="7.34485203">
  <ele>62.510</ele>
 </trkpt>
 <trkpt lat="52.16519298" lon="7.34544899">
  <ele>62.321</ele>
 </trkpt>
 <trkpt lat="52.16580302" lon="7.34640000">
  <ele>62.494</ele>
 </trkpt>
 <trkpt lat="52.16623602" lon="7.34705304">
  <ele>62.179</ele>
 </trkpt>
 <trkpt lat="52.16653702" lon="7.34750801">
  <ele>62.253</ele>
 </trkpt>
 <trkpt lat="52.16666300" lon="7.34767104">
  <ele>62.186</ele>
 </trkpt>
 <trkpt lat="52.16711503" lon="7.34830303">
  <ele>61.852</ele>
 </trkpt>
 <trkpt lat="52.16743497" lon="7.34870796">
  <ele>61.810</ele>
 </trkpt>
 <trkpt lat="52.16789003" lon="7.34929997">
  <ele>62.045</ele>
 </trkpt>
 <trkpt lat="52.16829898" lon="7.34989299">
  <ele>61.833</ele>
 </trkpt>
 <trkpt lat="52.16840199" lon="7.35004999">
  <ele>61.852</ele>
 </trkpt>
 <trkpt lat="52.16878496" lon="7.35058601">
  <ele>62.199</ele>
 </trkpt>
 <trkpt lat="52.16902502" lon="7.35087996">
  <ele>61.438</ele>
 </trkpt>
 <trkpt lat="52.16972600" lon="7.35182703">
  <ele>60.956</ele>
 </trkpt>
 <trkpt lat="52.17033796" lon="7.35265500">
  <ele>61.803</ele>
 </trkpt>
 <trkpt lat="52.17146197" lon="7.35405000">
  <ele>61.385</ele>
 </trkpt>
 <trkpt lat="52.17179700" lon="7.35449902">
  <ele>61.543</ele>
 </trkpt>
 <trkpt lat="52.17246898" lon="7.35540804">
  <ele>60.989</ele>
 </trkpt>
 <trkpt lat="52.17334396" lon="7.35655996">
  <ele>61.363</ele>
 </trkpt>
 <trkpt lat="52.17389197" lon="7.35729103">
  <ele>61.409</ele>
 </trkpt>
 <trkpt lat="52.17431199" lon="7.35783996">
  <ele>61.849</ele>
 </trkpt>
 <trkpt lat="52.17453101" lon="7.35813601">
  <ele>61.994</ele>
 </trkpt>
 <trkpt lat="52.17483502" lon="7.35854203">
  <ele>61.117</ele>
 </trkpt>
 <trkpt lat="52.17532201" lon="7.35920001">
  <ele>61.284</ele>
 </trkpt>
 <trkpt lat="52.17584202" lon="7.35990099">
  <ele>61.297</ele>
 </trkpt>
 <trkpt lat="52.17633203" lon="7.36056500">
  <ele>61.262</ele>
 </trkpt>
 <trkpt lat="52.17689998" lon="7.36132398">
  <ele>61.203</ele>
 </trkpt>
 <trkpt lat="52.17740499" lon="7.36199303">
  <ele>60.983</ele>
 </trkpt>
 <trkpt lat="52.17815802" lon="7.36303004">
  <ele>60.442</ele>
 </trkpt>
 <trkpt lat="52.17864702" lon="7.36364803">
  <ele>60.376</ele>
 </trkpt>
 <trkpt lat="52.17891399" lon="7.36401399">
  <ele>60.278</ele>
 </trkpt>
 <trkpt lat="52.17925798" lon="7.36449301">
  <ele>59.902</ele>
 </trkpt>
 <trkpt lat="52.17966601" lon="7.36505200">
  <ele>59.598</ele>
 </trkpt>
 <trkpt lat="52.18000799" lon="7.36551502">
  <ele>59.751</ele>
 </trkpt>
 <trkpt lat="52.18020304" lon="7.36575499">
  <ele>60.033</ele>
 </trkpt>
 <trkpt lat="52.18062800" lon="7.36631599">
  <ele>59.399</ele>
 </trkpt>
 <trkpt lat="52.18097703" lon="7.36675998">
  <ele>59.853</ele>
 </trkpt>
 <trkpt lat="52.18134197" lon="7.36722099">
  <ele>59.527</ele>
 </trkpt>
 <trkpt lat="52.18188697" lon="7.36793504">
  <ele>59.314</ele>
 </trkpt>
 <trkpt lat="52.18241201" lon="7.36862001">
  <ele>58.856</ele>
 </trkpt>
 <trkpt lat="52.18292104" lon="7.36931504">
  <ele>58.823</ele>
 </trkpt>
 <trkpt lat="52.18347198" lon="7.37004803">
  <ele>58.734</ele>
 </trkpt>
 <trkpt lat="52.18404698" lon="7.37082596">
  <ele>58.248</ele>
 </trkpt>
 <trkpt lat="52.18463900" lon="7.37161101">
  <ele>58.449</ele>
 </trkpt>
 <trkpt lat="52.18509698" lon="7.37222498">
  <ele>58.171</ele>
 </trkpt>
 <trkpt lat="52.18537602" lon="7.37260301">
  <ele>58.951</ele>
 </trkpt>
 <trkpt lat="52.18575102" lon="7.37309997">
  <ele>58.236</ele>
 </trkpt>
 <trkpt lat="52.18623499" lon="7.37375996">
  <ele>58.472</ele>
 </trkpt>
 <trkpt lat="52.18654403" lon="7.37417000">
  <ele>58.318</ele>
 </trkpt>
 <trkpt lat="52.18680697" lon="7.37448198">
  <ele>58.542</ele>
 </trkpt>
 <trkpt lat="52.18708500" lon="7.37486604">
  <ele>58.285</ele>
 </trkpt>
 <trkpt lat="52.18763804" lon="7.37564304">
  <ele>57.480</ele>
 </trkpt>
 <trkpt lat="52.18814800" lon="7.37634402">
  <ele>58.408</ele>
 </trkpt>
 <trkpt lat="52.18861403" lon="7.37696403">
  <ele>57.635</ele>
 </trkpt>
 <trkpt lat="52.18885099" lon="7.37726603">
  <ele>57.702</ele>
 </trkpt>
 <trkpt lat="52.18926396" lon="7.37780800">
  <ele>57.537</ele>
 </trkpt>
 <trkpt lat="52.18995899" lon="7.37874501">
  <ele>58.598</ele>
 </trkpt>
 <trkpt lat="52.19029200" lon="7.37918297">
  <ele>57.860</ele>
 </trkpt>
 <trkpt lat="52.19066299" lon="7.37967800">
  <ele>57.501</ele>
 </trkpt>
 <trkpt lat="52.19140001" lon="7.38066103">
  <ele>58.047</ele>
 </trkpt>
 <trkpt lat="52.19168600" lon="7.38103897">
  <ele>57.801</ele>
 </trkpt>
 <trkpt lat="52.19212404" lon="7.38161900">
  <ele>57.737</ele>
 </trkpt>
 <trkpt lat="52.19295502" lon="7.38273396">
  <ele>57.618</ele>
 </trkpt>
 <trkpt lat="52.19388901" lon="7.38396702">
  <ele>56.949</ele>
 </trkpt>
 <trkpt lat="52.19441003" lon="7.38467898">
  <ele>57.428</ele>
 </trkpt>
 <trkpt lat="52.19467197" lon="7.38506799">
  <ele>56.893</ele>
 </trkpt>
 <trkpt lat="52.19488897" lon="7.38536303">
  <ele>56.670</ele>
 </trkpt>
 <trkpt lat="52.19549398" lon="7.38615403">
  <ele>55.920</ele>
 </trkpt>
 <trkpt lat="52.19600301" lon="7.38685098">
  <ele>56.163</ele>
 </trkpt>
 <trkpt lat="52.19677197" lon="7.38783502">
  <ele>56.159</ele>
 </trkpt>
 <trkpt lat="52.19723498" lon="7.38843600">
  <ele>56.400</ele>
 </trkpt>
 <trkpt lat="52.19731998" lon="7.38859199">
  <ele>56.616</ele>
 </trkpt>
 <trkpt lat="52.19734001" lon="7.38872400">
  <ele>56.238</ele>
 </trkpt>
 <trkpt lat="52.19738703" lon="7.38877798">
  <ele>56.573</ele>
 </trkpt>
 <trkpt lat="52.19746599" lon="7.38877103">
  <ele>56.462</ele>
 </trkpt>
 <trkpt lat="52.19768400" lon="7.38899600">
  <ele>56.458</ele>
 </trkpt>
 <trkpt lat="52.19825397" lon="7.38976403">
  <ele>56.017</ele>
 </trkpt>
 <trkpt lat="52.19887700" lon="7.39063701">
  <ele>55.905</ele>
 </trkpt>
 <trkpt lat="52.19944202" lon="7.39136598">
  <ele>55.533</ele>
 </trkpt>
 <trkpt lat="52.19991401" lon="7.39206897">
  <ele>56.153</ele>
 </trkpt>
 <trkpt lat="52.20037501" lon="7.39270298">
  <ele>55.567</ele>
 </trkpt>
 <trkpt lat="52.20082998" lon="7.39333296">
  <ele>55.405</ele>
 </trkpt>
 <trkpt lat="52.20118001" lon="7.39376304">
  <ele>55.215</ele>
 </trkpt>
 <trkpt lat="52.20175300" lon="7.39452898">
  <ele>55.298</ele>
 </trkpt>
 <trkpt lat="52.20248097" lon="7.39546498">
  <ele>55.046</ele>
 </trkpt>
 <trkpt lat="52.20293996" lon="7.39602598">
  <ele>55.839</ele>
 </trkpt>
 <trkpt lat="52.20317298" lon="7.39633100">
  <ele>55.744</ele>
 </trkpt>
 <trkpt lat="52.20361101" lon="7.39690600">
  <ele>56.065</ele>
 </trkpt>
 <trkpt lat="52.20409398" lon="7.39755199">
  <ele>54.935</ele>
 </trkpt>
 <trkpt lat="52.20460804" lon="7.39821198">
  <ele>54.974</ele>
 </trkpt>
 <trkpt lat="52.20511196" lon="7.39889503">
  <ele>55.065</ele>
 </trkpt>
 <trkpt lat="52.20563399" lon="7.39959701">
  <ele>55.602</ele>
 </trkpt>
 <trkpt lat="52.20612701" lon="7.40026899">
  <ele>55.077</ele>
 </trkpt>
 <trkpt lat="52.20659799" lon="7.40090501">
  <ele>55.768</ele>
 </trkpt>
 <trkpt lat="52.20681399" lon="7.40122000">
  <ele>54.865</ele>
 </trkpt>
 <trkpt lat="52.20711197" lon="7.40167396">
  <ele>54.238</ele>
 </trkpt>
 <trkpt lat="52.20750701" lon="7.40223597">
  <ele>54.776</ele>
 </trkpt>
 <trkpt lat="52.20759904" lon="7.40240201">
  <ele>55.656</ele>
 </trkpt>
 <trkpt lat="52.20779803" lon="7.40262598">
  <ele>54.921</ele>
 </trkpt>
 <trkpt lat="52.20830102" lon="7.40329804">
  <ele>54.369</ele>
 </trkpt>
 <trkpt lat="52.20860696" lon="7.40368696">
  <ele>54.671</ele>
 </trkpt>
 <trkpt lat="52.20911499" lon="7.40432600">
  <ele>54.742</ele>
 </trkpt>
 <trkpt lat="52.20994597" lon="7.40539704">
  <ele>54.927</ele>
 </trkpt>
 <trkpt lat="52.21049298" lon="7.40610396">
  <ele>54.459</ele>
 </trkpt>
 <trkpt lat="52.21112296" lon="7.40693503">
  <ele>54.189</ele>
 </trkpt>
 <trkpt lat="52.21174004" lon="7.40777498">
  <ele>54.473</ele>
 </trkpt>
 <trkpt lat="52.21212904" lon="7.40826398">
  <ele>54.178</ele>
 </trkpt>
 <trkpt lat="52.21256196" lon="7.40883504">
  <ele>54.475</ele>
 </trkpt>
 <trkpt lat="52.21318197" lon="7.40966602">
  <ele>53.761</ele>
 </trkpt>
 <trkpt lat="52.21359998" lon="7.41023599">
  <ele>53.863</ele>
 </trkpt>
 <trkpt lat="52.21405403" lon="7.41087603">
  <ele>53.638</ele>
 </trkpt>
 <trkpt lat="52.21453599" lon="7.41152303">
  <ele>52.755</ele>
 </trkpt>
 <trkpt lat="52.21512004" lon="7.41225997">
  <ele>52.783</ele>
 </trkpt>
 <trkpt lat="52.21580300" lon="7.41315700">
  <ele>52.703</ele>
 </trkpt>
 <trkpt lat="52.21645997" lon="7.41404003">
  <ele>51.506</ele>
 </trkpt>
 <trkpt lat="52.21727100" lon="7.41512700">
  <ele>51.357</ele>
 </trkpt>
 <trkpt lat="52.21810400" lon="7.41623601">
  <ele>51.174</ele>
 </trkpt>
 <trkpt lat="52.21880900" lon="7.41719398">
  <ele>51.135</ele>
 </trkpt>
 <trkpt lat="52.21905098" lon="7.41753696">
  <ele>51.152</ele>
 </trkpt>
 <trkpt lat="52.21971600" lon="7.41841799">
  <ele>51.218</ele>
 </trkpt>
 <trkpt lat="52.22032897" lon="7.41925400">
  <ele>51.639</ele>
 </trkpt>
 <trkpt lat="52.22108401" lon="7.42024801">
  <ele>51.158</ele>
 </trkpt>
 <trkpt lat="52.22150596" lon="7.42083097">
  <ele>51.794</ele>
 </trkpt>
 <trkpt lat="52.22172196" lon="7.42113004">
  <ele>50.880</ele>
 </trkpt>
 <trkpt lat="52.22225497" lon="7.42183696">
  <ele>50.391</ele>
 </trkpt>
 <trkpt lat="52.22280499" lon="7.42256301">
  <ele>50.934</ele>
 </trkpt>
 <trkpt lat="52.22324797" lon="7.42314496">
  <ele>50.875</ele>
 </trkpt>
 <trkpt lat="52.22407501" lon="7.42424701">
  <ele>51.069</ele>
 </trkpt>
 <trkpt lat="52.22480399" lon="7.42522996">
  <ele>51.587</ele>
 </trkpt>
 <trkpt lat="52.22555702" lon="7.42623202">
  <ele>51.019</ele>
 </trkpt>
 <trkpt lat="52.22597997" lon="7.42679897">
  <ele>50.493</ele>
 </trkpt>
 <trkpt lat="52.22652496" lon="7.42754404">
  <ele>49.840</ele>
 </trkpt>
 <trkpt lat="52.22698102" lon="7.42813001">
  <ele>50.397</ele>
 </trkpt>
 <trkpt lat="52.22743900" lon="7.42871096">
  <ele>49.560</ele>
 </trkpt>
 <trkpt lat="52.22801300" lon="7.42950800">
  <ele>49.701</ele>
 </trkpt>
 <trkpt lat="52.22874700" lon="7.43048600">
  <ele>48.737</ele>
 </trkpt>
 <trkpt lat="52.22936198" lon="7.43131598">
  <ele>47.484</ele>
 </trkpt>
 <trkpt lat="52.23001904" lon="7.43219398">
  <ele>47.998</ele>
 </trkpt>
 <trkpt lat="52.23047904" lon="7.43281499">
  <ele>47.367</ele>
 </trkpt>
 <trkpt lat="52.23093401" lon="7.43341598">
  <ele>47.139</ele>
 </trkpt>
 <trkpt lat="52.23154396" lon="7.43423003">
  <ele>47.078</ele>
 </trkpt>
 <trkpt lat="52.23200899" lon="7.43488499">
  <ele>47.177</ele>
 </trkpt>
 <trkpt lat="52.23238299" lon="7.43538396">
  <ele>47.450</ele>
 </trkpt>
 <trkpt lat="52.23299998" lon="7.43619801">
  <ele>47.249</ele>
 </trkpt>
 <trkpt lat="52.23349200" lon="7.43688801">
  <ele>47.207</ele>
 </trkpt>
 <trkpt lat="52.23393800" lon="7.43748103">
  <ele>47.022</ele>
 </trkpt>
 <trkpt lat="52.23470603" lon="7.43848301">
  <ele>47.028</ele>
 </trkpt>
 <trkpt lat="52.23535102" lon="7.43934500">
  <ele>46.829</ele>
 </trkpt>
 <trkpt lat="52.23585100" lon="7.43999401">
  <ele>47.373</ele>
 </trkpt>
 <trkpt lat="52.23612400" lon="7.44037597">
  <ele>46.875</ele>
 </trkpt>
 <trkpt lat="52.23641200" lon="7.44075400">
  <ele>46.853</ele>
 </trkpt>
 <trkpt lat="52.23692296" lon="7.44144198">
  <ele>46.909</ele>
 </trkpt>
 <trkpt lat="52.23781304" lon="7.44262802">
  <ele>46.473</ele>
 </trkpt>
 <trkpt lat="52.23869397" lon="7.44380199">
  <ele>46.467</ele>
 </trkpt>
 <trkpt lat="52.23899597" lon="7.44423299">
  <ele>46.545</ele>
 </trkpt>
 <trkpt lat="52.23937802" lon="7.44474102">
  <ele>46.125</ele>
 </trkpt>
 <trkpt lat="52.23974397" lon="7.44523999">
  <ele>46.033</ele>
 </trkpt>
 <trkpt lat="52.24022401" lon="7.44585799">
  <ele>45.932</ele>
 </trkpt>
 <trkpt lat="52.24045082" lon="7.44615429">
  <ele>51.087</ele>
 </trkpt>
 <trkpt lat="52.24097016" lon="7.44687346">
  <ele>51.087</ele>
 </trkpt>
 <trkpt lat="52.24135858" lon="7.44737344">
  <ele>50.607</ele>
 </trkpt>
 <trkpt lat="52.24294594" lon="7.44951803">
  <ele>50.607</ele>
 </trkpt>
 <trkpt lat="52.24304762" lon="7.44963773">
  <ele>50.126</ele>
 </trkpt>
 <trkpt lat="52.24344785" lon="7.45032538">
  <ele>50.126</ele>
 </trkpt>
 <trkpt lat="52.24363234" lon="7.45075218">
  <ele>51.087</ele>
 </trkpt>
 <trkpt lat="52.24371700" lon="7.45095737">
  <ele>50.126</ele>
 </trkpt>
 <trkpt lat="52.24399636" lon="7.45186312">
  <ele>49.645</ele>
 </trkpt>
 <trkpt lat="52.24417054" lon="7.45283358">
  <ele>49.645</ele>
 </trkpt>
 <trkpt lat="52.24424715" lon="7.45367956">
  <ele>49.645</ele>
 </trkpt>
 <trkpt lat="52.24428579" lon="7.45447182">
  <ele>49.645</ele>
 </trkpt>
 <trkpt lat="52.24430063" lon="7.45468824">
  <ele>50.126</ele>
 </trkpt>
 <trkpt lat="52.24439727" lon="7.45543582">
  <ele>49.645</ele>
 </trkpt>
 <trkpt lat="52.24444346" lon="7.45570170">
  <ele>49.645</ele>
 </trkpt>
 <trkpt lat="52.24449165" lon="7.45590823">
  <ele>50.126</ele>
 </trkpt>
 <trkpt lat="52.24477404" lon="7.45687818">
  <ele>49.165</ele>
 </trkpt>
 <trkpt lat="52.24510487" lon="7.45764948">
  <ele>50.126</ele>
 </trkpt>
 <trkpt lat="52.24530604" lon="7.45801309">
  <ele>51.568</ele>
 </trkpt>
 <trkpt lat="52.24543453" lon="7.45819028">
  <ele>51.087</ele>
 </trkpt>
 <trkpt lat="52.24580510" lon="7.45872723">
  <ele>50.126</ele>
 </trkpt>
 <trkpt lat="52.24616770" lon="7.45915228">
  <ele>51.568</ele>
 </trkpt>
 <trkpt lat="52.24636300" lon="7.45936358">
  <ele>52.049</ele>
 </trkpt>
 <trkpt lat="52.24642527" lon="7.45941103">
  <ele>51.087</ele>
 </trkpt>
 <trkpt lat="52.24665686" lon="7.45964446">
  <ele>51.087</ele>
 </trkpt>
 <trkpt lat="52.24694093" lon="7.45986088">
  <ele>50.607</ele>
 </trkpt>
 <trkpt lat="52.24718350" lon="7.46000656">
  <ele>51.087</ele>
 </trkpt>
 <trkpt lat="52.24739590" lon="7.46012994">
  <ele>50.607</ele>
 </trkpt>
 <trkpt lat="52.24749564" lon="7.46020982">
  <ele>50.607</ele>
 </trkpt>
 <trkpt lat="52.24763277" lon="7.46022348">
  <ele>51.568</ele>
 </trkpt>
 <trkpt lat="52.24783326" lon="7.46023396">
  <ele>53.010</ele>
 </trkpt>
 <trkpt lat="52.24824674" lon="7.46032323">
  <ele>53.010</ele>
 </trkpt>
 <trkpt lat="52.24875527" lon="7.46032792">
  <ele>52.529</ele>
 </trkpt>
 <trkpt lat="52.24918803" lon="7.46021393">
  <ele>52.529</ele>
 </trkpt>
 <trkpt lat="52.24941518" lon="7.46012273">
  <ele>52.529</ele>
 </trkpt>
 <trkpt lat="52.24983185" lon="7.45994193">
  <ele>51.087</ele>
 </trkpt>
 <trkpt lat="52.25031615" lon="7.45974152">
  <ele>51.087</ele>
 </trkpt>
 <trkpt lat="52.25090238" lon="7.45942645">
  <ele>50.607</ele>
 </trkpt>
 <trkpt lat="52.25131569" lon="7.45930499">
  <ele>50.607</ele>
 </trkpt>
 <trkpt lat="52.25138174" lon="7.45942393">
  <ele>50.607</ele>
 </trkpt>
 <trkpt lat="52.25163152" lon="7.45956508">
  <ele>50.607</ele>
 </trkpt>
 <trkpt lat="52.25242688" lon="7.45918153">
  <ele>49.645</ele>
 </trkpt>
 <trkpt lat="52.25332987" lon="7.45864308">
  <ele>50.126</ele>
 </trkpt>
 <trkpt lat="52.25389598" lon="7.45826497">
  <ele>50.607</ele>
 </trkpt>
 <trkpt lat="52.25452412" lon="7.45782265">
  <ele>50.126</ele>
 </trkpt>
 <trkpt lat="52.25524463" lon="7.45717624">
  <ele>50.126</ele>
 </trkpt>
 <trkpt lat="52.25592867" lon="7.45652832">
  <ele>50.607</ele>
 </trkpt>
 <trkpt lat="52.25652538" lon="7.45596665">
  <ele>49.645</ele>
 </trkpt>
 <trkpt lat="52.25731119" lon="7.45522862">
  <ele>48.684</ele>
 </trkpt>
 <trkpt lat="52.25807209" lon="7.45449512">
  <ele>49.165</ele>
 </trkpt>
 <trkpt lat="52.25880442" lon="7.45382080">
  <ele>49.645</ele>
 </trkpt>
 <trkpt lat="52.25948629" lon="7.45317916">
  <ele>49.645</ele>
 </trkpt>
 <trkpt lat="52.26009825" lon="7.45263007">
  <ele>50.126</ele>
 </trkpt>
 <trkpt lat="52.26072773" lon="7.45196546">
  <ele>49.645</ele>
 </trkpt>
 <trkpt lat="52.26125026" lon="7.45135166">
  <ele>48.684</ele>
 </trkpt>
 <trkpt lat="52.26145210" lon="7.45111017">
  <ele>48.684</ele>
 </trkpt>
 <trkpt lat="52.26155846" lon="7.45096785">
  <ele>49.165</ele>
 </trkpt>
 <trkpt lat="52.26193112" lon="7.45047684">
  <ele>48.684</ele>
 </trkpt>
 <trkpt lat="52.26181512" lon="7.45011038">
  <ele>49.645</ele>
 </trkpt>
 <trkpt lat="52.26155235" lon="7.44940429">
  <ele>50.607</ele>
 </trkpt>
 <trkpt lat="52.26157816" lon="7.44904655">
  <ele>50.607</ele>
 </trkpt>
 <trkpt lat="52.26196566" lon="7.44869258">
  <ele>51.087</ele>
 </trkpt>
 <trkpt lat="52.26249916" lon="7.44819813">
  <ele>51.087</ele>
 </trkpt>
 <trkpt lat="52.26311624" lon="7.44762498">
  <ele>50.607</ele>
 </trkpt>
 <trkpt lat="52.26360566" lon="7.44715962">
  <ele>51.087</ele>
 </trkpt>
 <trkpt lat="52.26404445" lon="7.44671479">
  <ele>50.607</ele>
 </trkpt>
 <trkpt lat="52.26415937" lon="7.44661219">
  <ele>50.607</ele>
 </trkpt>
 <trkpt lat="52.26429448" lon="7.44647825">
  <ele>50.607</ele>
 </trkpt>
 <trkpt lat="52.26471324" lon="7.44606678">
  <ele>51.087</ele>
 </trkpt>
 <trkpt lat="52.26502564" lon="7.44577794">
  <ele>51.568</ele>
 </trkpt>
 <trkpt lat="52.26512438" lon="7.44564392">
  <ele>51.568</ele>
 </trkpt>
 <trkpt lat="52.26541917" lon="7.44528207">
  <ele>48.203</ele>
 </trkpt>
 <trkpt lat="52.26546519" lon="7.44523144">
  <ele>48.203</ele>
 </trkpt>
 <trkpt lat="52.26554808" lon="7.44514033">
  <ele>47.242</ele>
 </trkpt>
 <trkpt lat="52.26562813" lon="7.44493129">
  <ele>46.281</ele>
 </trkpt>
 <trkpt lat="52.26572268" lon="7.44497714">
  <ele>46.281</ele>
 </trkpt>
 <trkpt lat="52.26589987" lon="7.44538341">
  <ele>45.800</ele>
 </trkpt>
 <trkpt lat="52.26615518" lon="7.44584450">
  <ele>45.800</ele>
 </trkpt>
 <trkpt lat="52.26616256" lon="7.44590392">
  <ele>46.281</ele>
 </trkpt>
 <trkpt lat="52.26643858" lon="7.44667958">
  <ele>46.761</ele>
 </trkpt>
 <trkpt lat="52.26650873" lon="7.44700614">
  <ele>46.281</ele>
 </trkpt>
 <trkpt lat="52.26657738" lon="7.44720102">
  <ele>47.242</ele>
 </trkpt>
 <trkpt lat="52.26662599" lon="7.44729146">
  <ele>47.723</ele>
 </trkpt>
 <trkpt lat="52.26677310" lon="7.44752884">
  <ele>47.242</ele>
 </trkpt>
 <trkpt lat="52.26708625" lon="7.44840374">
  <ele>46.281</ele>
 </trkpt>
 <trkpt lat="52.26717409" lon="7.44864514">
  <ele>46.761</ele>
 </trkpt>
 <trkpt lat="52.26747106" lon="7.44933179">
  <ele>46.281</ele>
 </trkpt>
 <trkpt lat="52.26751775" lon="7.44942399">
  <ele>46.761</ele>
 </trkpt>
 <trkpt lat="52.26764398" lon="7.44943555">
  <ele>46.281</ele>
 </trkpt>
 <trkpt lat="52.26805762" lon="7.44942089">
  <ele>45.800</ele>
 </trkpt>
 <trkpt lat="52.26846532" lon="7.44941854">
  <ele>47.723</ele>
 </trkpt>
 <trkpt lat="52.26851997" lon="7.44941301">
  <ele>40.945</ele>
 </trkpt>
 <trkpt lat="52.26871099" lon="7.44933103">
  <ele>41.418</ele>
 </trkpt>
 <trkpt lat="52.26884997" lon="7.44924202">
  <ele>41.016</ele>
 </trkpt>
 <trkpt lat="52.26893303" lon="7.44939901">
  <ele>40.364</ele>
 </trkpt>
 <trkpt lat="52.26881200" lon="7.45038900">
  <ele>38.448</ele>
 </trkpt>
 <trkpt lat="52.26877201" lon="7.45159901">
  <ele>36.514</ele>
 </trkpt>
 <trkpt lat="52.26878400" lon="7.45211299">
  <ele>35.438</ele>
 </trkpt>
 <trkpt lat="52.26880303" lon="7.45264004">
  <ele>34.006</ele>
 </trkpt>
 <trkpt lat="52.26883999" lon="7.45368401">
  <ele>33.018</ele>
 </trkpt>
 <trkpt lat="52.26886497" lon="7.45393898">
  <ele>32.924</ele>
 </trkpt>
 <trkpt lat="52.26896698" lon="7.45427904">
  <ele>32.468</ele>
 </trkpt>
 <trkpt lat="52.26912498" lon="7.45432002">
  <ele>32.643</ele>
 </trkpt>
 <trkpt lat="52.26967801" lon="7.45424601">
  <ele>32.024</ele>
 </trkpt>
 <trkpt lat="52.27032300" lon="7.45414099">
  <ele>31.434</ele>
 </trkpt>
 <trkpt lat="52.27087604" lon="7.45397704">
  <ele>31.234</ele>
 </trkpt>
 <trkpt lat="52.27149798" lon="7.45358401">
  <ele>31.361</ele>
 </trkpt>
 <trkpt lat="52.27167903" lon="7.45341402">
  <ele>31.290</ele>
 </trkpt>
 <trkpt lat="52.27215202" lon="7.45268103">
  <ele>31.496</ele>
 </trkpt>
 <trkpt lat="52.27216400" lon="7.45240903">
  <ele>31.428</ele>
 </trkpt>
 <trkpt lat="52.27185999" lon="7.45207401">
  <ele>31.419</ele>
 </trkpt>
 <trkpt lat="52.27186703" lon="7.45184703">
  <ele>31.174</ele>
 </trkpt>
 <trkpt lat="52.27196300" lon="7.45162600">
  <ele>30.712</ele>
 </trkpt>
 <trkpt lat="52.27230700" lon="7.45080901">
  <ele>31.264</ele>
 </trkpt>
 <trkpt lat="52.27251696" lon="7.45045798">
  <ele>31.373</ele>
 </trkpt>
 <trkpt lat="52.27268703" lon="7.45030602">
  <ele>30.753</ele>
 </trkpt>
 <trkpt lat="52.27282500" lon="7.45023502">
  <ele>31.066</ele>
 </trkpt>
 <trkpt lat="52.27295601" lon="7.45001902">
  <ele>31.558</ele>
 </trkpt>
 <trkpt lat="52.27335398" lon="7.44898997">
  <ele>30.877</ele>
 </trkpt>
 <trkpt lat="52.27368004" lon="7.44826301">
  <ele>31.349</ele>
 </trkpt>
 <trkpt lat="52.27382697" lon="7.44790996">
  <ele>31.197</ele>
 </trkpt>
 <trkpt lat="52.27391699" lon="7.44769396">
  <ele>31.111</ele>
 </trkpt>
 <trkpt lat="52.27441002" lon="7.44692501">
  <ele>31.614</ele>
 </trkpt>
 <trkpt lat="52.27471998" lon="7.44652997">
  <ele>31.342</ele>
 </trkpt>
 <trkpt lat="52.27523999" lon="7.44583502">
  <ele>31.101</ele>
 </trkpt>
 <trkpt lat="52.27580703" lon="7.44512600">
  <ele>30.534</ele>
 </trkpt>
 <trkpt lat="52.27636199" lon="7.44441496">
  <ele>31.119</ele>
 </trkpt>
 <trkpt lat="52.27678603" lon="7.44384801">
  <ele>29.834</ele>
 </trkpt>
 <trkpt lat="52.27746002" lon="7.44300404">
  <ele>30.829</ele>
 </trkpt>
 <trkpt lat="52.27771701" lon="7.44278502">
  <ele>31.478</ele>
 </trkpt>
 <trkpt lat="52.27816503" lon="7.44240004">
  <ele>32.170</ele>
 </trkpt>
 <trkpt lat="52.27835697" lon="7.44213601">
  <ele>31.542</ele>
 </trkpt>
 <trkpt lat="52.27862603" lon="7.44179101">
  <ele>30.395</ele>
 </trkpt>
 <trkpt lat="52.27885100" lon="7.44151700">
  <ele>29.820</ele>
 </trkpt>
 <trkpt lat="52.27910397" lon="7.44113898">
  <ele>31.539</ele>
 </trkpt>
 <trkpt lat="52.27961199" lon="7.44042099">
  <ele>30.998</ele>
 </trkpt>
 <trkpt lat="52.27980402" lon="7.44022904">
  <ele>30.076</ele>
 </trkpt>
 <trkpt lat="52.27989497" lon="7.44005796">
  <ele>30.097</ele>
 </trkpt>
 <trkpt lat="52.28018599" lon="7.43967298">
  <ele>31.504</ele>
 </trkpt>
 <trkpt lat="52.28038497" lon="7.43940904">
  <ele>30.930</ele>
 </trkpt>
 <trkpt lat="52.28057398" lon="7.43907502">
  <ele>31.376</ele>
 </trkpt>
 <trkpt lat="52.28058396" lon="7.43895901">
  <ele>30.654</ele>
 </trkpt>
 <trkpt lat="52.28048799" lon="7.43852600">
  <ele>30.758</ele>
 </trkpt>
 <trkpt lat="52.28043904" lon="7.43837002">
  <ele>30.113</ele>
 </trkpt>
 <trkpt lat="52.28043200" lon="7.43798596">
  <ele>31.976</ele>
 </trkpt>
 <trkpt lat="52.28044901" lon="7.43777499">
  <ele>33.297</ele>
 </trkpt>
 <trkpt lat="52.28037500" lon="7.43705196">
  <ele>35.110</ele>
 </trkpt>
 <trkpt lat="52.28020702" lon="7.43635903">
  <ele>37.648</ele>
 </trkpt>
 <trkpt lat="52.28001198" lon="7.43558999">
  <ele>40.311</ele>
 </trkpt>
 <trkpt lat="52.27990502" lon="7.43493997">
  <ele>40.226</ele>
 </trkpt>
 <trkpt lat="52.27986203" lon="7.43455600">
  <ele>40.783</ele>
 </trkpt>
 <trkpt lat="52.27965902" lon="7.43433103">
  <ele>41.117</ele>
 </trkpt>
 <trkpt lat="52.27949196" lon="7.43438903">
  <ele>39.955</ele>
 </trkpt>
 <trkpt lat="52.27875796" lon="7.43448098">
  <ele>39.411</ele>
 </trkpt>
 <trkpt lat="52.27813602" lon="7.43458500">
  <ele>39.329</ele>
 </trkpt>
 <trkpt lat="52.27776999" lon="7.43488499">
  <ele>39.037</ele>
 </trkpt>
 <trkpt lat="52.27755499" lon="7.43498901">
  <ele>38.354</ele>
 </trkpt>
 <trkpt lat="52.27737101" lon="7.43505204">
  <ele>38.632</ele>
 </trkpt>
 <trkpt lat="52.27715400" lon="7.43510401">
  <ele>37.724</ele>
 </trkpt>
 <trkpt lat="52.27700396" lon="7.43521901">
  <ele>37.779</ele>
 </trkpt>
 <trkpt lat="52.27675301" lon="7.43539302">
  <ele>38.282</ele>
 </trkpt>
    </trkseg>
  </trk>

  <trk>
    <name>NW 2.07 Teil 2</name>
    <trkseg>
 <trkpt lat="52.24379998" lon="7.45106902">
  <ele>43.556</ele>
 </trkpt>
 <trkpt lat="52.24396803" lon="7.45092401">
  <ele>42.784</ele>
 </trkpt>
 <trkpt lat="52.24413902" lon="7.45107899">
  <ele>42.629</ele>
 </trkpt>
 <trkpt lat="52.24455703" lon="7.45166003">
  <ele>42.599</ele>
 </trkpt>
 <trkpt lat="52.24494704" lon="7.45220804">
  <ele>42.814</ele>
 </trkpt>
 <trkpt lat="52.24537502" lon="7.45279603">
  <ele>42.417</ele>
 </trkpt>
 <trkpt lat="52.24592102" lon="7.45352400">
  <ele>42.422</ele>
 </trkpt>
 <trkpt lat="52.24641102" lon="7.45416999">
  <ele>42.031</ele>
 </trkpt>
 <trkpt lat="52.24690002" lon="7.45482897">
  <ele>41.528</ele>
 </trkpt>
 <trkpt lat="52.24727604" lon="7.45533398">
  <ele>41.372</ele>
 </trkpt>
 <trkpt lat="52.24757703" lon="7.45573103">
  <ele>42.093</ele>
 </trkpt>
 <trkpt lat="52.24770703" lon="7.45589800">
  <ele>41.344</ele>
 </trkpt>
 <trkpt lat="52.24799797" lon="7.45602499">
  <ele>41.410</ele>
 </trkpt>
    </trkseg>
  </trk>

</gpx>
