<?xml version="1.0" encoding="UTF-8" standalone="no"?>
<gpx xmlns="http://www.topografix.com/GPX/1/1" creator="MapSource 6.16.3" version="1.1">

<trk>
  <name>NW 3.15*</name>
<trkseg>
 <trkpt lat="51.66812000" lon="7.17293000">
 </trkpt>
 <trkpt lat="51.66864000" lon="7.17393000">
 </trkpt>
 <trkpt lat="51.66753000" lon="7.17499000">
 </trkpt>
 <trkpt lat="51.66648000" lon="7.17628000">
 </trkpt>
 <trkpt lat="51.66461000" lon="7.17875000">
 </trkpt>
 <trkpt lat="51.66447000" lon="7.17907000">
 </trkpt>
 <trkpt lat="51.66448000" lon="7.17938000">
 </trkpt>
 <trkpt lat="51.66456000" lon="7.17998000">
 </trkpt>
 <trkpt lat="51.66275000" lon="7.18076000">
 </trkpt>
 <trkpt lat="51.66260000" lon="7.18100000">
 </trkpt>
 <trkpt lat="51.66226000" lon="7.18187000">
 </trkpt>
 <trkpt lat="51.66207000" lon="7.18245000">
 </trkpt>
 <trkpt lat="51.66180000" lon="7.18296000">
 </trkpt>
 <trkpt lat="51.66148000" lon="7.18339000">
 </trkpt>
 <trkpt lat="51.66119000" lon="7.18363000">
 </trkpt>
 <trkpt lat="51.66092000" lon="7.18364000">
 </trkpt>
 <trkpt lat="51.66072000" lon="7.18358000">
 </trkpt>
 <trkpt lat="51.66046000" lon="7.18328000">
 </trkpt>
 <trkpt lat="51.66010000" lon="7.18267000">
 </trkpt>
 <trkpt lat="51.65978000" lon="7.18235000">
 </trkpt>
 <trkpt lat="51.65943000" lon="7.18230000">
 </trkpt>
 <trkpt lat="51.65895000" lon="7.18245000">
 </trkpt>
 <trkpt lat="51.65801000" lon="7.18288000">
 </trkpt>
 <trkpt lat="51.65690000" lon="7.18332000">
 </trkpt>
 <trkpt lat="51.65349000" lon="7.18475000">
 </trkpt>
 <trkpt lat="51.65353000" lon="7.18531000">
 </trkpt>
 <trkpt lat="51.65349000" lon="7.18584000">
 </trkpt>
 <trkpt lat="51.65328000" lon="7.18695000">
 </trkpt>
 <trkpt lat="51.65284000" lon="7.18946000">
 </trkpt>
 <trkpt lat="51.65236000" lon="7.19233000">
 </trkpt>
 <trkpt lat="51.65229000" lon="7.19248000">
 </trkpt>
 <trkpt lat="51.65206000" lon="7.19267000">
 </trkpt>
 <trkpt lat="51.65201000" lon="7.19290000">
 </trkpt>
 <trkpt lat="51.65197000" lon="7.19336000">
 </trkpt>
 <trkpt lat="51.65165000" lon="7.19390000">
 </trkpt>
 <trkpt lat="51.65197000" lon="7.19448000">
 </trkpt>
 <trkpt lat="51.65263000" lon="7.19499000">
 </trkpt>
 <trkpt lat="51.65318000" lon="7.19550000">
 </trkpt>
 <trkpt lat="51.65332000" lon="7.19589000">
 </trkpt>
 <trkpt lat="51.65328000" lon="7.19607000">
 </trkpt>
 <trkpt lat="51.65336000" lon="7.19714000">
 </trkpt>
 <trkpt lat="51.65344000" lon="7.19893000">
 </trkpt>
 <trkpt lat="51.65338000" lon="7.19954000">
 </trkpt>
 <trkpt lat="51.65323000" lon="7.20020000">
 </trkpt>
 <trkpt lat="51.65310000" lon="7.20115000">
 </trkpt>
 <trkpt lat="51.65296000" lon="7.20179000">
 </trkpt>
 <trkpt lat="51.65272000" lon="7.20248000">
 </trkpt>
 <trkpt lat="51.65237000" lon="7.20308000">
 </trkpt>
 <trkpt lat="51.65220000" lon="7.20367000">
 </trkpt>
 <trkpt lat="51.65212000" lon="7.20430000">
 </trkpt>
 <trkpt lat="51.65221000" lon="7.20534000">
 </trkpt>
 <trkpt lat="51.65213000" lon="7.20569000">
 </trkpt>
 <trkpt lat="51.65157000" lon="7.20638000">
 </trkpt>
 <trkpt lat="51.65131000" lon="7.20668000">
 </trkpt>
 <trkpt lat="51.65108000" lon="7.20679000">
 </trkpt>
 <trkpt lat="51.65087000" lon="7.20677000">
 </trkpt>
 <trkpt lat="51.65069000" lon="7.20678000">
 </trkpt>
 <trkpt lat="51.65059000" lon="7.20699000">
 </trkpt>
 <trkpt lat="51.65020000" lon="7.20930000">
 </trkpt>
 <trkpt lat="51.65003000" lon="7.20991000">
 </trkpt>
 <trkpt lat="51.64987000" lon="7.20988000">
 </trkpt>
 <trkpt lat="51.64961000" lon="7.21003000">
 </trkpt>
 <trkpt lat="51.64902000" lon="7.21049000">
 </trkpt>
 <trkpt lat="51.64880000" lon="7.21059000">
 </trkpt>
 <trkpt lat="51.64868000" lon="7.21059000">
 </trkpt>
 <trkpt lat="51.64854000" lon="7.21043000">
 </trkpt>
 <trkpt lat="51.64839000" lon="7.21021000">
 </trkpt>
 <trkpt lat="51.64698000" lon="7.21212000">
 </trkpt>
 <trkpt lat="51.64749000" lon="7.21484000">
 </trkpt>
 <trkpt lat="51.64775000" lon="7.21662000">
 </trkpt>
 <trkpt lat="51.64775000" lon="7.21673000">
 </trkpt>
 <trkpt lat="51.64727000" lon="7.21824000">
 </trkpt>
 <trkpt lat="51.64660000" lon="7.22025000">
 </trkpt>
 <trkpt lat="51.64645000" lon="7.22077000">
 </trkpt>
 <trkpt lat="51.64634000" lon="7.22133000">
 </trkpt>
 <trkpt lat="51.64629000" lon="7.22192000">
 </trkpt>
 <trkpt lat="51.64626000" lon="7.22269000">
 </trkpt>
 <trkpt lat="51.64649000" lon="7.22723000">
 </trkpt>
 <trkpt lat="51.64648000" lon="7.22792000">
 </trkpt>
 <trkpt lat="51.64641000" lon="7.22867000">
 </trkpt>
 <trkpt lat="51.64628000" lon="7.22952000">
 </trkpt>
 <trkpt lat="51.64591000" lon="7.23142000">
 </trkpt>
 <trkpt lat="51.64565000" lon="7.23268000">
 </trkpt>
 <trkpt lat="51.64548000" lon="7.23376000">
 </trkpt>
 <trkpt lat="51.64524000" lon="7.23478000">
 </trkpt>
 <trkpt lat="51.64424000" lon="7.23974000">
 </trkpt>
 <trkpt lat="51.64338000" lon="7.24431000">
 </trkpt>
 <trkpt lat="51.64279000" lon="7.24725000">
 </trkpt>
 <trkpt lat="51.64265000" lon="7.24772000">
 </trkpt>
 <trkpt lat="51.64251000" lon="7.24825000">
 </trkpt>
 <trkpt lat="51.64248000" lon="7.24858000">
 </trkpt>
 <trkpt lat="51.64250000" lon="7.24883000">
 </trkpt>
 <trkpt lat="51.64255000" lon="7.24894000">
 </trkpt>
</trkseg>
</trk>

</gpx>
