<?xml version="1.0" encoding="UTF-8" standalone="no"?>
<gpx xmlns="http://www.topografix.com/GPX/1/1" creator="MapSource 6.16.3" version="1.1">

  <trk>
    <name>NW 3.28</name>
    <trkseg>
 <trkpt lat="51.57779800" lon="8.10582000">
  <ele>98.112</ele>
 </trkpt>
 <trkpt lat="51.57779100" lon="8.10597200">
  <ele>97.389</ele>
 </trkpt>
 <trkpt lat="51.57769200" lon="8.10640500">
  <ele>97.520</ele>
 </trkpt>
 <trkpt lat="51.57757500" lon="8.10700800">
  <ele>97.636</ele>
 </trkpt>
 <trkpt lat="51.57732500" lon="8.10795600">
  <ele>97.313</ele>
 </trkpt>
 <trkpt lat="51.57719400" lon="8.10842400">
  <ele>97.115</ele>
 </trkpt>
 <trkpt lat="51.57689700" lon="8.10935200">
  <ele>96.583</ele>
 </trkpt>
 <trkpt lat="51.57685600" lon="8.10947200">
  <ele>96.420</ele>
 </trkpt>
 <trkpt lat="51.57660800" lon="8.11021000">
  <ele>96.663</ele>
 </trkpt>
 <trkpt lat="51.57654200" lon="8.11042500">
  <ele>96.405</ele>
 </trkpt>
 <trkpt lat="51.57625100" lon="8.11100600">
  <ele>96.850</ele>
 </trkpt>
 <trkpt lat="51.57579500" lon="8.11194800">
  <ele>97.097</ele>
 </trkpt>
 <trkpt lat="51.57551800" lon="8.11253000">
  <ele>97.699</ele>
 </trkpt>
 <trkpt lat="51.57510800" lon="8.11347200">
  <ele>97.686</ele>
 </trkpt>
 <trkpt lat="51.57471400" lon="8.11438200">
  <ele>97.711</ele>
 </trkpt>
 <trkpt lat="51.57437500" lon="8.11515700">
  <ele>98.491</ele>
 </trkpt>
 <trkpt lat="51.57417300" lon="8.11556000">
  <ele>98.705</ele>
 </trkpt>
 <trkpt lat="51.57394200" lon="8.11604100">
  <ele>100.305</ele>
 </trkpt>
 <trkpt lat="51.57357100" lon="8.11642100">
  <ele>101.176</ele>
 </trkpt>
 <trkpt lat="51.57345200" lon="8.11651700">
  <ele>101.628</ele>
 </trkpt>
 <trkpt lat="51.57329100" lon="8.11658800">
  <ele>101.916</ele>
 </trkpt>
 <trkpt lat="51.57259200" lon="8.11676000">
  <ele>101.484</ele>
 </trkpt>
 <trkpt lat="51.57200000" lon="8.11683300">
  <ele>102.214</ele>
 </trkpt>
 <trkpt lat="51.57132900" lon="8.11690700">
  <ele>103.039</ele>
 </trkpt>
 <trkpt lat="51.57105600" lon="8.11694100">
  <ele>102.784</ele>
 </trkpt>
 <trkpt lat="51.57038100" lon="8.11711900">
  <ele>102.920</ele>
 </trkpt>
 <trkpt lat="51.57027600" lon="8.11720100">
  <ele>103.557</ele>
 </trkpt>
 <trkpt lat="51.57022900" lon="8.11732200">
  <ele>103.052</ele>
 </trkpt>
 <trkpt lat="51.57036400" lon="8.11809600">
  <ele>104.054</ele>
 </trkpt>
 <trkpt lat="51.57049300" lon="8.11878300">
  <ele>104.339</ele>
 </trkpt>
 <trkpt lat="51.57061400" lon="8.11947400">
  <ele>105.975</ele>
 </trkpt>
 <trkpt lat="51.57063900" lon="8.11964900">
  <ele>106.485</ele>
 </trkpt>
 <trkpt lat="51.57079100" lon="8.12049700">
  <ele>106.234</ele>
 </trkpt>
 <trkpt lat="51.57096900" lon="8.12149800">
  <ele>106.976</ele>
 </trkpt>
 <trkpt lat="51.57114000" lon="8.12233500">
  <ele>107.491</ele>
 </trkpt>
 <trkpt lat="51.57127000" lon="8.12299800">
  <ele>108.113</ele>
 </trkpt>
 <trkpt lat="51.57142300" lon="8.12376700">
  <ele>107.890</ele>
 </trkpt>
 <trkpt lat="51.57161100" lon="8.12470100">
  <ele>108.400</ele>
 </trkpt>
 <trkpt lat="51.57178700" lon="8.12558500">
  <ele>108.334</ele>
 </trkpt>
 <trkpt lat="51.57185800" lon="8.12593500">
  <ele>108.669</ele>
 </trkpt>
 <trkpt lat="51.57198300" lon="8.12666500">
  <ele>109.310</ele>
 </trkpt>
 <trkpt lat="51.57204600" lon="8.12701200">
  <ele>108.902</ele>
 </trkpt>
 <trkpt lat="51.57219200" lon="8.12771500">
  <ele>108.846</ele>
 </trkpt>
 <trkpt lat="51.57234000" lon="8.12828600">
  <ele>108.837</ele>
 </trkpt>
 <trkpt lat="51.57240000" lon="8.12851500">
  <ele>109.129</ele>
 </trkpt>
 <trkpt lat="51.57251600" lon="8.12882900">
  <ele>108.292</ele>
 </trkpt>
 <trkpt lat="51.57255800" lon="8.12908000">
  <ele>108.420</ele>
 </trkpt>
 <trkpt lat="51.57260300" lon="8.12929900">
  <ele>107.948</ele>
 </trkpt>
 <trkpt lat="51.57274200" lon="8.13027400">
  <ele>107.044</ele>
 </trkpt>
 <trkpt lat="51.57289200" lon="8.13103800">
  <ele>106.748</ele>
 </trkpt>
 <trkpt lat="51.57303400" lon="8.13185600">
  <ele>105.249</ele>
 </trkpt>
 <trkpt lat="51.57319000" lon="8.13263600">
  <ele>102.727</ele>
 </trkpt>
 <trkpt lat="51.57332500" lon="8.13330300">
  <ele>101.894</ele>
 </trkpt>
 <trkpt lat="51.57345900" lon="8.13391100">
  <ele>101.238</ele>
 </trkpt>
 <trkpt lat="51.57342700" lon="8.13412100">
  <ele>101.213</ele>
 </trkpt>
 <trkpt lat="51.57337800" lon="8.13413800">
  <ele>101.450</ele>
 </trkpt>
 <trkpt lat="51.57301800" lon="8.13409600">
  <ele>101.191</ele>
 </trkpt>
 <trkpt lat="51.57271900" lon="8.13401100">
  <ele>101.349</ele>
 </trkpt>
 <trkpt lat="51.57240700" lon="8.13389600">
  <ele>102.000</ele>
 </trkpt>
 <trkpt lat="51.57213700" lon="8.13381100">
  <ele>101.533</ele>
 </trkpt>
 <trkpt lat="51.57185100" lon="8.13373700">
  <ele>102.484</ele>
 </trkpt>
 <trkpt lat="51.57162400" lon="8.13376900">
  <ele>102.563</ele>
 </trkpt>
 <trkpt lat="51.57149400" lon="8.13393200">
  <ele>102.380</ele>
 </trkpt>
 <trkpt lat="51.57147000" lon="8.13432000">
  <ele>103.054</ele>
 </trkpt>
 <trkpt lat="51.57140800" lon="8.13523900">
  <ele>102.785</ele>
 </trkpt>
 <trkpt lat="51.57132900" lon="8.13639000">
  <ele>103.141</ele>
 </trkpt>
 <trkpt lat="51.57123600" lon="8.13776200">
  <ele>103.102</ele>
 </trkpt>
 <trkpt lat="51.57103300" lon="8.13798000">
  <ele>103.457</ele>
 </trkpt>
 <trkpt lat="51.57045500" lon="8.13789800">
  <ele>103.437</ele>
 </trkpt>
 <trkpt lat="51.56965200" lon="8.13778600">
  <ele>104.123</ele>
 </trkpt>
 <trkpt lat="51.56869200" lon="8.13765500">
  <ele>105.054</ele>
 </trkpt>
 <trkpt lat="51.56804200" lon="8.13756000">
  <ele>104.607</ele>
 </trkpt>
 <trkpt lat="51.56726700" lon="8.13744700">
  <ele>105.006</ele>
 </trkpt>
 <trkpt lat="51.56622800" lon="8.13729400">
  <ele>105.849</ele>
 </trkpt>
 <trkpt lat="51.56520300" lon="8.13714500">
  <ele>106.932</ele>
 </trkpt>
 <trkpt lat="51.56455200" lon="8.13704100">
  <ele>108.647</ele>
 </trkpt>
 <trkpt lat="51.56418400" lon="8.13692700">
  <ele>109.250</ele>
 </trkpt>
 <trkpt lat="51.56407100" lon="8.13680100">
  <ele>109.345</ele>
 </trkpt>
 <trkpt lat="51.56409200" lon="8.13662200">
  <ele>109.270</ele>
 </trkpt>
 <trkpt lat="51.56413500" lon="8.13607300">
  <ele>109.527</ele>
 </trkpt>
 <trkpt lat="51.56406900" lon="8.13590000">
  <ele>109.693</ele>
 </trkpt>
 <trkpt lat="51.56373300" lon="8.13608600">
  <ele>107.850</ele>
 </trkpt>
 <trkpt lat="51.56343500" lon="8.13643100">
  <ele>109.242</ele>
 </trkpt>
 <trkpt lat="51.56328600" lon="8.13659700">
  <ele>109.471</ele>
 </trkpt>
 <trkpt lat="51.56299900" lon="8.13689400">
  <ele>109.842</ele>
 </trkpt>
 <trkpt lat="51.56264500" lon="8.13721000">
  <ele>110.632</ele>
 </trkpt>
 <trkpt lat="51.56233700" lon="8.13717600">
  <ele>110.218</ele>
 </trkpt>
 <trkpt lat="51.56184700" lon="8.13696200">
  <ele>110.367</ele>
 </trkpt>
 <trkpt lat="51.56142600" lon="8.13691500">
  <ele>109.397</ele>
 </trkpt>
 <trkpt lat="51.56128200" lon="8.13698500">
  <ele>110.749</ele>
 </trkpt>
 <trkpt lat="51.56085700" lon="8.13713900">
  <ele>113.419</ele>
 </trkpt>
 <trkpt lat="51.56050700" lon="8.13712000">
  <ele>113.817</ele>
 </trkpt>
 <trkpt lat="51.56016900" lon="8.13719600">
  <ele>114.151</ele>
 </trkpt>
 <trkpt lat="51.55984600" lon="8.13718300">
  <ele>114.464</ele>
 </trkpt>
 <trkpt lat="51.55942300" lon="8.13717200">
  <ele>114.767</ele>
 </trkpt>
 <trkpt lat="51.55927100" lon="8.13703300">
  <ele>115.507</ele>
 </trkpt>
 <trkpt lat="51.55915000" lon="8.13668100">
  <ele>115.241</ele>
 </trkpt>
 <trkpt lat="51.55893200" lon="8.13647400">
  <ele>115.398</ele>
 </trkpt>
 <trkpt lat="51.55883600" lon="8.13649000">
  <ele>115.936</ele>
 </trkpt>
 <trkpt lat="51.55852700" lon="8.13658800">
  <ele>115.803</ele>
 </trkpt>
 <trkpt lat="51.55806400" lon="8.13660200">
  <ele>115.870</ele>
 </trkpt>
 <trkpt lat="51.55771200" lon="8.13660600">
  <ele>116.645</ele>
 </trkpt>
 <trkpt lat="51.55745700" lon="8.13684000">
  <ele>116.514</ele>
 </trkpt>
 <trkpt lat="51.55739800" lon="8.13701300">
  <ele>116.579</ele>
 </trkpt>
 <trkpt lat="51.55735000" lon="8.13727500">
  <ele>117.952</ele>
 </trkpt>
 <trkpt lat="51.55724700" lon="8.13761600">
  <ele>119.791</ele>
 </trkpt>
 <trkpt lat="51.55707000" lon="8.13794100">
  <ele>120.039</ele>
 </trkpt>
 <trkpt lat="51.55688800" lon="8.13823300">
  <ele>120.973</ele>
 </trkpt>
 <trkpt lat="51.55667900" lon="8.13858500">
  <ele>122.203</ele>
 </trkpt>
 <trkpt lat="51.55661100" lon="8.13868800">
  <ele>122.666</ele>
 </trkpt>
 <trkpt lat="51.55654100" lon="8.13879200">
  <ele>123.162</ele>
 </trkpt>
 <trkpt lat="51.55639300" lon="8.13892100">
  <ele>123.223</ele>
 </trkpt>
 <trkpt lat="51.55640500" lon="8.13903000">
  <ele>123.399</ele>
 </trkpt>
 <trkpt lat="51.55594700" lon="8.13995700">
  <ele>124.004</ele>
 </trkpt>
 <trkpt lat="51.55549100" lon="8.14064000">
  <ele>123.950</ele>
 </trkpt>
 <trkpt lat="51.55520700" lon="8.14101500">
  <ele>124.251</ele>
 </trkpt>
 <trkpt lat="51.55483000" lon="8.14176900">
  <ele>124.961</ele>
 </trkpt>
 <trkpt lat="51.55477000" lon="8.14186300">
  <ele>125.141</ele>
 </trkpt>
 <trkpt lat="51.55456900" lon="8.14224200">
  <ele>126.465</ele>
 </trkpt>
 <trkpt lat="51.55448500" lon="8.14247200">
  <ele>126.435</ele>
 </trkpt>
 <trkpt lat="51.55433000" lon="8.14281200">
  <ele>126.248</ele>
 </trkpt>
 <trkpt lat="51.55419700" lon="8.14308900">
  <ele>125.966</ele>
 </trkpt>
 <trkpt lat="51.55412500" lon="8.14322700">
  <ele>126.044</ele>
 </trkpt>
 <trkpt lat="51.55388500" lon="8.14364700">
  <ele>127.489</ele>
 </trkpt>
 <trkpt lat="51.55341900" lon="8.14439300">
  <ele>128.906</ele>
 </trkpt>
 <trkpt lat="51.55318100" lon="8.14458900">
  <ele>129.147</ele>
 </trkpt>
 <trkpt lat="51.55234900" lon="8.14522500">
  <ele>132.285</ele>
 </trkpt>
 <trkpt lat="51.55185000" lon="8.14578900">
  <ele>133.659</ele>
 </trkpt>
 <trkpt lat="51.55162700" lon="8.14603600">
  <ele>136.776</ele>
 </trkpt>
 <trkpt lat="51.55135800" lon="8.14629400">
  <ele>139.310</ele>
 </trkpt>
 <trkpt lat="51.55107000" lon="8.14658200">
  <ele>141.652</ele>
 </trkpt>
 <trkpt lat="51.55105000" lon="8.14672900">
  <ele>141.232</ele>
 </trkpt>
 <trkpt lat="51.55105400" lon="8.14681500">
  <ele>141.449</ele>
 </trkpt>
 <trkpt lat="51.55092400" lon="8.14724000">
  <ele>143.396</ele>
 </trkpt>
 <trkpt lat="51.55085200" lon="8.14751200">
  <ele>143.396</ele>
 </trkpt>
 <trkpt lat="51.55059000" lon="8.14832900">
  <ele>144.754</ele>
 </trkpt>
 <trkpt lat="51.55053000" lon="8.14853500">
  <ele>145.015</ele>
 </trkpt>
 <trkpt lat="51.55037000" lon="8.14900900">
  <ele>145.624</ele>
 </trkpt>
 <trkpt lat="51.54994400" lon="8.14996600">
  <ele>147.008</ele>
 </trkpt>
 <trkpt lat="51.54940600" lon="8.15064600">
  <ele>147.517</ele>
 </trkpt>
 <trkpt lat="51.54932600" lon="8.15072200">
  <ele>148.632</ele>
 </trkpt>
 <trkpt lat="51.54907000" lon="8.15092500">
  <ele>148.808</ele>
 </trkpt>
 <trkpt lat="51.54874800" lon="8.15110800">
  <ele>150.141</ele>
 </trkpt>
 <trkpt lat="51.54835500" lon="8.15123200">
  <ele>150.599</ele>
 </trkpt>
 <trkpt lat="51.54769300" lon="8.15140500">
  <ele>151.574</ele>
 </trkpt>
 <trkpt lat="51.54715400" lon="8.15159900">
  <ele>153.074</ele>
 </trkpt>
 <trkpt lat="51.54702300" lon="8.15166500">
  <ele>153.341</ele>
 </trkpt>
 <trkpt lat="51.54692900" lon="8.15173200">
  <ele>153.244</ele>
 </trkpt>
 <trkpt lat="51.54684800" lon="8.15177700">
  <ele>153.458</ele>
 </trkpt>
 <trkpt lat="51.54640600" lon="8.15208700">
  <ele>153.968</ele>
 </trkpt>
 <trkpt lat="51.54620300" lon="8.15227500">
  <ele>154.535</ele>
 </trkpt>
 <trkpt lat="51.54591700" lon="8.15255000">
  <ele>155.069</ele>
 </trkpt>
 <trkpt lat="51.54563700" lon="8.15293400">
  <ele>155.781</ele>
 </trkpt>
 <trkpt lat="51.54549900" lon="8.15312000">
  <ele>156.049</ele>
 </trkpt>
 <trkpt lat="51.54546700" lon="8.15316500">
  <ele>155.854</ele>
 </trkpt>
 <trkpt lat="51.54532900" lon="8.15333500">
  <ele>156.653</ele>
 </trkpt>
 <trkpt lat="51.54525800" lon="8.15344700">
  <ele>156.281</ele>
 </trkpt>
 <trkpt lat="51.54478900" lon="8.15436200">
  <ele>157.748</ele>
 </trkpt>
 <trkpt lat="51.54439100" lon="8.15552200">
  <ele>159.722</ele>
 </trkpt>
 <trkpt lat="51.54423000" lon="8.15618600">
  <ele>161.606</ele>
 </trkpt>
 <trkpt lat="51.54420900" lon="8.15632200">
  <ele>161.862</ele>
 </trkpt>
 <trkpt lat="51.54412000" lon="8.15684400">
  <ele>161.927</ele>
 </trkpt>
 <trkpt lat="51.54388400" lon="8.15835300">
  <ele>164.558</ele>
 </trkpt>
 <trkpt lat="51.54369900" lon="8.15952000">
  <ele>165.985</ele>
 </trkpt>
 <trkpt lat="51.54355700" lon="8.16046200">
  <ele>167.089</ele>
 </trkpt>
 <trkpt lat="51.54349500" lon="8.16079700">
  <ele>166.623</ele>
 </trkpt>
 <trkpt lat="51.54345800" lon="8.16101900">
  <ele>166.483</ele>
 </trkpt>
 <trkpt lat="51.54340200" lon="8.16136300">
  <ele>166.809</ele>
 </trkpt>
 <trkpt lat="51.54336400" lon="8.16167600">
  <ele>166.942</ele>
 </trkpt>
 <trkpt lat="51.54319300" lon="8.16246200">
  <ele>167.533</ele>
 </trkpt>
 <trkpt lat="51.54293300" lon="8.16345500">
  <ele>167.773</ele>
 </trkpt>
 <trkpt lat="51.54277700" lon="8.16382100">
  <ele>168.858</ele>
 </trkpt>
 <trkpt lat="51.54252300" lon="8.16424100">
  <ele>170.389</ele>
 </trkpt>
 <trkpt lat="51.54245000" lon="8.16434900">
  <ele>171.209</ele>
 </trkpt>
 <trkpt lat="51.54206800" lon="8.16485700">
  <ele>171.764</ele>
 </trkpt>
 <trkpt lat="51.54194100" lon="8.16502200">
  <ele>170.261</ele>
 </trkpt>
 <trkpt lat="51.54167700" lon="8.16542100">
  <ele>168.562</ele>
 </trkpt>
 <trkpt lat="51.54140400" lon="8.16587800">
  <ele>168.349</ele>
 </trkpt>
 <trkpt lat="51.54124500" lon="8.16612700">
  <ele>168.391</ele>
 </trkpt>
 <trkpt lat="51.54110300" lon="8.16636500">
  <ele>168.750</ele>
 </trkpt>
 <trkpt lat="51.54098800" lon="8.16650900">
  <ele>169.205</ele>
 </trkpt>
 <trkpt lat="51.54073100" lon="8.16692000">
  <ele>169.924</ele>
 </trkpt>
 <trkpt lat="51.54054200" lon="8.16721400">
  <ele>170.699</ele>
 </trkpt>
 <trkpt lat="51.54022000" lon="8.16775400">
  <ele>171.144</ele>
 </trkpt>
 <trkpt lat="51.54011700" lon="8.16792800">
  <ele>171.049</ele>
 </trkpt>
 <trkpt lat="51.53979400" lon="8.16845500">
  <ele>171.977</ele>
 </trkpt>
 <trkpt lat="51.53963300" lon="8.16873300">
  <ele>172.424</ele>
 </trkpt>
 <trkpt lat="51.53957500" lon="8.16882000">
  <ele>172.599</ele>
 </trkpt>
 <trkpt lat="51.53940100" lon="8.16907200">
  <ele>172.683</ele>
 </trkpt>
 <trkpt lat="51.53922900" lon="8.16948900">
  <ele>174.154</ele>
 </trkpt>
 <trkpt lat="51.53914900" lon="8.16970300">
  <ele>173.888</ele>
 </trkpt>
 <trkpt lat="51.53907700" lon="8.16993500">
  <ele>175.139</ele>
 </trkpt>
 <trkpt lat="51.53891300" lon="8.17054300">
  <ele>176.383</ele>
 </trkpt>
 <trkpt lat="51.53875700" lon="8.17153900">
  <ele>177.385</ele>
 </trkpt>
 <trkpt lat="51.53869300" lon="8.17227300">
  <ele>178.164</ele>
 </trkpt>
 <trkpt lat="51.53863400" lon="8.17313600">
  <ele>180.278</ele>
 </trkpt>
 <trkpt lat="51.53854600" lon="8.17437300">
  <ele>182.157</ele>
 </trkpt>
 <trkpt lat="51.53849200" lon="8.17506300">
  <ele>182.007</ele>
 </trkpt>
 <trkpt lat="51.53847800" lon="8.17527100">
  <ele>181.878</ele>
 </trkpt>
 <trkpt lat="51.53842200" lon="8.17604600">
  <ele>182.238</ele>
 </trkpt>
 <trkpt lat="51.53832200" lon="8.17736000">
  <ele>184.828</ele>
 </trkpt>
 <trkpt lat="51.53824500" lon="8.17830800">
  <ele>186.021</ele>
 </trkpt>
 <trkpt lat="51.53822300" lon="8.17855300">
  <ele>187.118</ele>
 </trkpt>
 <trkpt lat="51.53817900" lon="8.17883900">
  <ele>187.513</ele>
 </trkpt>
 <trkpt lat="51.53815500" lon="8.17904300">
  <ele>187.305</ele>
 </trkpt>
 <trkpt lat="51.53812400" lon="8.17926000">
  <ele>187.433</ele>
 </trkpt>
 <trkpt lat="51.53788300" lon="8.18087400">
  <ele>189.490</ele>
 </trkpt>
 <trkpt lat="51.53769800" lon="8.18212300">
  <ele>191.416</ele>
 </trkpt>
 <trkpt lat="51.53757000" lon="8.18318000">
  <ele>192.287</ele>
 </trkpt>
 <trkpt lat="51.53753800" lon="8.18349100">
  <ele>192.996</ele>
 </trkpt>
 <trkpt lat="51.53749100" lon="8.18378000">
  <ele>193.383</ele>
 </trkpt>
 <trkpt lat="51.53740200" lon="8.18425700">
  <ele>194.281</ele>
 </trkpt>
 <trkpt lat="51.53735000" lon="8.18451500">
  <ele>194.810</ele>
 </trkpt>
 <trkpt lat="51.53731300" lon="8.18486100">
  <ele>194.589</ele>
 </trkpt>
 <trkpt lat="51.53715300" lon="8.18593900">
  <ele>195.974</ele>
 </trkpt>
 <trkpt lat="51.53702900" lon="8.18657700">
  <ele>197.149</ele>
 </trkpt>
 <trkpt lat="51.53694300" lon="8.18712600">
  <ele>197.858</ele>
 </trkpt>
 <trkpt lat="51.53689400" lon="8.18737600">
  <ele>199.185</ele>
 </trkpt>
 <trkpt lat="51.53685800" lon="8.18761800">
  <ele>199.636</ele>
 </trkpt>
 <trkpt lat="51.53680400" lon="8.18771300">
  <ele>199.936</ele>
 </trkpt>
 <trkpt lat="51.53620600" lon="8.18777100">
  <ele>201.112</ele>
 </trkpt>
 <trkpt lat="51.53554000" lon="8.18784400">
  <ele>202.414</ele>
 </trkpt>
 <trkpt lat="51.53451000" lon="8.18794600">
  <ele>205.088</ele>
 </trkpt>
 <trkpt lat="51.53344400" lon="8.18803900">
  <ele>208.088</ele>
 </trkpt>
 <trkpt lat="51.53261200" lon="8.18809200">
  <ele>211.065</ele>
 </trkpt>
 <trkpt lat="51.53210900" lon="8.18815000">
  <ele>214.201</ele>
 </trkpt>
 <trkpt lat="51.53155900" lon="8.18819700">
  <ele>215.970</ele>
 </trkpt>
 <trkpt lat="51.53126300" lon="8.18823100">
  <ele>216.430</ele>
 </trkpt>
 <trkpt lat="51.53061600" lon="8.18826600">
  <ele>217.045</ele>
 </trkpt>
 <trkpt lat="51.53029200" lon="8.18831000">
  <ele>218.715</ele>
 </trkpt>
 <trkpt lat="51.53023000" lon="8.18808400">
  <ele>218.923</ele>
 </trkpt>
 <trkpt lat="51.53017900" lon="8.18775400">
  <ele>219.539</ele>
 </trkpt>
 <trkpt lat="51.52991400" lon="8.18665600">
  <ele>221.513</ele>
 </trkpt>
 <trkpt lat="51.52944800" lon="8.18537200">
  <ele>223.832</ele>
 </trkpt>
 <trkpt lat="51.52903400" lon="8.18452500">
  <ele>225.159</ele>
 </trkpt>
 <trkpt lat="51.52857800" lon="8.18378100">
  <ele>226.212</ele>
 </trkpt>
 <trkpt lat="51.52816200" lon="8.18317400">
  <ele>227.691</ele>
 </trkpt>
 <trkpt lat="51.52799100" lon="8.18292400">
  <ele>227.790</ele>
 </trkpt>
 <trkpt lat="51.52769800" lon="8.18249600">
  <ele>228.577</ele>
 </trkpt>
 <trkpt lat="51.52748000" lon="8.18214600">
  <ele>228.780</ele>
 </trkpt>
 <trkpt lat="51.52717000" lon="8.18185400">
  <ele>228.365</ele>
 </trkpt>
 <trkpt lat="51.52703400" lon="8.18166300">
  <ele>228.942</ele>
 </trkpt>
 <trkpt lat="51.52689000" lon="8.18152200">
  <ele>229.386</ele>
 </trkpt>
 <trkpt lat="51.52675500" lon="8.18146300">
  <ele>230.262</ele>
 </trkpt>
 <trkpt lat="51.52661700" lon="8.18139000">
  <ele>230.838</ele>
 </trkpt>
 <trkpt lat="51.52644000" lon="8.18127200">
  <ele>230.877</ele>
 </trkpt>
 <trkpt lat="51.52636200" lon="8.18110200">
  <ele>229.554</ele>
 </trkpt>
 <trkpt lat="51.52632100" lon="8.18104400">
  <ele>229.322</ele>
 </trkpt>
 <trkpt lat="51.52624500" lon="8.18093700">
  <ele>229.631</ele>
 </trkpt>
 <trkpt lat="51.52628300" lon="8.18085900">
  <ele>229.231</ele>
 </trkpt>
 <trkpt lat="51.52634100" lon="8.18077600">
  <ele>229.492</ele>
 </trkpt>
 <trkpt lat="51.52636300" lon="8.18060000">
  <ele>229.347</ele>
 </trkpt>
 <trkpt lat="51.52624900" lon="8.18045500">
  <ele>229.283</ele>
 </trkpt>
 <trkpt lat="51.52610000" lon="8.18027800">
  <ele>230.131</ele>
 </trkpt>
 <trkpt lat="51.52572500" lon="8.17978100">
  <ele>231.473</ele>
 </trkpt>
 <trkpt lat="51.52554300" lon="8.17947900">
  <ele>231.969</ele>
 </trkpt>
 <trkpt lat="51.52524700" lon="8.17896800">
  <ele>232.401</ele>
 </trkpt>
 <trkpt lat="51.52495900" lon="8.17856500">
  <ele>234.009</ele>
 </trkpt>
 <trkpt lat="51.52481600" lon="8.17832200">
  <ele>233.874</ele>
 </trkpt>
 <trkpt lat="51.52461500" lon="8.17803900">
  <ele>234.920</ele>
 </trkpt>
 <trkpt lat="51.52425900" lon="8.17750700">
  <ele>235.749</ele>
 </trkpt>
 <trkpt lat="51.52402800" lon="8.17718500">
  <ele>235.862</ele>
 </trkpt>
 <trkpt lat="51.52384400" lon="8.17691900">
  <ele>236.507</ele>
 </trkpt>
 <trkpt lat="51.52361000" lon="8.17658300">
  <ele>237.063</ele>
 </trkpt>
 <trkpt lat="51.52342900" lon="8.17628600">
  <ele>237.440</ele>
 </trkpt>
 <trkpt lat="51.52328400" lon="8.17604800">
  <ele>237.723</ele>
 </trkpt>
 <trkpt lat="51.52307500" lon="8.17574000">
  <ele>239.220</ele>
 </trkpt>
 <trkpt lat="51.52252400" lon="8.17484000">
  <ele>241.399</ele>
 </trkpt>
 <trkpt lat="51.52210900" lon="8.17417400">
  <ele>242.381</ele>
 </trkpt>
 <trkpt lat="51.52199000" lon="8.17401100">
  <ele>243.151</ele>
 </trkpt>
 <trkpt lat="51.52186100" lon="8.17381400">
  <ele>242.944</ele>
 </trkpt>
 <trkpt lat="51.52179200" lon="8.17370900">
  <ele>243.103</ele>
 </trkpt>
 <trkpt lat="51.52159100" lon="8.17340800">
  <ele>244.183</ele>
 </trkpt>
 <trkpt lat="51.52137100" lon="8.17317100">
  <ele>244.131</ele>
 </trkpt>
 <trkpt lat="51.52113700" lon="8.17293500">
  <ele>244.808</ele>
 </trkpt>
 <trkpt lat="51.52080400" lon="8.17272800">
  <ele>245.173</ele>
 </trkpt>
 <trkpt lat="51.52013400" lon="8.17251200">
  <ele>247.420</ele>
 </trkpt>
 <trkpt lat="51.51976300" lon="8.17249400">
  <ele>248.314</ele>
 </trkpt>
 <trkpt lat="51.51954400" lon="8.17253600">
  <ele>248.618</ele>
 </trkpt>
 <trkpt lat="51.51908000" lon="8.17269900">
  <ele>249.463</ele>
 </trkpt>
 <trkpt lat="51.51866500" lon="8.17298600">
  <ele>250.904</ele>
 </trkpt>
 <trkpt lat="51.51810400" lon="8.17354400">
  <ele>251.399</ele>
 </trkpt>
 <trkpt lat="51.51760700" lon="8.17408100">
  <ele>253.007</ele>
 </trkpt>
 <trkpt lat="51.51745000" lon="8.17431400">
  <ele>253.454</ele>
 </trkpt>
 <trkpt lat="51.51730700" lon="8.17447500">
  <ele>253.544</ele>
 </trkpt>
 <trkpt lat="51.51711800" lon="8.17471600">
  <ele>254.144</ele>
 </trkpt>
 <trkpt lat="51.51682300" lon="8.17503000">
  <ele>254.725</ele>
 </trkpt>
 <trkpt lat="51.51662000" lon="8.17524700">
  <ele>254.609</ele>
 </trkpt>
 <trkpt lat="51.51640900" lon="8.17548600">
  <ele>254.876</ele>
 </trkpt>
 <trkpt lat="51.51619300" lon="8.17575500">
  <ele>254.846</ele>
 </trkpt>
 <trkpt lat="51.51587000" lon="8.17614700">
  <ele>254.663</ele>
 </trkpt>
 <trkpt lat="51.51552200" lon="8.17651900">
  <ele>255.108</ele>
 </trkpt>
 <trkpt lat="51.51528500" lon="8.17681400">
  <ele>254.647</ele>
 </trkpt>
 <trkpt lat="51.51497900" lon="8.17716100">
  <ele>254.999</ele>
 </trkpt>
 <trkpt lat="51.51457100" lon="8.17764100">
  <ele>255.407</ele>
 </trkpt>
 <trkpt lat="51.51443600" lon="8.17785400">
  <ele>255.492</ele>
 </trkpt>
 <trkpt lat="51.51420300" lon="8.17838000">
  <ele>255.951</ele>
 </trkpt>
 <trkpt lat="51.51411500" lon="8.17862200">
  <ele>256.585</ele>
 </trkpt>
 <trkpt lat="51.51395500" lon="8.17921100">
  <ele>257.832</ele>
 </trkpt>
 <trkpt lat="51.51377800" lon="8.17988800">
  <ele>259.451</ele>
 </trkpt>
 <trkpt lat="51.51348700" lon="8.18060100">
  <ele>261.449</ele>
 </trkpt>
 <trkpt lat="51.51330800" lon="8.18089200">
  <ele>261.073</ele>
 </trkpt>
 <trkpt lat="51.51279700" lon="8.18144100">
  <ele>261.639</ele>
 </trkpt>
 <trkpt lat="51.51227600" lon="8.18172000">
  <ele>263.790</ele>
 </trkpt>
 <trkpt lat="51.51200100" lon="8.18178600">
  <ele>264.119</ele>
 </trkpt>
 <trkpt lat="51.51165500" lon="8.18181800">
  <ele>263.516</ele>
 </trkpt>
 <trkpt lat="51.51106800" lon="8.18164300">
  <ele>264.859</ele>
 </trkpt>
 <trkpt lat="51.51094300" lon="8.18156700">
  <ele>265.264</ele>
 </trkpt>
 <trkpt lat="51.51040700" lon="8.18108700">
  <ele>266.703</ele>
 </trkpt>
 <trkpt lat="51.51007300" lon="8.18059500">
  <ele>267.269</ele>
 </trkpt>
 <trkpt lat="51.50998700" lon="8.18049500">
  <ele>268.583</ele>
 </trkpt>
 <trkpt lat="51.50968600" lon="8.18002500">
  <ele>268.891</ele>
 </trkpt>
 <trkpt lat="51.50943900" lon="8.17960600">
  <ele>270.206</ele>
 </trkpt>
 <trkpt lat="51.50922400" lon="8.17917500">
  <ele>271.368</ele>
 </trkpt>
 <trkpt lat="51.50908700" lon="8.17898800">
  <ele>271.313</ele>
 </trkpt>
 <trkpt lat="51.50899400" lon="8.17872600">
  <ele>271.423</ele>
 </trkpt>
 <trkpt lat="51.50895000" lon="8.17825600">
  <ele>271.265</ele>
 </trkpt>
 <trkpt lat="51.50891600" lon="8.17804700">
  <ele>271.709</ele>
 </trkpt>
 <trkpt lat="51.50890300" lon="8.17785500">
  <ele>271.652</ele>
 </trkpt>
 <trkpt lat="51.50885700" lon="8.17763100">
  <ele>271.282</ele>
 </trkpt>
 <trkpt lat="51.50859900" lon="8.17751100">
  <ele>273.029</ele>
 </trkpt>
 <trkpt lat="51.50852700" lon="8.17714800">
  <ele>273.407</ele>
 </trkpt>
 <trkpt lat="51.50850500" lon="8.17700900">
  <ele>273.762</ele>
 </trkpt>
 <trkpt lat="51.50847000" lon="8.17676000">
  <ele>273.473</ele>
 </trkpt>
 <trkpt lat="51.50832000" lon="8.17572600">
  <ele>274.343</ele>
 </trkpt>
 <trkpt lat="51.50820100" lon="8.17496400">
  <ele>275.198</ele>
 </trkpt>
 <trkpt lat="51.50800800" lon="8.17429700">
  <ele>276.445</ele>
 </trkpt>
 <trkpt lat="51.50787100" lon="8.17398000">
  <ele>277.095</ele>
 </trkpt>
 <trkpt lat="51.50760400" lon="8.17342900">
  <ele>278.076</ele>
 </trkpt>
 <trkpt lat="51.50751500" lon="8.17328600">
  <ele>278.871</ele>
 </trkpt>
 <trkpt lat="51.50743000" lon="8.17314400">
  <ele>279.019</ele>
 </trkpt>
 <trkpt lat="51.50733600" lon="8.17305700">
  <ele>279.589</ele>
 </trkpt>
 <trkpt lat="51.50706300" lon="8.17271100">
  <ele>278.973</ele>
 </trkpt>
 <trkpt lat="51.50693100" lon="8.17258500">
  <ele>279.727</ele>
 </trkpt>
 <trkpt lat="51.50678100" lon="8.17245700">
  <ele>279.437</ele>
 </trkpt>
 <trkpt lat="51.50637500" lon="8.17221800">
  <ele>279.860</ele>
 </trkpt>
 <trkpt lat="51.50623800" lon="8.17215700">
  <ele>279.540</ele>
 </trkpt>
 <trkpt lat="51.50610500" lon="8.17213000">
  <ele>279.404</ele>
 </trkpt>
 <trkpt lat="51.50585900" lon="8.17204200">
  <ele>279.789</ele>
 </trkpt>
 <trkpt lat="51.50556500" lon="8.17197400">
  <ele>279.344</ele>
 </trkpt>
 <trkpt lat="51.50527400" lon="8.17194500">
  <ele>278.387</ele>
 </trkpt>
 <trkpt lat="51.50505100" lon="8.17194600">
  <ele>277.787</ele>
 </trkpt>
 <trkpt lat="51.50469700" lon="8.17204100">
  <ele>277.063</ele>
 </trkpt>
 <trkpt lat="51.50437100" lon="8.17222000">
  <ele>275.534</ele>
 </trkpt>
 <trkpt lat="51.50405100" lon="8.17253400">
  <ele>275.144</ele>
 </trkpt>
 <trkpt lat="51.50371400" lon="8.17312700">
  <ele>274.210</ele>
 </trkpt>
 <trkpt lat="51.50350300" lon="8.17372300">
  <ele>273.711</ele>
 </trkpt>
 <trkpt lat="51.50328200" lon="8.17440900">
  <ele>273.298</ele>
 </trkpt>
 <trkpt lat="51.50310400" lon="8.17501200">
  <ele>272.295</ele>
 </trkpt>
 <trkpt lat="51.50297800" lon="8.17540600">
  <ele>272.139</ele>
 </trkpt>
 <trkpt lat="51.50292800" lon="8.17560600">
  <ele>271.483</ele>
 </trkpt>
 <trkpt lat="51.50284400" lon="8.17589500">
  <ele>270.822</ele>
 </trkpt>
 <trkpt lat="51.50259800" lon="8.17666900">
  <ele>270.336</ele>
 </trkpt>
 <trkpt lat="51.50233000" lon="8.17720400">
  <ele>269.247</ele>
 </trkpt>
 <trkpt lat="51.50195800" lon="8.17763000">
  <ele>268.629</ele>
 </trkpt>
 <trkpt lat="51.50180800" lon="8.17775100">
  <ele>268.882</ele>
 </trkpt>
 <trkpt lat="51.50137900" lon="8.17797000">
  <ele>266.879</ele>
 </trkpt>
 <trkpt lat="51.50087300" lon="8.17800100">
  <ele>266.543</ele>
 </trkpt>
 <trkpt lat="51.50070600" lon="8.17797500">
  <ele>266.109</ele>
 </trkpt>
 <trkpt lat="51.50042500" lon="8.17784600">
  <ele>265.609</ele>
 </trkpt>
 <trkpt lat="51.49991700" lon="8.17740200">
  <ele>264.651</ele>
 </trkpt>
 <trkpt lat="51.49961800" lon="8.17689400">
  <ele>263.803</ele>
 </trkpt>
 <trkpt lat="51.49952300" lon="8.17670500">
  <ele>263.640</ele>
 </trkpt>
 <trkpt lat="51.49938100" lon="8.17633000">
  <ele>262.652</ele>
 </trkpt>
 <trkpt lat="51.49913200" lon="8.17566800">
  <ele>261.904</ele>
 </trkpt>
 <trkpt lat="51.49899200" lon="8.17531000">
  <ele>260.470</ele>
 </trkpt>
 <trkpt lat="51.49893100" lon="8.17513500">
  <ele>260.309</ele>
 </trkpt>
 <trkpt lat="51.49885400" lon="8.17496600">
  <ele>260.467</ele>
 </trkpt>
 <trkpt lat="51.49862100" lon="8.17436500">
  <ele>259.010</ele>
 </trkpt>
 <trkpt lat="51.49825000" lon="8.17355600">
  <ele>257.345</ele>
 </trkpt>
 <trkpt lat="51.49798900" lon="8.17304800">
  <ele>256.656</ele>
 </trkpt>
 <trkpt lat="51.49787500" lon="8.17283700">
  <ele>255.875</ele>
 </trkpt>
 <trkpt lat="51.49749200" lon="8.17220100">
  <ele>254.556</ele>
 </trkpt>
 <trkpt lat="51.49710500" lon="8.17157700">
  <ele>254.261</ele>
 </trkpt>
 <trkpt lat="51.49667200" lon="8.17090400">
  <ele>252.795</ele>
 </trkpt>
 <trkpt lat="51.49634300" lon="8.17039900">
  <ele>252.041</ele>
 </trkpt>
 <trkpt lat="51.49612900" lon="8.17006100">
  <ele>250.800</ele>
 </trkpt>
 <trkpt lat="51.49572300" lon="8.16941500">
  <ele>249.065</ele>
 </trkpt>
 <trkpt lat="51.49531800" lon="8.16876800">
  <ele>248.769</ele>
 </trkpt>
 <trkpt lat="51.49501800" lon="8.16829500">
  <ele>247.004</ele>
 </trkpt>
 <trkpt lat="51.49470700" lon="8.16783600">
  <ele>245.676</ele>
 </trkpt>
 <trkpt lat="51.49463100" lon="8.16770500">
  <ele>245.629</ele>
 </trkpt>
 <trkpt lat="51.49438100" lon="8.16737300">
  <ele>245.261</ele>
 </trkpt>
 <trkpt lat="51.49412000" lon="8.16711700">
  <ele>245.123</ele>
 </trkpt>
 <trkpt lat="51.49381200" lon="8.16688700">
  <ele>244.917</ele>
 </trkpt>
 <trkpt lat="51.49361200" lon="8.16677600">
  <ele>244.919</ele>
 </trkpt>
 <trkpt lat="51.49334600" lon="8.16673300">
  <ele>244.336</ele>
 </trkpt>
 <trkpt lat="51.49307200" lon="8.16672800">
  <ele>243.418</ele>
 </trkpt>
 <trkpt lat="51.49292800" lon="8.16677000">
  <ele>242.148</ele>
 </trkpt>
 <trkpt lat="51.49268600" lon="8.16686700">
  <ele>242.083</ele>
 </trkpt>
 <trkpt lat="51.49245600" lon="8.16702100">
  <ele>241.635</ele>
 </trkpt>
 <trkpt lat="51.49230300" lon="8.16714300">
  <ele>241.407</ele>
 </trkpt>
 <trkpt lat="51.49221700" lon="8.16724500">
  <ele>241.205</ele>
 </trkpt>
 <trkpt lat="51.49204600" lon="8.16744100">
  <ele>240.681</ele>
 </trkpt>
 <trkpt lat="51.49189700" lon="8.16767100">
  <ele>239.825</ele>
 </trkpt>
 <trkpt lat="51.49168100" lon="8.16808000">
  <ele>238.883</ele>
 </trkpt>
 <trkpt lat="51.49155700" lon="8.16849900">
  <ele>238.782</ele>
 </trkpt>
 <trkpt lat="51.49149900" lon="8.16889700">
  <ele>238.266</ele>
 </trkpt>
 <trkpt lat="51.49146300" lon="8.16914300">
  <ele>238.329</ele>
 </trkpt>
 <trkpt lat="51.49147200" lon="8.16955200">
  <ele>238.293</ele>
 </trkpt>
 <trkpt lat="51.49151900" lon="8.17020600">
  <ele>237.234</ele>
 </trkpt>
 <trkpt lat="51.49159500" lon="8.17103400">
  <ele>236.865</ele>
 </trkpt>
 <trkpt lat="51.49162300" lon="8.17123100">
  <ele>236.524</ele>
 </trkpt>
 <trkpt lat="51.49167600" lon="8.17166600">
  <ele>236.409</ele>
 </trkpt>
 <trkpt lat="51.49173100" lon="8.17218900">
  <ele>234.762</ele>
 </trkpt>
 <trkpt lat="51.49184400" lon="8.17277800">
  <ele>234.080</ele>
 </trkpt>
 <trkpt lat="51.49198100" lon="8.17330900">
  <ele>234.214</ele>
 </trkpt>
 <trkpt lat="51.49207400" lon="8.17360300">
  <ele>233.360</ele>
 </trkpt>
 <trkpt lat="51.49214500" lon="8.17388000">
  <ele>232.743</ele>
 </trkpt>
 <trkpt lat="51.49233200" lon="8.17445300">
  <ele>232.162</ele>
 </trkpt>
 <trkpt lat="51.49250800" lon="8.17515000">
  <ele>231.465</ele>
 </trkpt>
 <trkpt lat="51.49256700" lon="8.17570300">
  <ele>230.044</ele>
 </trkpt>
 <trkpt lat="51.49255800" lon="8.17587300">
  <ele>230.644</ele>
 </trkpt>
 <trkpt lat="51.49253300" lon="8.17643800">
  <ele>229.988</ele>
 </trkpt>
 <trkpt lat="51.49246300" lon="8.17702400">
  <ele>229.444</ele>
 </trkpt>
 <trkpt lat="51.49232000" lon="8.17749600">
  <ele>228.871</ele>
 </trkpt>
 <trkpt lat="51.49225500" lon="8.17771900">
  <ele>228.790</ele>
 </trkpt>
 <trkpt lat="51.49208200" lon="8.17807200">
  <ele>228.119</ele>
 </trkpt>
 <trkpt lat="51.49185500" lon="8.17838900">
  <ele>227.370</ele>
 </trkpt>
 <trkpt lat="51.49156800" lon="8.17864000">
  <ele>226.529</ele>
 </trkpt>
 <trkpt lat="51.49128300" lon="8.17879500">
  <ele>226.241</ele>
 </trkpt>
 <trkpt lat="51.49100100" lon="8.17887200">
  <ele>226.055</ele>
 </trkpt>
 <trkpt lat="51.49080400" lon="8.17887900">
  <ele>225.920</ele>
 </trkpt>
 <trkpt lat="51.49059900" lon="8.17888800">
  <ele>225.369</ele>
 </trkpt>
 <trkpt lat="51.49042600" lon="8.17883500">
  <ele>225.124</ele>
 </trkpt>
 <trkpt lat="51.49020300" lon="8.17872000">
  <ele>224.757</ele>
 </trkpt>
 <trkpt lat="51.48997200" lon="8.17854200">
  <ele>224.596</ele>
 </trkpt>
 <trkpt lat="51.48972800" lon="8.17833800">
  <ele>224.588</ele>
 </trkpt>
 <trkpt lat="51.48942700" lon="8.17781100">
  <ele>223.712</ele>
 </trkpt>
 <trkpt lat="51.48925700" lon="8.17735500">
  <ele>222.756</ele>
 </trkpt>
 <trkpt lat="51.48915300" lon="8.17712700">
  <ele>222.617</ele>
 </trkpt>
 <trkpt lat="51.48907600" lon="8.17686500">
  <ele>221.371</ele>
 </trkpt>
 <trkpt lat="51.48895200" lon="8.17606700">
  <ele>220.603</ele>
 </trkpt>
 <trkpt lat="51.48884200" lon="8.17562000">
  <ele>220.675</ele>
 </trkpt>
 <trkpt lat="51.48865200" lon="8.17515800">
  <ele>219.986</ele>
 </trkpt>
 <trkpt lat="51.48847400" lon="8.17470400">
  <ele>218.976</ele>
 </trkpt>
 <trkpt lat="51.48815300" lon="8.17421900">
  <ele>218.785</ele>
 </trkpt>
 <trkpt lat="51.48789300" lon="8.17403800">
  <ele>217.994</ele>
 </trkpt>
 <trkpt lat="51.48748500" lon="8.17383300">
  <ele>217.865</ele>
 </trkpt>
 <trkpt lat="51.48716900" lon="8.17378900">
  <ele>218.020</ele>
 </trkpt>
 <trkpt lat="51.48657200" lon="8.17394100">
  <ele>217.446</ele>
 </trkpt>
 <trkpt lat="51.48629300" lon="8.17414100">
  <ele>218.037</ele>
 </trkpt>
 <trkpt lat="51.48596800" lon="8.17452900">
  <ele>217.271</ele>
 </trkpt>
 <trkpt lat="51.48574900" lon="8.17480600">
  <ele>216.997</ele>
 </trkpt>
 <trkpt lat="51.48554200" lon="8.17510400">
  <ele>217.014</ele>
 </trkpt>
 <trkpt lat="51.48541200" lon="8.17526000">
  <ele>217.508</ele>
 </trkpt>
 <trkpt lat="51.48526300" lon="8.17537200">
  <ele>217.485</ele>
 </trkpt>
 <trkpt lat="51.48504800" lon="8.17547100">
  <ele>217.203</ele>
 </trkpt>
 <trkpt lat="51.48497500" lon="8.17554500">
  <ele>217.717</ele>
 </trkpt>
 <trkpt lat="51.48464300" lon="8.17592900">
  <ele>217.387</ele>
 </trkpt>
 <trkpt lat="51.48435400" lon="8.17622400">
  <ele>217.681</ele>
 </trkpt>
 <trkpt lat="51.48401200" lon="8.17650600">
  <ele>217.096</ele>
 </trkpt>
 <trkpt lat="51.48358100" lon="8.17679400">
  <ele>217.399</ele>
 </trkpt>
 <trkpt lat="51.48343300" lon="8.17692300">
  <ele>218.328</ele>
 </trkpt>
 <trkpt lat="51.48334600" lon="8.17699800">
  <ele>217.992</ele>
 </trkpt>
 <trkpt lat="51.48322700" lon="8.17735700">
  <ele>217.835</ele>
 </trkpt>
 <trkpt lat="51.48309000" lon="8.17750000">
  <ele>218.013</ele>
 </trkpt>
 <trkpt lat="51.48264500" lon="8.17765500">
  <ele>218.204</ele>
 </trkpt>
 <trkpt lat="51.48224000" lon="8.17774100">
  <ele>217.815</ele>
 </trkpt>
 <trkpt lat="51.48183200" lon="8.17776300">
  <ele>216.981</ele>
 </trkpt>
 <trkpt lat="51.48165300" lon="8.17780200">
  <ele>218.298</ele>
 </trkpt>
 <trkpt lat="51.48135400" lon="8.17781700">
  <ele>217.801</ele>
 </trkpt>
 <trkpt lat="51.48086900" lon="8.17785100">
  <ele>217.936</ele>
 </trkpt>
 <trkpt lat="51.48041700" lon="8.17796700">
  <ele>216.830</ele>
 </trkpt>
 <trkpt lat="51.48018300" lon="8.17807700">
  <ele>217.470</ele>
 </trkpt>
 <trkpt lat="51.47993400" lon="8.17829100">
  <ele>216.390</ele>
 </trkpt>
 <trkpt lat="51.47969100" lon="8.17855400">
  <ele>216.172</ele>
 </trkpt>
 <trkpt lat="51.47962900" lon="8.17864600">
  <ele>216.217</ele>
 </trkpt>
 <trkpt lat="51.47941000" lon="8.17901600">
  <ele>215.842</ele>
 </trkpt>
 <trkpt lat="51.47922400" lon="8.17938600">
  <ele>215.546</ele>
 </trkpt>
 <trkpt lat="51.47904300" lon="8.17987600">
  <ele>215.235</ele>
 </trkpt>
 <trkpt lat="51.47896400" lon="8.18015500">
  <ele>215.316</ele>
 </trkpt>
 <trkpt lat="51.47892600" lon="8.18039000">
  <ele>215.812</ele>
 </trkpt>
 <trkpt lat="51.47887300" lon="8.18084500">
  <ele>214.953</ele>
 </trkpt>
 <trkpt lat="51.47889900" lon="8.18146600">
  <ele>215.266</ele>
 </trkpt>
 <trkpt lat="51.47892100" lon="8.18169200">
  <ele>215.304</ele>
 </trkpt>
 <trkpt lat="51.47894800" lon="8.18182800">
  <ele>215.531</ele>
 </trkpt>
 <trkpt lat="51.47901400" lon="8.18205800">
  <ele>214.684</ele>
 </trkpt>
 <trkpt lat="51.47915000" lon="8.18223500">
  <ele>215.495</ele>
 </trkpt>
 <trkpt lat="51.47918100" lon="8.18255600">
  <ele>215.283</ele>
 </trkpt>
 <trkpt lat="51.47919800" lon="8.18270500">
  <ele>215.115</ele>
 </trkpt>
 <trkpt lat="51.47929900" lon="8.18290000">
  <ele>214.782</ele>
 </trkpt>
 <trkpt lat="51.47949300" lon="8.18325600">
  <ele>215.011</ele>
 </trkpt>
 <trkpt lat="51.47983100" lon="8.18384000">
  <ele>214.763</ele>
 </trkpt>
 <trkpt lat="51.48018700" lon="8.18443400">
  <ele>214.361</ele>
 </trkpt>
 <trkpt lat="51.48057500" lon="8.18532600">
  <ele>214.481</ele>
 </trkpt>
 <trkpt lat="51.48076500" lon="8.18623500">
  <ele>214.737</ele>
 </trkpt>
 <trkpt lat="51.48081000" lon="8.18665900">
  <ele>214.414</ele>
 </trkpt>
 <trkpt lat="51.48080900" lon="8.18723800">
  <ele>214.020</ele>
 </trkpt>
 <trkpt lat="51.48080000" lon="8.18751200">
  <ele>214.831</ele>
 </trkpt>
 <trkpt lat="51.48070100" lon="8.18848700">
  <ele>214.933</ele>
 </trkpt>
 <trkpt lat="51.48049800" lon="8.18939800">
  <ele>215.847</ele>
 </trkpt>
 <trkpt lat="51.48018300" lon="8.19019700">
  <ele>215.822</ele>
 </trkpt>
 <trkpt lat="51.48008400" lon="8.19038600">
  <ele>216.443</ele>
 </trkpt>
 <trkpt lat="51.47990400" lon="8.19068000">
  <ele>216.905</ele>
 </trkpt>
 <trkpt lat="51.47978000" lon="8.19084400">
  <ele>217.318</ele>
 </trkpt>
 <trkpt lat="51.47961300" lon="8.19106900">
  <ele>217.686</ele>
 </trkpt>
 <trkpt lat="51.47942200" lon="8.19133600">
  <ele>217.070</ele>
 </trkpt>
 <trkpt lat="51.47924900" lon="8.19160100">
  <ele>218.255</ele>
 </trkpt>
 <trkpt lat="51.47892600" lon="8.19199800">
  <ele>218.901</ele>
 </trkpt>
 <trkpt lat="51.47872200" lon="8.19230100">
  <ele>218.531</ele>
 </trkpt>
 <trkpt lat="51.47825200" lon="8.19291900">
  <ele>218.297</ele>
 </trkpt>
 <trkpt lat="51.47810600" lon="8.19310100">
  <ele>219.139</ele>
 </trkpt>
 <trkpt lat="51.47775400" lon="8.19359100">
  <ele>218.312</ele>
 </trkpt>
 <trkpt lat="51.47761400" lon="8.19380900">
  <ele>219.012</ele>
 </trkpt>
 <trkpt lat="51.47744200" lon="8.19425900">
  <ele>219.222</ele>
 </trkpt>
 <trkpt lat="51.47734500" lon="8.19448000">
  <ele>219.466</ele>
 </trkpt>
 <trkpt lat="51.47727000" lon="8.19491100">
  <ele>218.854</ele>
 </trkpt>
 <trkpt lat="51.47722400" lon="8.19520300">
  <ele>219.291</ele>
 </trkpt>
 <trkpt lat="51.47720200" lon="8.19578300">
  <ele>218.622</ele>
 </trkpt>
 <trkpt lat="51.47726000" lon="8.19646200">
  <ele>218.928</ele>
 </trkpt>
 <trkpt lat="51.47736500" lon="8.19729100">
  <ele>218.501</ele>
 </trkpt>
 <trkpt lat="51.47739300" lon="8.19798700">
  <ele>218.906</ele>
 </trkpt>
 <trkpt lat="51.47737100" lon="8.19869800">
  <ele>218.711</ele>
 </trkpt>
 <trkpt lat="51.47729300" lon="8.19956100">
  <ele>218.619</ele>
 </trkpt>
 <trkpt lat="51.47723800" lon="8.19997700">
  <ele>218.851</ele>
 </trkpt>
 <trkpt lat="51.47715900" lon="8.20068600">
  <ele>218.847</ele>
 </trkpt>
 <trkpt lat="51.47708600" lon="8.20148600">
  <ele>218.950</ele>
 </trkpt>
 <trkpt lat="51.47698100" lon="8.20245900">
  <ele>218.832</ele>
 </trkpt>
 <trkpt lat="51.47696800" lon="8.20273400">
  <ele>219.328</ele>
 </trkpt>
 <trkpt lat="51.47693900" lon="8.20305800">
  <ele>219.313</ele>
 </trkpt>
 <trkpt lat="51.47696500" lon="8.20327600">
  <ele>219.245</ele>
 </trkpt>
 <trkpt lat="51.47697300" lon="8.20343000">
  <ele>219.473</ele>
 </trkpt>
 <trkpt lat="51.47701100" lon="8.20369200">
  <ele>219.331</ele>
 </trkpt>
 <trkpt lat="51.47706100" lon="8.20390400">
  <ele>219.607</ele>
 </trkpt>
 <trkpt lat="51.47713500" lon="8.20413300">
  <ele>219.450</ele>
 </trkpt>
 <trkpt lat="51.47742300" lon="8.20478700">
  <ele>219.988</ele>
 </trkpt>
 <trkpt lat="51.47771400" lon="8.20526300">
  <ele>219.672</ele>
 </trkpt>
 <trkpt lat="51.47793700" lon="8.20563800">
  <ele>221.181</ele>
 </trkpt>
 <trkpt lat="51.47806000" lon="8.20582600">
  <ele>221.007</ele>
 </trkpt>
 <trkpt lat="51.47827600" lon="8.20614100">
  <ele>220.637</ele>
 </trkpt>
 <trkpt lat="51.47847500" lon="8.20644900">
  <ele>220.866</ele>
 </trkpt>
 <trkpt lat="51.47888800" lon="8.20708600">
  <ele>221.784</ele>
 </trkpt>
 <trkpt lat="51.47923900" lon="8.20765000">
  <ele>223.412</ele>
 </trkpt>
 <trkpt lat="51.47947100" lon="8.20803400">
  <ele>223.219</ele>
 </trkpt>
 <trkpt lat="51.47980400" lon="8.20858000">
  <ele>223.623</ele>
 </trkpt>
 <trkpt lat="51.47992900" lon="8.20877900">
  <ele>223.572</ele>
 </trkpt>
 <trkpt lat="51.48025100" lon="8.20929400">
  <ele>224.266</ele>
 </trkpt>
 <trkpt lat="51.48041300" lon="8.20959500">
  <ele>224.464</ele>
 </trkpt>
 <trkpt lat="51.48054700" lon="8.20989800">
  <ele>224.722</ele>
 </trkpt>
 <trkpt lat="51.48075600" lon="8.21055100">
  <ele>224.988</ele>
 </trkpt>
 <trkpt lat="51.48082300" lon="8.21083000">
  <ele>225.427</ele>
 </trkpt>
 <trkpt lat="51.48089100" lon="8.21125800">
  <ele>225.567</ele>
 </trkpt>
 <trkpt lat="51.48091900" lon="8.21199800">
  <ele>225.912</ele>
 </trkpt>
 <trkpt lat="51.48088200" lon="8.21253700">
  <ele>225.783</ele>
 </trkpt>
 <trkpt lat="51.48083500" lon="8.21303200">
  <ele>225.303</ele>
 </trkpt>
 <trkpt lat="51.48079200" lon="8.21358500">
  <ele>225.695</ele>
 </trkpt>
 <trkpt lat="51.48078800" lon="8.21376400">
  <ele>227.359</ele>
 </trkpt>
 <trkpt lat="51.48076600" lon="8.21402600">
  <ele>227.171</ele>
 </trkpt>
 <trkpt lat="51.48071500" lon="8.21452800">
  <ele>226.881</ele>
 </trkpt>
 <trkpt lat="51.48068500" lon="8.21477700">
  <ele>226.739</ele>
 </trkpt>
 <trkpt lat="51.48062200" lon="8.21549400">
  <ele>226.506</ele>
 </trkpt>
 <trkpt lat="51.48051000" lon="8.21626400">
  <ele>226.236</ele>
 </trkpt>
 <trkpt lat="51.48043700" lon="8.21692900">
  <ele>226.194</ele>
 </trkpt>
 <trkpt lat="51.48038700" lon="8.21756900">
  <ele>225.676</ele>
 </trkpt>
 <trkpt lat="51.48037200" lon="8.21853300">
  <ele>225.584</ele>
 </trkpt>
 <trkpt lat="51.48036900" lon="8.21868800">
  <ele>225.819</ele>
 </trkpt>
 <trkpt lat="51.48036900" lon="8.21979100">
  <ele>226.303</ele>
 </trkpt>
 <trkpt lat="51.48035700" lon="8.22074200">
  <ele>226.085</ele>
 </trkpt>
 <trkpt lat="51.48036000" lon="8.22087100">
  <ele>225.997</ele>
 </trkpt>
 <trkpt lat="51.48035600" lon="8.22162500">
  <ele>226.436</ele>
 </trkpt>
 <trkpt lat="51.48036100" lon="8.22183300">
  <ele>226.563</ele>
 </trkpt>
 <trkpt lat="51.48036500" lon="8.22212000">
  <ele>226.406</ele>
 </trkpt>
 <trkpt lat="51.48038000" lon="8.22262500">
  <ele>226.889</ele>
 </trkpt>
 <trkpt lat="51.48040700" lon="8.22276900">
  <ele>226.878</ele>
 </trkpt>
 <trkpt lat="51.48039600" lon="8.22307200">
  <ele>226.879</ele>
 </trkpt>
 <trkpt lat="51.48038900" lon="8.22323200">
  <ele>226.879</ele>
 </trkpt>
 <trkpt lat="51.48034500" lon="8.22393900">
  <ele>227.370</ele>
 </trkpt>
 <trkpt lat="51.48029000" lon="8.22432000">
  <ele>227.244</ele>
 </trkpt>
 <trkpt lat="51.48024600" lon="8.22492300">
  <ele>227.284</ele>
 </trkpt>
 <trkpt lat="51.48018300" lon="8.22534300">
  <ele>227.931</ele>
 </trkpt>
 <trkpt lat="51.48014000" lon="8.22560400">
  <ele>227.669</ele>
 </trkpt>
 <trkpt lat="51.48010400" lon="8.22589700">
  <ele>227.925</ele>
 </trkpt>
 <trkpt lat="51.47993300" lon="8.22698700">
  <ele>228.957</ele>
 </trkpt>
 <trkpt lat="51.47986400" lon="8.22752600">
  <ele>228.929</ele>
 </trkpt>
 <trkpt lat="51.47979300" lon="8.22838400">
  <ele>229.066</ele>
 </trkpt>
 <trkpt lat="51.47980500" lon="8.22900700">
  <ele>229.810</ele>
 </trkpt>
 <trkpt lat="51.47980600" lon="8.22961700">
  <ele>229.955</ele>
 </trkpt>
 <trkpt lat="51.47976800" lon="8.22987700">
  <ele>230.826</ele>
 </trkpt>
 <trkpt lat="51.47976100" lon="8.23023700">
  <ele>230.652</ele>
 </trkpt>
 <trkpt lat="51.47975000" lon="8.23088100">
  <ele>230.852</ele>
 </trkpt>
 <trkpt lat="51.47974100" lon="8.23148900">
  <ele>230.721</ele>
 </trkpt>
 <trkpt lat="51.47975100" lon="8.23178800">
  <ele>231.436</ele>
 </trkpt>
 <trkpt lat="51.47974400" lon="8.23214900">
  <ele>231.102</ele>
 </trkpt>
 <trkpt lat="51.47976600" lon="8.23305000">
  <ele>231.709</ele>
 </trkpt>
 <trkpt lat="51.47980300" lon="8.23397100">
  <ele>231.914</ele>
 </trkpt>
 <trkpt lat="51.47983100" lon="8.23427000">
  <ele>232.539</ele>
 </trkpt>
 <trkpt lat="51.47983800" lon="8.23454800">
  <ele>232.088</ele>
 </trkpt>
 <trkpt lat="51.47986300" lon="8.23518600">
  <ele>232.361</ele>
 </trkpt>
 <trkpt lat="51.47987400" lon="8.23576100">
  <ele>233.247</ele>
 </trkpt>
 <trkpt lat="51.47991000" lon="8.23615400">
  <ele>232.355</ele>
 </trkpt>
 <trkpt lat="51.47993400" lon="8.23636000">
  <ele>232.739</ele>
 </trkpt>
 <trkpt lat="51.48005200" lon="8.23713800">
  <ele>232.949</ele>
 </trkpt>
 <trkpt lat="51.48009400" lon="8.23741300">
  <ele>232.829</ele>
 </trkpt>
 <trkpt lat="51.48015000" lon="8.23776200">
  <ele>232.997</ele>
 </trkpt>
 <trkpt lat="51.48021800" lon="8.23801100">
  <ele>233.806</ele>
 </trkpt>
 <trkpt lat="51.48030900" lon="8.23832900">
  <ele>233.512</ele>
 </trkpt>
 <trkpt lat="51.48040100" lon="8.23859700">
  <ele>233.521</ele>
 </trkpt>
 <trkpt lat="51.48076200" lon="8.23932800">
  <ele>234.065</ele>
 </trkpt>
 <trkpt lat="51.48131300" lon="8.24000400">
  <ele>233.529</ele>
 </trkpt>
 <trkpt lat="51.48186400" lon="8.24041400">
  <ele>234.174</ele>
 </trkpt>
 <trkpt lat="51.48203700" lon="8.24050200">
  <ele>234.404</ele>
 </trkpt>
 <trkpt lat="51.48257000" lon="8.24081900">
  <ele>234.331</ele>
 </trkpt>
 <trkpt lat="51.48301200" lon="8.24124400">
  <ele>235.475</ele>
 </trkpt>
 <trkpt lat="51.48344400" lon="8.24198000">
  <ele>236.862</ele>
 </trkpt>
 <trkpt lat="51.48367500" lon="8.24266400">
  <ele>236.494</ele>
 </trkpt>
 <trkpt lat="51.48374200" lon="8.24293700">
  <ele>237.007</ele>
 </trkpt>
 <trkpt lat="51.48381500" lon="8.24383100">
  <ele>237.769</ele>
 </trkpt>
 <trkpt lat="51.48380000" lon="8.24411400">
  <ele>237.802</ele>
 </trkpt>
 <trkpt lat="51.48377900" lon="8.24439600">
  <ele>237.769</ele>
 </trkpt>
 <trkpt lat="51.48372300" lon="8.24476700">
  <ele>238.218</ele>
 </trkpt>
 <trkpt lat="51.48355900" lon="8.24542800">
  <ele>238.377</ele>
 </trkpt>
 <trkpt lat="51.48352100" lon="8.24554200">
  <ele>237.983</ele>
 </trkpt>
 <trkpt lat="51.48347100" lon="8.24571200">
  <ele>239.124</ele>
 </trkpt>
 <trkpt lat="51.48334700" lon="8.24590100">
  <ele>238.556</ele>
 </trkpt>
 <trkpt lat="51.48330100" lon="8.24598600">
  <ele>238.557</ele>
 </trkpt>
 <trkpt lat="51.48322800" lon="8.24614700">
  <ele>238.447</ele>
 </trkpt>
 <trkpt lat="51.48297200" lon="8.24649600">
  <ele>238.279</ele>
 </trkpt>
 <trkpt lat="51.48251900" lon="8.24696100">
  <ele>238.168</ele>
 </trkpt>
 <trkpt lat="51.48229700" lon="8.24722000">
  <ele>238.111</ele>
 </trkpt>
 <trkpt lat="51.48194000" lon="8.24766600">
  <ele>238.956</ele>
 </trkpt>
 <trkpt lat="51.48181500" lon="8.24786900">
  <ele>239.238</ele>
 </trkpt>
 <trkpt lat="51.48171600" lon="8.24801700">
  <ele>238.499</ele>
 </trkpt>
 <trkpt lat="51.48160800" lon="8.24823300">
  <ele>239.130</ele>
 </trkpt>
 <trkpt lat="51.48128700" lon="8.24885800">
  <ele>238.864</ele>
 </trkpt>
 <trkpt lat="51.48094200" lon="8.24968300">
  <ele>238.197</ele>
 </trkpt>
 <trkpt lat="51.48088400" lon="8.24987900">
  <ele>238.207</ele>
 </trkpt>
 <trkpt lat="51.48050800" lon="8.25118900">
  <ele>238.222</ele>
 </trkpt>
 <trkpt lat="51.48042200" lon="8.25151300">
  <ele>238.108</ele>
 </trkpt>
 <trkpt lat="51.48033600" lon="8.25190100">
  <ele>238.642</ele>
 </trkpt>
 <trkpt lat="51.48027900" lon="8.25275500">
  <ele>238.219</ele>
 </trkpt>
 <trkpt lat="51.48029100" lon="8.25305300">
  <ele>238.578</ele>
 </trkpt>
 <trkpt lat="51.48034600" lon="8.25353700">
  <ele>237.649</ele>
 </trkpt>
 <trkpt lat="51.48053200" lon="8.25439200">
  <ele>238.099</ele>
 </trkpt>
 <trkpt lat="51.48079300" lon="8.25518000">
  <ele>238.412</ele>
 </trkpt>
 <trkpt lat="51.48115200" lon="8.25585300">
  <ele>238.343</ele>
 </trkpt>
 <trkpt lat="51.48161700" lon="8.25648900">
  <ele>238.862</ele>
 </trkpt>
 <trkpt lat="51.48174700" lon="8.25666300">
  <ele>238.277</ele>
 </trkpt>
 <trkpt lat="51.48189400" lon="8.25685200">
  <ele>238.088</ele>
 </trkpt>
 <trkpt lat="51.48199500" lon="8.25699600">
  <ele>238.759</ele>
 </trkpt>
 <trkpt lat="51.48206500" lon="8.25710700">
  <ele>238.262</ele>
 </trkpt>
 <trkpt lat="51.48221700" lon="8.25744200">
  <ele>238.451</ele>
 </trkpt>
 <trkpt lat="51.48240900" lon="8.25807400">
  <ele>237.838</ele>
 </trkpt>
 <trkpt lat="51.48250600" lon="8.25860300">
  <ele>238.504</ele>
 </trkpt>
 <trkpt lat="51.48254400" lon="8.25911900">
  <ele>238.536</ele>
 </trkpt>
 <trkpt lat="51.48257300" lon="8.25968100">
  <ele>238.701</ele>
 </trkpt>
 <trkpt lat="51.48262200" lon="8.26021800">
  <ele>237.905</ele>
 </trkpt>
 <trkpt lat="51.48264400" lon="8.26047800">
  <ele>238.081</ele>
 </trkpt>
 <trkpt lat="51.48273400" lon="8.26137800">
  <ele>238.499</ele>
 </trkpt>
 <trkpt lat="51.48276000" lon="8.26170000">
  <ele>238.360</ele>
 </trkpt>
 <trkpt lat="51.48278400" lon="8.26194400">
  <ele>238.368</ele>
 </trkpt>
 <trkpt lat="51.48279200" lon="8.26214000">
  <ele>237.493</ele>
 </trkpt>
 <trkpt lat="51.48284400" lon="8.26269900">
  <ele>237.491</ele>
 </trkpt>
 <trkpt lat="51.48302300" lon="8.26392200">
  <ele>238.407</ele>
 </trkpt>
 <trkpt lat="51.48334900" lon="8.26485000">
  <ele>238.718</ele>
 </trkpt>
 <trkpt lat="51.48391800" lon="8.26592300">
  <ele>239.682</ele>
 </trkpt>
 <trkpt lat="51.48431400" lon="8.26669000">
  <ele>239.678</ele>
 </trkpt>
 <trkpt lat="51.48441400" lon="8.26689600">
  <ele>240.611</ele>
 </trkpt>
 <trkpt lat="51.48460400" lon="8.26740400">
  <ele>240.407</ele>
 </trkpt>
 <trkpt lat="51.48480800" lon="8.26836400">
  <ele>241.628</ele>
 </trkpt>
 <trkpt lat="51.48486400" lon="8.26905800">
  <ele>242.647</ele>
 </trkpt>
 <trkpt lat="51.48486800" lon="8.26924500">
  <ele>242.521</ele>
 </trkpt>
 <trkpt lat="51.48490200" lon="8.26988200">
  <ele>242.698</ele>
 </trkpt>
 <trkpt lat="51.48492500" lon="8.27058800">
  <ele>242.987</ele>
 </trkpt>
 <trkpt lat="51.48500800" lon="8.27146100">
  <ele>243.121</ele>
 </trkpt>
 <trkpt lat="51.48511800" lon="8.27230100">
  <ele>242.660</ele>
 </trkpt>
 <trkpt lat="51.48525100" lon="8.27321600">
  <ele>243.108</ele>
 </trkpt>
 <trkpt lat="51.48532400" lon="8.27362000">
  <ele>242.610</ele>
 </trkpt>
 <trkpt lat="51.48550900" lon="8.27426000">
  <ele>243.052</ele>
 </trkpt>
 <trkpt lat="51.48576100" lon="8.27491000">
  <ele>242.571</ele>
 </trkpt>
 <trkpt lat="51.48583700" lon="8.27508900">
  <ele>242.919</ele>
 </trkpt>
 <trkpt lat="51.48590900" lon="8.27527900">
  <ele>243.045</ele>
 </trkpt>
 <trkpt lat="51.48611700" lon="8.27582600">
  <ele>242.534</ele>
 </trkpt>
 <trkpt lat="51.48622900" lon="8.27640400">
  <ele>243.014</ele>
 </trkpt>
 <trkpt lat="51.48626100" lon="8.27668200">
  <ele>243.400</ele>
 </trkpt>
 <trkpt lat="51.48628100" lon="8.27696700">
  <ele>243.333</ele>
 </trkpt>
 <trkpt lat="51.48632300" lon="8.27732700">
  <ele>243.077</ele>
 </trkpt>
 <trkpt lat="51.48633300" lon="8.27781800">
  <ele>243.028</ele>
 </trkpt>
 <trkpt lat="51.48634100" lon="8.27820700">
  <ele>242.880</ele>
 </trkpt>
 <trkpt lat="51.48635400" lon="8.27864400">
  <ele>243.419</ele>
 </trkpt>
 <trkpt lat="51.48635700" lon="8.27903100">
  <ele>243.608</ele>
 </trkpt>
 <trkpt lat="51.48637000" lon="8.27939000">
  <ele>244.953</ele>
 </trkpt>
 <trkpt lat="51.48637800" lon="8.27972400">
  <ele>245.459</ele>
 </trkpt>
 <trkpt lat="51.48639300" lon="8.28045500">
  <ele>245.616</ele>
 </trkpt>
 <trkpt lat="51.48641100" lon="8.28127700">
  <ele>245.455</ele>
 </trkpt>
 <trkpt lat="51.48642200" lon="8.28159000">
  <ele>245.857</ele>
 </trkpt>
 <trkpt lat="51.48643800" lon="8.28230600">
  <ele>246.306</ele>
 </trkpt>
 <trkpt lat="51.48644600" lon="8.28323600">
  <ele>246.060</ele>
 </trkpt>
 <trkpt lat="51.48639500" lon="8.28408400">
  <ele>246.383</ele>
 </trkpt>
 <trkpt lat="51.48637100" lon="8.28430100">
  <ele>247.341</ele>
 </trkpt>
 <trkpt lat="51.48629600" lon="8.28517800">
  <ele>247.482</ele>
 </trkpt>
 <trkpt lat="51.48626900" lon="8.28623400">
  <ele>248.533</ele>
 </trkpt>
 <trkpt lat="51.48627700" lon="8.28709000">
  <ele>249.258</ele>
 </trkpt>
 <trkpt lat="51.48629500" lon="8.28800400">
  <ele>249.657</ele>
 </trkpt>
 <trkpt lat="51.48631900" lon="8.28847100">
  <ele>249.420</ele>
 </trkpt>
 <trkpt lat="51.48632800" lon="8.28931200">
  <ele>249.945</ele>
 </trkpt>
 <trkpt lat="51.48628000" lon="8.29007400">
  <ele>250.230</ele>
 </trkpt>
 <trkpt lat="51.48622600" lon="8.29054400">
  <ele>250.610</ele>
 </trkpt>
 <trkpt lat="51.48607100" lon="8.29163200">
  <ele>251.415</ele>
 </trkpt>
 <trkpt lat="51.48599000" lon="8.29216800">
  <ele>251.691</ele>
 </trkpt>
 <trkpt lat="51.48595000" lon="8.29237700">
  <ele>250.834</ele>
 </trkpt>
 <trkpt lat="51.48589100" lon="8.29295800">
  <ele>252.110</ele>
 </trkpt>
 <trkpt lat="51.48585500" lon="8.29384400">
  <ele>252.409</ele>
 </trkpt>
 <trkpt lat="51.48588700" lon="8.29472700">
  <ele>253.295</ele>
 </trkpt>
 <trkpt lat="51.48594600" lon="8.29559100">
  <ele>253.931</ele>
 </trkpt>
 <trkpt lat="51.48595700" lon="8.29594400">
  <ele>254.160</ele>
 </trkpt>
 <trkpt lat="51.48600900" lon="8.29683500">
  <ele>254.420</ele>
 </trkpt>
 <trkpt lat="51.48607200" lon="8.29790300">
  <ele>254.790</ele>
 </trkpt>
 <trkpt lat="51.48612500" lon="8.29889800">
  <ele>255.724</ele>
 </trkpt>
 <trkpt lat="51.48613000" lon="8.29924900">
  <ele>256.314</ele>
 </trkpt>
 <trkpt lat="51.48613500" lon="8.29950300">
  <ele>256.837</ele>
 </trkpt>
 <trkpt lat="51.48612800" lon="8.29977500">
  <ele>257.222</ele>
 </trkpt>
 <trkpt lat="51.48608400" lon="8.30085600">
  <ele>258.259</ele>
 </trkpt>
 <trkpt lat="51.48598000" lon="8.30201000">
  <ele>258.286</ele>
 </trkpt>
 <trkpt lat="51.48589200" lon="8.30302700">
  <ele>259.489</ele>
 </trkpt>
 <trkpt lat="51.48587100" lon="8.30327300">
  <ele>259.307</ele>
 </trkpt>
 <trkpt lat="51.48583000" lon="8.30369300">
  <ele>259.434</ele>
 </trkpt>
 <trkpt lat="51.48574400" lon="8.30437100">
  <ele>259.206</ele>
 </trkpt>
 <trkpt lat="51.48571400" lon="8.30475900">
  <ele>260.088</ele>
 </trkpt>
 <trkpt lat="51.48572600" lon="8.30507200">
  <ele>260.211</ele>
 </trkpt>
 <trkpt lat="51.48573200" lon="8.30532400">
  <ele>259.896</ele>
 </trkpt>
 <trkpt lat="51.48573500" lon="8.30587200">
  <ele>260.441</ele>
 </trkpt>
 <trkpt lat="51.48573100" lon="8.30612600">
  <ele>261.037</ele>
 </trkpt>
 <trkpt lat="51.48579700" lon="8.30666500">
  <ele>260.798</ele>
 </trkpt>
 <trkpt lat="51.48585400" lon="8.30699500">
  <ele>261.216</ele>
 </trkpt>
 <trkpt lat="51.48593800" lon="8.30746800">
  <ele>261.674</ele>
 </trkpt>
 <trkpt lat="51.48611300" lon="8.30816700">
  <ele>262.499</ele>
 </trkpt>
 <trkpt lat="51.48628900" lon="8.30882400">
  <ele>262.449</ele>
 </trkpt>
 <trkpt lat="51.48633900" lon="8.30908100">
  <ele>262.576</ele>
 </trkpt>
 <trkpt lat="51.48639900" lon="8.30946500">
  <ele>262.736</ele>
 </trkpt>
 <trkpt lat="51.48642300" lon="8.30983100">
  <ele>262.476</ele>
 </trkpt>
 <trkpt lat="51.48643700" lon="8.31015800">
  <ele>262.688</ele>
 </trkpt>
 <trkpt lat="51.48644000" lon="8.31042900">
  <ele>262.810</ele>
 </trkpt>
 <trkpt lat="51.48638700" lon="8.31123300">
  <ele>263.617</ele>
 </trkpt>
 <trkpt lat="51.48636700" lon="8.31189300">
  <ele>264.741</ele>
 </trkpt>
 <trkpt lat="51.48635600" lon="8.31252600">
  <ele>264.752</ele>
 </trkpt>
 <trkpt lat="51.48627900" lon="8.31284500">
  <ele>265.193</ele>
 </trkpt>
 <trkpt lat="51.48625300" lon="8.31327500">
  <ele>264.710</ele>
 </trkpt>
 <trkpt lat="51.48625200" lon="8.31359100">
  <ele>265.082</ele>
 </trkpt>
 <trkpt lat="51.48628200" lon="8.31403000">
  <ele>265.308</ele>
 </trkpt>
 <trkpt lat="51.48630100" lon="8.31468000">
  <ele>266.217</ele>
 </trkpt>
 <trkpt lat="51.48630600" lon="8.31482100">
  <ele>265.673</ele>
 </trkpt>
 <trkpt lat="51.48630500" lon="8.31504100">
  <ele>265.733</ele>
 </trkpt>
 <trkpt lat="51.48633300" lon="8.31531000">
  <ele>265.807</ele>
 </trkpt>
 <trkpt lat="51.48636200" lon="8.31572500">
  <ele>265.854</ele>
 </trkpt>
 <trkpt lat="51.48637200" lon="8.31598700">
  <ele>265.264</ele>
 </trkpt>
 <trkpt lat="51.48639000" lon="8.31660300">
  <ele>265.420</ele>
 </trkpt>
 <trkpt lat="51.48639800" lon="8.31687800">
  <ele>265.732</ele>
 </trkpt>
 <trkpt lat="51.48642600" lon="8.31730400">
  <ele>265.774</ele>
 </trkpt>
 <trkpt lat="51.48642400" lon="8.31774500">
  <ele>265.554</ele>
 </trkpt>
 <trkpt lat="51.48642500" lon="8.31809400">
  <ele>267.742</ele>
 </trkpt>
 <trkpt lat="51.48642400" lon="8.31853200">
  <ele>266.720</ele>
 </trkpt>
 <trkpt lat="51.48641500" lon="8.31911700">
  <ele>267.435</ele>
 </trkpt>
 <trkpt lat="51.48638600" lon="8.31956900">
  <ele>266.413</ele>
 </trkpt>
 <trkpt lat="51.48636500" lon="8.31982700">
  <ele>266.969</ele>
 </trkpt>
 <trkpt lat="51.48634600" lon="8.32007100">
  <ele>266.450</ele>
 </trkpt>
 <trkpt lat="51.48634700" lon="8.32077200">
  <ele>266.225</ele>
 </trkpt>
 <trkpt lat="51.48640300" lon="8.32149500">
  <ele>265.561</ele>
 </trkpt>
 <trkpt lat="51.48650500" lon="8.32213400">
  <ele>265.220</ele>
 </trkpt>
 <trkpt lat="51.48663900" lon="8.32276600">
  <ele>265.144</ele>
 </trkpt>
 <trkpt lat="51.48667000" lon="8.32306900">
  <ele>264.795</ele>
 </trkpt>
 <trkpt lat="51.48676100" lon="8.32354100">
  <ele>264.373</ele>
 </trkpt>
 <trkpt lat="51.48677900" lon="8.32371800">
  <ele>265.319</ele>
 </trkpt>
 <trkpt lat="51.48679300" lon="8.32383700">
  <ele>265.931</ele>
 </trkpt>
 <trkpt lat="51.48679000" lon="8.32411100">
  <ele>266.158</ele>
 </trkpt>
 <trkpt lat="51.48677000" lon="8.32461200">
  <ele>265.109</ele>
 </trkpt>
 <trkpt lat="51.48670300" lon="8.32528200">
  <ele>264.206</ele>
 </trkpt>
 <trkpt lat="51.48668000" lon="8.32538100">
  <ele>264.628</ele>
 </trkpt>
 <trkpt lat="51.48657100" lon="8.32581000">
  <ele>264.594</ele>
 </trkpt>
 <trkpt lat="51.48632200" lon="8.32641300">
  <ele>263.758</ele>
 </trkpt>
 <trkpt lat="51.48619900" lon="8.32663300">
  <ele>264.518</ele>
 </trkpt>
 <trkpt lat="51.48591200" lon="8.32711800">
  <ele>263.334</ele>
 </trkpt>
 <trkpt lat="51.48564700" lon="8.32753600">
  <ele>265.062</ele>
 </trkpt>
 <trkpt lat="51.48548200" lon="8.32772900">
  <ele>265.559</ele>
 </trkpt>
 <trkpt lat="51.48536600" lon="8.32787300">
  <ele>265.362</ele>
 </trkpt>
 <trkpt lat="51.48503000" lon="8.32826500">
  <ele>264.981</ele>
 </trkpt>
 <trkpt lat="51.48471800" lon="8.32872500">
  <ele>265.308</ele>
 </trkpt>
 <trkpt lat="51.48425900" lon="8.32959200">
  <ele>265.498</ele>
 </trkpt>
 <trkpt lat="51.48401500" lon="8.33004700">
  <ele>266.026</ele>
 </trkpt>
 <trkpt lat="51.48369600" lon="8.33064200">
  <ele>265.705</ele>
 </trkpt>
 <trkpt lat="51.48346700" lon="8.33116200">
  <ele>265.888</ele>
 </trkpt>
 <trkpt lat="51.48325900" lon="8.33186000">
  <ele>266.199</ele>
 </trkpt>
 <trkpt lat="51.48313300" lon="8.33235100">
  <ele>265.016</ele>
 </trkpt>
 <trkpt lat="51.48311300" lon="8.33265700">
  <ele>264.396</ele>
 </trkpt>
 <trkpt lat="51.48312900" lon="8.33273600">
  <ele>264.338</ele>
 </trkpt>
 <trkpt lat="51.48324200" lon="8.33279500">
  <ele>263.482</ele>
 </trkpt>
 <trkpt lat="51.48331900" lon="8.33286100">
  <ele>263.503</ele>
 </trkpt>
 <trkpt lat="51.48357900" lon="8.33307500">
  <ele>263.303</ele>
 </trkpt>
 <trkpt lat="51.48389900" lon="8.33306700">
  <ele>262.510</ele>
 </trkpt>
 <trkpt lat="51.48426000" lon="8.33319500">
  <ele>261.997</ele>
 </trkpt>
 <trkpt lat="51.48466600" lon="8.33356400">
  <ele>261.522</ele>
 </trkpt>
 <trkpt lat="51.48482100" lon="8.33401000">
  <ele>263.173</ele>
 </trkpt>
 <trkpt lat="51.48479100" lon="8.33416300">
  <ele>263.350</ele>
 </trkpt>
    </trkseg>
  </trk>

</gpx>
