<?xml version="1.0" encoding="UTF-8" standalone="no"?>
<gpx xmlns="http://www.topografix.com/GPX/1/1" creator="MapSource 6.16.3" version="1.1">

<trk>
  <name>NW 3.31 Teil 1*</name>
<trkseg>
 <trkpt lat="51.25448000" lon="8.52882000">
 </trkpt>
 <trkpt lat="51.25519000" lon="8.52886000">
 </trkpt>
 <trkpt lat="51.25486000" lon="8.52941000">
 </trkpt>
 <trkpt lat="51.25537000" lon="8.52962000">
 </trkpt>
 <trkpt lat="51.25575000" lon="8.52996000">
 </trkpt>
 <trkpt lat="51.25625000" lon="8.53057000">
 </trkpt>
 <trkpt lat="51.25608000" lon="8.53128000">
 </trkpt>
 <trkpt lat="51.25579000" lon="8.53214000">
 </trkpt>
 <trkpt lat="51.25559000" lon="8.53287000">
 </trkpt>
 <trkpt lat="51.25525000" lon="8.53342000">
 </trkpt>
 <trkpt lat="51.25427000" lon="8.53332000">
 </trkpt>
 <trkpt lat="51.25427000" lon="8.53429000">
 </trkpt>
 <trkpt lat="51.25434000" lon="8.53522000">
 </trkpt>
 <trkpt lat="51.25455000" lon="8.53617000">
 </trkpt>
 <trkpt lat="51.25474000" lon="8.53651000">
 </trkpt>
 <trkpt lat="51.25369000" lon="8.53815000">
 </trkpt>
 <trkpt lat="51.25306000" lon="8.53901000">
 </trkpt>
 <trkpt lat="51.25251000" lon="8.53986000">
 </trkpt>
 <trkpt lat="51.25212000" lon="8.54097000">
 </trkpt>
 <trkpt lat="51.25178000" lon="8.54202000">
 </trkpt>
 <trkpt lat="51.25127000" lon="8.54288000">
 </trkpt>
 <trkpt lat="51.24897000" lon="8.54611000">
 </trkpt>
 <trkpt lat="51.24780000" lon="8.54789000">
 </trkpt>
 <trkpt lat="51.24735000" lon="8.54838000">
 </trkpt>
 <trkpt lat="51.24686000" lon="8.54879000">
 </trkpt>
 <trkpt lat="51.24632000" lon="8.54938000">
 </trkpt>
 <trkpt lat="51.24531000" lon="8.55110000">
 </trkpt>
 <trkpt lat="51.24430000" lon="8.55288000">
 </trkpt>
 <trkpt lat="51.24363000" lon="8.55389000">
 </trkpt>
 <trkpt lat="51.24299000" lon="8.55489000">
 </trkpt>
 <trkpt lat="51.24184000" lon="8.55651000">
 </trkpt>
 <trkpt lat="51.24173000" lon="8.55675000">
 </trkpt>
 <trkpt lat="51.24171000" lon="8.55701000">
 </trkpt>
 <trkpt lat="51.24148000" lon="8.55758000">
 </trkpt>
 <trkpt lat="51.24121000" lon="8.55809000">
 </trkpt>
 <trkpt lat="51.24120000" lon="8.55823000">
 </trkpt>
 <trkpt lat="51.24217000" lon="8.56040000">
 </trkpt>
 <trkpt lat="51.24138000" lon="8.56136000">
 </trkpt>
 <trkpt lat="51.24117000" lon="8.56189000">
 </trkpt>
 <trkpt lat="51.24097000" lon="8.56471000">
 </trkpt>
 <trkpt lat="51.24109000" lon="8.56631000">
 </trkpt>
 <trkpt lat="51.24155000" lon="8.56694000">
 </trkpt>
 <trkpt lat="51.24174000" lon="8.56730000">
 </trkpt>
 <trkpt lat="51.24181000" lon="8.56780000">
 </trkpt>
 <trkpt lat="51.24151000" lon="8.56796000">
 </trkpt>
 <trkpt lat="51.24117000" lon="8.56845000">
 </trkpt>
 <trkpt lat="51.23936000" lon="8.57124000">
 </trkpt>
 <trkpt lat="51.23875000" lon="8.57184000">
 </trkpt>
 <trkpt lat="51.23839000" lon="8.57212000">
 </trkpt>
 <trkpt lat="51.23749000" lon="8.57321000">
 </trkpt>
 <trkpt lat="51.23710000" lon="8.57373000">
 </trkpt>
 <trkpt lat="51.23641000" lon="8.57522000">
 </trkpt>
 <trkpt lat="51.23612000" lon="8.57619000">
 </trkpt>
 <trkpt lat="51.23574000" lon="8.57673000">
 </trkpt>
 <trkpt lat="51.23535000" lon="8.57741000">
 </trkpt>
 <trkpt lat="51.23503000" lon="8.57790000">
 </trkpt>
 <trkpt lat="51.23452000" lon="8.57834000">
 </trkpt>
 <trkpt lat="51.23389000" lon="8.57962000">
 </trkpt>
 <trkpt lat="51.23190000" lon="8.58461000">
 </trkpt>
 <trkpt lat="51.23091000" lon="8.58349000">
 </trkpt>
 <trkpt lat="51.23080000" lon="8.58332000">
 </trkpt>
 <trkpt lat="51.23055000" lon="8.58348000">
 </trkpt>
 <trkpt lat="51.23026000" lon="8.58418000">
 </trkpt>
 <trkpt lat="51.22993000" lon="8.58516000">
 </trkpt>
 <trkpt lat="51.22958000" lon="8.58606000">
 </trkpt>
 <trkpt lat="51.22933000" lon="8.58626000">
 </trkpt>
 <trkpt lat="51.22899000" lon="8.58618000">
 </trkpt>
 <trkpt lat="51.22877000" lon="8.58626000">
 </trkpt>
 <trkpt lat="51.22815000" lon="8.58655000">
 </trkpt>
 <trkpt lat="51.22738000" lon="8.58678000">
 </trkpt>
 <trkpt lat="51.22622000" lon="8.58835000">
 </trkpt>
 <trkpt lat="51.22566000" lon="8.59065000">
 </trkpt>
 <trkpt lat="51.22485000" lon="8.59483000">
 </trkpt>
 <trkpt lat="51.22461000" lon="8.59650000">
 </trkpt>
 <trkpt lat="51.22453000" lon="8.59777000">
 </trkpt>
 <trkpt lat="51.22445000" lon="8.59847000">
 </trkpt>
 <trkpt lat="51.22402000" lon="8.60017000">
 </trkpt>
 <trkpt lat="51.22373000" lon="8.60152000">
 </trkpt>
 <trkpt lat="51.22325000" lon="8.60414000">
 </trkpt>
</trkseg>
</trk>

<trk>
  <name>NW 3.31 Teil 2*</name>
    <extensions>
      <gpxx:TrackExtension xmlns:gpxx="http://www.garmin.com/xmlschemas/GpxExtensions/v3">
        <gpxx:DisplayColor>DarkRed</gpxx:DisplayColor>
      </gpxx:TrackExtension>
    </extensions>
  <trkseg>
    <trkpt lat="51.232750" lon="8.641770"/>
    <trkpt lat="51.232840" lon="8.641980"/>
    <trkpt lat="51.233030" lon="8.642290"/>
    <trkpt lat="51.233150" lon="8.642640"/>
    <trkpt lat="51.233240" lon="8.643000"/>
    <trkpt lat="51.233380" lon="8.644660"/>
    <trkpt lat="51.233530" lon="8.645300"/>
    <trkpt lat="51.234160" lon="8.647360"/>
    <trkpt lat="51.234300" lon="8.648000"/>
    <trkpt lat="51.234630" lon="8.650060"/>
    <trkpt lat="51.234800" lon="8.651020"/>
    <trkpt lat="51.234960" lon="8.652100"/>
    <trkpt lat="51.235090" lon="8.652820"/>
    <trkpt lat="51.235210" lon="8.653130"/>
    <trkpt lat="51.235390" lon="8.653540"/>
    <trkpt lat="51.235590" lon="8.653890"/>
    <trkpt lat="51.235830" lon="8.654190"/>
    <trkpt lat="51.236080" lon="8.654410"/>
    <trkpt lat="51.236340" lon="8.654570"/>
    <trkpt lat="51.236600" lon="8.654680"/>
    <trkpt lat="51.237160" lon="8.655000"/>
    <trkpt lat="51.237350" lon="8.655190"/>
    <trkpt lat="51.237630" lon="8.655530"/>
  </trkseg>
</trk>

</gpx>
