<?xml version="1.0" encoding="UTF-8" standalone="no"?>
<gpx xmlns="http://www.topografix.com/GPX/1/1" creator="MapSource 6.16.3" version="1.1">

  <trk>
    <name>NW 3.26 geplant</name>
    <trkseg>
 <trkpt lat="51.59600501" lon="7.75308902">
  <ele>72.072</ele>
 </trkpt>
 <trkpt lat="51.59598297" lon="7.75302398">
  <ele>72.579</ele>
 </trkpt>
 <trkpt lat="51.59584198" lon="7.75301501">
  <ele>72.642</ele>
 </trkpt>
 <trkpt lat="51.59566102" lon="7.75293899">
  <ele>72.291</ele>
 </trkpt>
 <trkpt lat="51.59499298" lon="7.75297503">
  <ele>73.736</ele>
 </trkpt>
 <trkpt lat="51.59483104" lon="7.75312096">
  <ele>74.247</ele>
 </trkpt>
 <trkpt lat="51.59462099" lon="7.75325599">
  <ele>75.062</ele>
 </trkpt>
 <trkpt lat="51.59398396" lon="7.75247798">
  <ele>74.064</ele>
 </trkpt>
 <trkpt lat="51.59353000" lon="7.75195604">
  <ele>73.452</ele>
 </trkpt>
 <trkpt lat="51.59293698" lon="7.75118600">
  <ele>73.336</ele>
 </trkpt>
 <trkpt lat="51.59235704" lon="7.75046297">
  <ele>73.493</ele>
 </trkpt>
 <trkpt lat="51.59196200" lon="7.74997297">
  <ele>73.157</ele>
 </trkpt>
 <trkpt lat="51.59160602" lon="7.74953702">
  <ele>71.691</ele>
 </trkpt>
 <trkpt lat="51.59146998" lon="7.74945304">
  <ele>72.752</ele>
 </trkpt>
 <trkpt lat="51.59123504" lon="7.74988596">
  <ele>71.463</ele>
 </trkpt>
 <trkpt lat="51.59106497" lon="7.75024898">
  <ele>73.331</ele>
 </trkpt>
 <trkpt lat="51.59083698" lon="7.75037999">
  <ele>73.876</ele>
 </trkpt>
 <trkpt lat="51.59020197" lon="7.75062399">
  <ele>73.110</ele>
 </trkpt>
 <trkpt lat="51.58961901" lon="7.75084100">
  <ele>72.521</ele>
 </trkpt>
 <trkpt lat="51.58930100" lon="7.75092901">
  <ele>72.583</ele>
 </trkpt>
 <trkpt lat="51.58923101" lon="7.75094301">
  <ele>72.656</ele>
 </trkpt>
    </trkseg>
  </trk>

  <trk>
    <name>NW 3.26 Teil 1</name>
    <trkseg>
 <trkpt lat="51.59772003" lon="7.75762103">
  <ele>74.467</ele>
 </trkpt>
 <trkpt lat="51.59795296" lon="7.75779697">
  <ele>73.664</ele>
 </trkpt>
 <trkpt lat="51.59838497" lon="7.75827499">
  <ele>73.889</ele>
 </trkpt>
 <trkpt lat="51.59849100" lon="7.75835403">
  <ele>74.386</ele>
 </trkpt>
 <trkpt lat="51.59859996" lon="7.75830902">
  <ele>74.675</ele>
 </trkpt>
 <trkpt lat="51.59858798" lon="7.75747703">
  <ele>73.881</ele>
 </trkpt>
 <trkpt lat="51.59854699" lon="7.75723496">
  <ele>73.000</ele>
 </trkpt>
 <trkpt lat="51.59833803" lon="7.75688100">
  <ele>72.822</ele>
 </trkpt>
 <trkpt lat="51.59777703" lon="7.75636501">
  <ele>73.026</ele>
 </trkpt>
 <trkpt lat="51.59754099" lon="7.75596200">
  <ele>72.626</ele>
 </trkpt>
 <trkpt lat="51.59706197" lon="7.75562203">
  <ele>73.645</ele>
 </trkpt>
 <trkpt lat="51.59638597" lon="7.75516698">
  <ele>72.275</ele>
 </trkpt>
 <trkpt lat="51.59616997" lon="7.75488703">
  <ele>72.349</ele>
 </trkpt>
 <trkpt lat="51.59604298" lon="7.75444002">
  <ele>71.550</ele>
 </trkpt>
 <trkpt lat="51.59600400" lon="7.75374499">
  <ele>71.746</ele>
 </trkpt>
 <trkpt lat="51.59600501" lon="7.75308902">
  <ele>72.072</ele>
 </trkpt>
 <trkpt lat="51.59599101" lon="7.75307997">
  <ele>71.199</ele>
 </trkpt>
 <trkpt lat="51.59599504" lon="7.75271603">
  <ele>71.923</ele>
 </trkpt>
 <trkpt lat="51.59599101" lon="7.75225502">
  <ele>72.041</ele>
 </trkpt>
 <trkpt lat="51.59604097" lon="7.75198102">
  <ele>71.946</ele>
 </trkpt>
 <trkpt lat="51.59641799" lon="7.75186300">
  <ele>72.183</ele>
 </trkpt>
 <trkpt lat="51.59669199" lon="7.75191296">
  <ele>71.610</ele>
 </trkpt>
 <trkpt lat="51.59693699" lon="7.75184900">
  <ele>71.287</ele>
 </trkpt>
 <trkpt lat="51.59706398" lon="7.75157399">
  <ele>70.747</ele>
 </trkpt>
 <trkpt lat="51.59704696" lon="7.75133796">
  <ele>70.028</ele>
 </trkpt>
 <trkpt lat="51.59689198" lon="7.75051301">
  <ele>70.139</ele>
 </trkpt>
 <trkpt lat="51.59678604" lon="7.75000599">
  <ele>69.287</ele>
 </trkpt>
 <trkpt lat="51.59665100" lon="7.74870696">
  <ele>69.192</ele>
 </trkpt>
 <trkpt lat="51.59660197" lon="7.74813297">
  <ele>68.315</ele>
 </trkpt>
 <trkpt lat="51.59642100" lon="7.74792401">
  <ele>70.286</ele>
 </trkpt>
 <trkpt lat="51.59624096" lon="7.74800498">
  <ele>69.892</ele>
 </trkpt>
 <trkpt lat="51.59603502" lon="7.74813599">
  <ele>70.000</ele>
 </trkpt>
 <trkpt lat="51.59572598" lon="7.74831302">
  <ele>71.455</ele>
 </trkpt>
 <trkpt lat="51.59550503" lon="7.74834696">
  <ele>70.979</ele>
 </trkpt>
 <trkpt lat="51.59512399" lon="7.74840999">
  <ele>71.372</ele>
 </trkpt>
 <trkpt lat="51.59461697" lon="7.74843003">
  <ele>71.190</ele>
 </trkpt>
 <trkpt lat="51.59414104" lon="7.74850002">
  <ele>70.618</ele>
 </trkpt>
 <trkpt lat="51.59348600" lon="7.74859197">
  <ele>71.967</ele>
 </trkpt>
 <trkpt lat="51.59292097" lon="7.74856799">
  <ele>72.540</ele>
 </trkpt>
 <trkpt lat="51.59254999" lon="7.74819902">
  <ele>73.532</ele>
 </trkpt>
 <trkpt lat="51.59196803" lon="7.74770700">
  <ele>73.119</ele>
 </trkpt>
 <trkpt lat="51.59173703" lon="7.74795000">
  <ele>73.207</ele>
 </trkpt>
 <trkpt lat="51.59137602" lon="7.74799299">
  <ele>73.243</ele>
 </trkpt>
 <trkpt lat="51.59106103" lon="7.74795896">
  <ele>72.411</ele>
 </trkpt>
 <trkpt lat="51.59093102" lon="7.74796600">
  <ele>71.904</ele>
 </trkpt>
 <trkpt lat="51.59074998" lon="7.74801898">
  <ele>71.760</ele>
 </trkpt>
 <trkpt lat="51.59014598" lon="7.74839197">
  <ele>71.507</ele>
 </trkpt>
 <trkpt lat="51.59001597" lon="7.74847596">
  <ele>69.860</ele>
 </trkpt>
 <trkpt lat="51.58970903" lon="7.74873203">
  <ele>70.836</ele>
 </trkpt>
 <trkpt lat="51.58950602" lon="7.74953803">
  <ele>70.869</ele>
 </trkpt>
 <trkpt lat="51.58932103" lon="7.75038402">
  <ele>72.443</ele>
 </trkpt>
 <trkpt lat="51.58916303" lon="7.75077998">
  <ele>72.532</ele>
 </trkpt>
 <trkpt lat="51.58914099" lon="7.75083597">
  <ele>72.665</ele>
 </trkpt>
 <trkpt lat="51.58904702" lon="7.75080898">
  <ele>72.607</ele>
 </trkpt>
 <trkpt lat="51.58874997" lon="7.75061502">
  <ele>72.247</ele>
 </trkpt>
 <trkpt lat="51.58861502" lon="7.75056196">
  <ele>72.290</ele>
 </trkpt>
 <trkpt lat="51.58825602" lon="7.75034102">
  <ele>71.949</ele>
 </trkpt>
 <trkpt lat="51.58794103" lon="7.75011504">
  <ele>72.311</ele>
 </trkpt>
 <trkpt lat="51.58744097" lon="7.74972696">
  <ele>71.042</ele>
 </trkpt>
 <trkpt lat="51.58728498" lon="7.74955404">
  <ele>71.518</ele>
 </trkpt>
 <trkpt lat="51.58714500" lon="7.74947802">
  <ele>71.473</ele>
 </trkpt>
 <trkpt lat="51.58690897" lon="7.74943996">
  <ele>71.683</ele>
 </trkpt>
 <trkpt lat="51.58658601" lon="7.74922698">
  <ele>70.178</ele>
 </trkpt>
 <trkpt lat="51.58647303" lon="7.74914802">
  <ele>70.352</ele>
 </trkpt>
 <trkpt lat="51.58599903" lon="7.74875600">
  <ele>70.905</ele>
 </trkpt>
 <trkpt lat="51.58567096" lon="7.74838200">
  <ele>69.304</ele>
 </trkpt>
 <trkpt lat="51.58523703" lon="7.74782100">
  <ele>67.418</ele>
 </trkpt>
 <trkpt lat="51.58463798" lon="7.74697099">
  <ele>66.692</ele>
 </trkpt>
 <trkpt lat="51.58414696" lon="7.74629499">
  <ele>66.166</ele>
 </trkpt>
 <trkpt lat="51.58371001" lon="7.74562301">
  <ele>65.086</ele>
 </trkpt>
 <trkpt lat="51.58320400" lon="7.74485900">
  <ele>64.709</ele>
 </trkpt>
 <trkpt lat="51.58305204" lon="7.74464300">
  <ele>64.887</ele>
 </trkpt>
 <trkpt lat="51.58288700" lon="7.74443203">
  <ele>64.990</ele>
 </trkpt>
 <trkpt lat="51.58269103" lon="7.74417001">
  <ele>63.514</ele>
 </trkpt>
 <trkpt lat="51.58229196" lon="7.74360700">
  <ele>62.784</ele>
 </trkpt>
 <trkpt lat="51.58169199" lon="7.74278498">
  <ele>62.724</ele>
 </trkpt>
 <trkpt lat="51.58125202" lon="7.74217696">
  <ele>63.475</ele>
 </trkpt>
 <trkpt lat="51.58084298" lon="7.74162099">
  <ele>63.350</ele>
 </trkpt>
 <trkpt lat="51.58042699" lon="7.74104901">
  <ele>63.021</ele>
 </trkpt>
 <trkpt lat="51.58030101" lon="7.74088698">
  <ele>63.213</ele>
 </trkpt>
 <trkpt lat="51.57988803" lon="7.74032900">
  <ele>63.981</ele>
 </trkpt>
 <trkpt lat="51.57933902" lon="7.73955904">
  <ele>64.394</ele>
 </trkpt>
 <trkpt lat="51.57891104" lon="7.73897499">
  <ele>65.705</ele>
 </trkpt>
 <trkpt lat="51.57879001" lon="7.73881397">
  <ele>65.629</ele>
 </trkpt>
 <trkpt lat="51.57837099" lon="7.73822598">
  <ele>66.179</ele>
 </trkpt>
 <trkpt lat="51.57819397" lon="7.73796799">
  <ele>66.744</ele>
 </trkpt>
 <trkpt lat="51.57812800" lon="7.73786698">
  <ele>66.815</ele>
 </trkpt>
 <trkpt lat="51.57772601" lon="7.73731403">
  <ele>68.031</ele>
 </trkpt>
 <trkpt lat="51.57726198" lon="7.73669201">
  <ele>68.190</ele>
 </trkpt>
 <trkpt lat="51.57679503" lon="7.73605297">
  <ele>69.095</ele>
 </trkpt>
 <trkpt lat="51.57633997" lon="7.73542601">
  <ele>69.384</ele>
 </trkpt>
 <trkpt lat="51.57583999" lon="7.73471296">
  <ele>70.083</ele>
 </trkpt>
 <trkpt lat="51.57543297" lon="7.73414701">
  <ele>70.989</ele>
 </trkpt>
 <trkpt lat="51.57515997" lon="7.73376597">
  <ele>70.483</ele>
 </trkpt>
 <trkpt lat="51.57505704" lon="7.73363697">
  <ele>71.013</ele>
 </trkpt>
 <trkpt lat="51.57481899" lon="7.73328703">
  <ele>71.248</ele>
 </trkpt>
 <trkpt lat="51.57453200" lon="7.73286299">
  <ele>71.960</ele>
 </trkpt>
 <trkpt lat="51.57419798" lon="7.73224398">
  <ele>72.269</ele>
 </trkpt>
 <trkpt lat="51.57383999" lon="7.73147402">
  <ele>73.202</ele>
 </trkpt>
 <trkpt lat="51.57346599" lon="7.73050700">
  <ele>74.010</ele>
 </trkpt>
 <trkpt lat="51.57320799" lon="7.72969102">
  <ele>74.539</ele>
 </trkpt>
 <trkpt lat="51.57309098" lon="7.72923497">
  <ele>74.660</ele>
 </trkpt>
 <trkpt lat="51.57291002" lon="7.72839502">
  <ele>75.316</ele>
 </trkpt>
 <trkpt lat="51.57277800" lon="7.72761500">
  <ele>75.383</ele>
 </trkpt>
 <trkpt lat="51.57266996" lon="7.72674596">
  <ele>75.496</ele>
 </trkpt>
 <trkpt lat="51.57260198" lon="7.72584197">
  <ele>75.837</ele>
 </trkpt>
 <trkpt lat="51.57257902" lon="7.72497302">
  <ele>75.780</ele>
 </trkpt>
 <trkpt lat="51.57259301" lon="7.72438503">
  <ele>75.573</ele>
 </trkpt>
 <trkpt lat="51.57264196" lon="7.72360601">
  <ele>74.912</ele>
 </trkpt>
 <trkpt lat="51.57272897" lon="7.72264503">
  <ele>75.526</ele>
 </trkpt>
 <trkpt lat="51.57275403" lon="7.72236700">
  <ele>75.005</ele>
 </trkpt>
 <trkpt lat="51.57286199" lon="7.72167600">
  <ele>75.789</ele>
 </trkpt>
 <trkpt lat="51.57292401" lon="7.72138104">
  <ele>75.064</ele>
 </trkpt>
 <trkpt lat="51.57314102" lon="7.72050496">
  <ele>75.226</ele>
 </trkpt>
 <trkpt lat="51.57333900" lon="7.71966602">
  <ele>75.588</ele>
 </trkpt>
 <trkpt lat="51.57339902" lon="7.71941900">
  <ele>75.361</ele>
 </trkpt>
 <trkpt lat="51.57353698" lon="7.71890301">
  <ele>75.103</ele>
 </trkpt>
 <trkpt lat="51.57377302" lon="7.71807002">
  <ele>75.161</ele>
 </trkpt>
 <trkpt lat="51.57402104" lon="7.71714600">
  <ele>75.550</ele>
 </trkpt>
 <trkpt lat="51.57414098" lon="7.71657201">
  <ele>75.169</ele>
 </trkpt>
 <trkpt lat="51.57419496" lon="7.71630504">
  <ele>75.500</ele>
 </trkpt>
 <trkpt lat="51.57425397" lon="7.71604604">
  <ele>75.442</ele>
 </trkpt>
 <trkpt lat="51.57429102" lon="7.71577899">
  <ele>75.560</ele>
 </trkpt>
 <trkpt lat="51.57433896" lon="7.71537297">
  <ele>75.931</ele>
 </trkpt>
 <trkpt lat="51.57436403" lon="7.71513199">
  <ele>76.522</ele>
 </trkpt>
 <trkpt lat="51.57438397" lon="7.71466202">
  <ele>76.878</ele>
 </trkpt>
 <trkpt lat="51.57440501" lon="7.71400798">
  <ele>76.311</ele>
 </trkpt>
 <trkpt lat="51.57425397" lon="7.71375502">
  <ele>75.761</ele>
 </trkpt>
 <trkpt lat="51.57390403" lon="7.71326199">
  <ele>75.927</ele>
 </trkpt>
 <trkpt lat="51.57396597" lon="7.71260502">
  <ele>75.600</ele>
 </trkpt>
 <trkpt lat="51.57395700" lon="7.71121404">
  <ele>77.284</ele>
 </trkpt>
 <trkpt lat="51.57394501" lon="7.70995399">
  <ele>76.978</ele>
 </trkpt>
 <trkpt lat="51.57388701" lon="7.70888496">
  <ele>76.898</ele>
 </trkpt>
 <trkpt lat="51.57389598" lon="7.70817996">
  <ele>77.875</ele>
 </trkpt>
 <trkpt lat="51.57415397" lon="7.70789799">
  <ele>78.409</ele>
 </trkpt>
 <trkpt lat="51.57465404" lon="7.70764603">
  <ele>76.766</ele>
 </trkpt>
 <trkpt lat="51.57487901" lon="7.70760102">
  <ele>77.178</ele>
 </trkpt>
 <trkpt lat="51.57493198" lon="7.70730397">
  <ele>76.238</ele>
 </trkpt>
 <trkpt lat="51.57500901" lon="7.70674003">
  <ele>77.558</ele>
 </trkpt>
 <trkpt lat="51.57503902" lon="7.70615296">
  <ele>76.632</ele>
 </trkpt>
 <trkpt lat="51.57501597" lon="7.70531201">
  <ele>76.647</ele>
 </trkpt>
 <trkpt lat="51.57485797" lon="7.70429696">
  <ele>77.119</ele>
 </trkpt>
 <trkpt lat="51.57462797" lon="7.70355701">
  <ele>76.756</ele>
 </trkpt>
 <trkpt lat="51.57450099" lon="7.70325702">
  <ele>77.309</ele>
 </trkpt>
 <trkpt lat="51.57432203" lon="7.70309499">
  <ele>76.278</ele>
 </trkpt>
 <trkpt lat="51.57411299" lon="7.70290196">
  <ele>76.287</ele>
 </trkpt>
 <trkpt lat="51.57377101" lon="7.70237599">
  <ele>75.917</ele>
 </trkpt>
 <trkpt lat="51.57366598" lon="7.70221598">
  <ele>75.984</ele>
 </trkpt>
 <trkpt lat="51.57352198" lon="7.70201297">
  <ele>76.064</ele>
 </trkpt>
 <trkpt lat="51.57339399" lon="7.70184098">
  <ele>76.246</ele>
 </trkpt>
 <trkpt lat="51.57321000" lon="7.70156899">
  <ele>75.354</ele>
 </trkpt>
 <trkpt lat="51.57295503" lon="7.70123002">
  <ele>75.882</ele>
 </trkpt>
 <trkpt lat="51.57252696" lon="7.70067003">
  <ele>75.396</ele>
 </trkpt>
 <trkpt lat="51.57233502" lon="7.70039099">
  <ele>75.557</ele>
 </trkpt>
 <trkpt lat="51.57201600" lon="7.69995396">
  <ele>75.880</ele>
 </trkpt>
 <trkpt lat="51.57172599" lon="7.69954601">
  <ele>75.401</ele>
 </trkpt>
 <trkpt lat="51.57148300" lon="7.69895802">
  <ele>76.000</ele>
 </trkpt>
 <trkpt lat="51.57117697" lon="7.69845704">
  <ele>76.072</ele>
 </trkpt>
 <trkpt lat="51.57108704" lon="7.69824103">
  <ele>75.853</ele>
 </trkpt>
 <trkpt lat="51.57126800" lon="7.69771398">
  <ele>76.027</ele>
 </trkpt>
 <trkpt lat="51.57137998" lon="7.69743998">
  <ele>75.908</ele>
 </trkpt>
 <trkpt lat="51.57149498" lon="7.69707100">
  <ele>76.975</ele>
 </trkpt>
 <trkpt lat="51.57174300" lon="7.69608798">
  <ele>75.934</ele>
 </trkpt>
 <trkpt lat="51.57194098" lon="7.69512003">
  <ele>76.540</ele>
 </trkpt>
 <trkpt lat="51.57214701" lon="7.69398403">
  <ele>76.922</ele>
 </trkpt>
 <trkpt lat="51.57233401" lon="7.69291400">
  <ele>78.099</ele>
 </trkpt>
 <trkpt lat="51.57243501" lon="7.69215904">
  <ele>77.852</ele>
 </trkpt>
 <trkpt lat="51.57251397" lon="7.69126000">
  <ele>78.784</ele>
 </trkpt>
 <trkpt lat="51.57256099" lon="7.69083998">
  <ele>78.028</ele>
 </trkpt>
 <trkpt lat="51.57278001" lon="7.69047998">
  <ele>78.264</ele>
 </trkpt>
 <trkpt lat="51.57322400" lon="7.68992200">
  <ele>78.388</ele>
 </trkpt>
 <trkpt lat="51.57368199" lon="7.68931397">
  <ele>78.035</ele>
 </trkpt>
 <trkpt lat="51.57422698" lon="7.68860403">
  <ele>77.722</ele>
 </trkpt>
 <trkpt lat="51.57479100" lon="7.68787002">
  <ele>77.722</ele>
 </trkpt>
 <trkpt lat="51.57528201" lon="7.68723300">
  <ele>77.336</ele>
 </trkpt>
 <trkpt lat="51.57571100" lon="7.68668398">
  <ele>78.030</ele>
 </trkpt>
 <trkpt lat="51.57610402" lon="7.68619297">
  <ele>77.417</ele>
 </trkpt>
 <trkpt lat="51.57634299" lon="7.68586901">
  <ele>77.233</ele>
 </trkpt>
 <trkpt lat="51.57655003" lon="7.68560699">
  <ele>77.747</ele>
 </trkpt>
 <trkpt lat="51.57664197" lon="7.68548797">
  <ele>77.428</ele>
 </trkpt>
 <trkpt lat="51.57707498" lon="7.68492202">
  <ele>75.874</ele>
 </trkpt>
 <trkpt lat="51.57750900" lon="7.68435499">
  <ele>76.076</ele>
 </trkpt>
 <trkpt lat="51.57786297" lon="7.68387797">
  <ele>75.656</ele>
 </trkpt>
 <trkpt lat="51.57835297" lon="7.68324103">
  <ele>75.114</ele>
 </trkpt>
 <trkpt lat="51.57891498" lon="7.68250200">
  <ele>74.352</ele>
 </trkpt>
 <trkpt lat="51.57928403" lon="7.68202297">
  <ele>75.167</ele>
 </trkpt>
 <trkpt lat="51.57940599" lon="7.68186296">
  <ele>73.928</ele>
 </trkpt>
 <trkpt lat="51.57982802" lon="7.68132200">
  <ele>72.728</ele>
 </trkpt>
 <trkpt lat="51.58027100" lon="7.68073099">
  <ele>72.620</ele>
 </trkpt>
 <trkpt lat="51.58045197" lon="7.68045103">
  <ele>72.397</ele>
 </trkpt>
 <trkpt lat="51.58089596" lon="7.67988500">
  <ele>72.365</ele>
 </trkpt>
 <trkpt lat="51.58135897" lon="7.67930598">
  <ele>72.247</ele>
 </trkpt>
 <trkpt lat="51.58157296" lon="7.67902301">
  <ele>72.729</ele>
 </trkpt>
 <trkpt lat="51.58188201" lon="7.67857600">
  <ele>71.965</ele>
 </trkpt>
 <trkpt lat="51.58247704" lon="7.67791802">
  <ele>72.471</ele>
 </trkpt>
 <trkpt lat="51.58281198" lon="7.67769498">
  <ele>72.240</ele>
 </trkpt>
 <trkpt lat="51.58325597" lon="7.67752198">
  <ele>72.498</ele>
 </trkpt>
 <trkpt lat="51.58359099" lon="7.67747998">
  <ele>72.994</ele>
 </trkpt>
 <trkpt lat="51.58406499" lon="7.67751200">
  <ele>71.344</ele>
 </trkpt>
 <trkpt lat="51.58428501" lon="7.67758501">
  <ele>70.908</ele>
 </trkpt>
 <trkpt lat="51.58467997" lon="7.67779397">
  <ele>71.511</ele>
 </trkpt>
 <trkpt lat="51.58511700" lon="7.67821399">
  <ele>71.588</ele>
 </trkpt>
 <trkpt lat="51.58532999" lon="7.67843904">
  <ele>71.930</ele>
 </trkpt>
 <trkpt lat="51.58561396" lon="7.67873400">
  <ele>71.501</ele>
 </trkpt>
 <trkpt lat="51.58596299" lon="7.67915200">
  <ele>72.211</ele>
 </trkpt>
 <trkpt lat="51.58621503" lon="7.67940396">
  <ele>72.393</ele>
 </trkpt>
 <trkpt lat="51.58686404" lon="7.68009396">
  <ele>71.385</ele>
 </trkpt>
 <trkpt lat="51.58706504" lon="7.68034098">
  <ele>71.577</ele>
 </trkpt>
 <trkpt lat="51.58719001" lon="7.68049001">
  <ele>71.811</ele>
 </trkpt>
 <trkpt lat="51.58740903" lon="7.68072898">
  <ele>70.877</ele>
 </trkpt>
 <trkpt lat="51.58766703" lon="7.68106299">
  <ele>70.201</ele>
 </trkpt>
 <trkpt lat="51.58812703" lon="7.68156499">
  <ele>69.075</ele>
 </trkpt>
 <trkpt lat="51.58846599" lon="7.68195801">
  <ele>68.797</ele>
 </trkpt>
 <trkpt lat="51.58887100" lon="7.68243704">
  <ele>68.411</ele>
 </trkpt>
 <trkpt lat="51.58903596" lon="7.68260099">
  <ele>68.399</ele>
 </trkpt>
 <trkpt lat="51.58927300" lon="7.68281297">
  <ele>67.926</ele>
 </trkpt>
 <trkpt lat="51.58959403" lon="7.68301497">
  <ele>67.703</ele>
 </trkpt>
 <trkpt lat="51.59014396" lon="7.68320700">
  <ele>67.486</ele>
 </trkpt>
 <trkpt lat="51.59047597" lon="7.68323801">
  <ele>67.065</ele>
 </trkpt>
 <trkpt lat="51.59089297" lon="7.68316098">
  <ele>65.927</ele>
 </trkpt>
 <trkpt lat="51.59117301" lon="7.68306803">
  <ele>65.395</ele>
 </trkpt>
 <trkpt lat="51.59161398" lon="7.68280601">
  <ele>65.488</ele>
 </trkpt>
 <trkpt lat="51.59174801" lon="7.68270099">
  <ele>65.121</ele>
 </trkpt>
 <trkpt lat="51.59215998" lon="7.68230997">
  <ele>64.576</ele>
 </trkpt>
 <trkpt lat="51.59262802" lon="7.68186397">
  <ele>64.602</ele>
 </trkpt>
 <trkpt lat="51.59298903" lon="7.68146499">
  <ele>64.433</ele>
 </trkpt>
 <trkpt lat="51.59329598" lon="7.68116701">
  <ele>64.703</ele>
 </trkpt>
 <trkpt lat="51.59370996" lon="7.68078698">
  <ele>64.602</ele>
 </trkpt>
 <trkpt lat="51.59404700" lon="7.68046796">
  <ele>64.887</ele>
 </trkpt>
 <trkpt lat="51.59440901" lon="7.68010796">
  <ele>65.090</ele>
 </trkpt>
 <trkpt lat="51.59457598" lon="7.67996497">
  <ele>65.260</ele>
 </trkpt>
 <trkpt lat="51.59474102" lon="7.67984100">
  <ele>65.748</ele>
 </trkpt>
 <trkpt lat="51.59496599" lon="7.67963002">
  <ele>65.175</ele>
 </trkpt>
 <trkpt lat="51.59510697" lon="7.67947999">
  <ele>65.259</ele>
 </trkpt>
 <trkpt lat="51.59563604" lon="7.67895704">
  <ele>65.220</ele>
 </trkpt>
 <trkpt lat="51.59574802" lon="7.67885101">
  <ele>65.423</ele>
 </trkpt>
 <trkpt lat="51.59614499" lon="7.67843703">
  <ele>64.765</ele>
 </trkpt>
 <trkpt lat="51.59682903" lon="7.67781300">
  <ele>65.104</ele>
 </trkpt>
 <trkpt lat="51.59728400" lon="7.67736901">
  <ele>64.917</ele>
 </trkpt>
 <trkpt lat="51.59749699" lon="7.67716600">
  <ele>65.041</ele>
 </trkpt>
 <trkpt lat="51.59775004" lon="7.67695201">
  <ele>64.724</ele>
 </trkpt>
 <trkpt lat="51.59825102" lon="7.67649000">
  <ele>64.644</ele>
 </trkpt>
 <trkpt lat="51.59848404" lon="7.67625497">
  <ele>64.492</ele>
 </trkpt>
 <trkpt lat="51.59877003" lon="7.67598096">
  <ele>64.474</ele>
 </trkpt>
 <trkpt lat="51.59910003" lon="7.67561601">
  <ele>64.202</ele>
 </trkpt>
 <trkpt lat="51.59935299" lon="7.67533598">
  <ele>64.599</ele>
 </trkpt>
 <trkpt lat="51.59965902" lon="7.67476701">
  <ele>64.903</ele>
 </trkpt>
 <trkpt lat="51.59976203" lon="7.67436996">
  <ele>65.672</ele>
 </trkpt>
 <trkpt lat="51.59987996" lon="7.67397702">
  <ele>65.083</ele>
 </trkpt>
 <trkpt lat="51.60000200" lon="7.67357100">
  <ele>64.498</ele>
 </trkpt>
 <trkpt lat="51.60005196" lon="7.67334896">
  <ele>64.146</ele>
 </trkpt>
 <trkpt lat="51.60010703" lon="7.67302500">
  <ele>65.523</ele>
 </trkpt>
 <trkpt lat="51.60020501" lon="7.67224297">
  <ele>65.626</ele>
 </trkpt>
 <trkpt lat="51.60027903" lon="7.67185497">
  <ele>64.983</ele>
 </trkpt>
 <trkpt lat="51.60039796" lon="7.67133999">
  <ele>65.222</ele>
 </trkpt>
 <trkpt lat="51.60048497" lon="7.67108300">
  <ele>65.374</ele>
 </trkpt>
 <trkpt lat="51.60059704" lon="7.67077496">
  <ele>64.696</ele>
 </trkpt>
 <trkpt lat="51.60071396" lon="7.67045704">
  <ele>64.770</ele>
 </trkpt>
 <trkpt lat="51.60146297" lon="7.66912599">
  <ele>65.033</ele>
 </trkpt>
 <trkpt lat="51.60180797" lon="7.66847698">
  <ele>66.164</ele>
 </trkpt>
 <trkpt lat="51.60213402" lon="7.66789704">
  <ele>66.486</ele>
 </trkpt>
 <trkpt lat="51.60236201" lon="7.66753703">
  <ele>66.645</ele>
 </trkpt>
 <trkpt lat="51.60271103" lon="7.66694401">
  <ele>67.036</ele>
 </trkpt>
 <trkpt lat="51.60303298" lon="7.66645996">
  <ele>67.874</ele>
 </trkpt>
 <trkpt lat="51.60333498" lon="7.66603701">
  <ele>68.729</ele>
 </trkpt>
 <trkpt lat="51.60363497" lon="7.66562697">
  <ele>69.068</ele>
 </trkpt>
 <trkpt lat="51.60377604" lon="7.66542404">
  <ele>69.724</ele>
 </trkpt>
 <trkpt lat="51.60406304" lon="7.66498701">
  <ele>71.075</ele>
 </trkpt>
 <trkpt lat="51.60433796" lon="7.66459700">
  <ele>70.809</ele>
 </trkpt>
 <trkpt lat="51.60448398" lon="7.66440396">
  <ele>71.350</ele>
 </trkpt>
 <trkpt lat="51.60478002" lon="7.66398503">
  <ele>71.875</ele>
 </trkpt>
 <trkpt lat="51.60501396" lon="7.66370600">
  <ele>72.386</ele>
 </trkpt>
 <trkpt lat="51.60532200" lon="7.66333099">
  <ele>72.009</ele>
 </trkpt>
 <trkpt lat="51.60556599" lon="7.66298097">
  <ele>72.743</ele>
 </trkpt>
 <trkpt lat="51.60585601" lon="7.66261300">
  <ele>72.883</ele>
 </trkpt>
 <trkpt lat="51.60623001" lon="7.66218603">
  <ele>73.140</ele>
 </trkpt>
 <trkpt lat="51.60654601" lon="7.66189300">
  <ele>73.240</ele>
 </trkpt>
 <trkpt lat="51.60684499" lon="7.66169300">
  <ele>74.182</ele>
 </trkpt>
 <trkpt lat="51.60724397" lon="7.66150801">
  <ele>74.366</ele>
 </trkpt>
 <trkpt lat="51.60760498" lon="7.66147298">
  <ele>74.045</ele>
 </trkpt>
 <trkpt lat="51.60775602" lon="7.66147801">
  <ele>74.418</ele>
 </trkpt>
 <trkpt lat="51.60823798" lon="7.66157499">
  <ele>75.340</ele>
 </trkpt>
 <trkpt lat="51.60856102" lon="7.66166300">
  <ele>74.973</ele>
 </trkpt>
 <trkpt lat="51.60883896" lon="7.66169099">
  <ele>75.863</ele>
 </trkpt>
 <trkpt lat="51.60892001" lon="7.66168697">
  <ele>76.047</ele>
 </trkpt>
 <trkpt lat="51.60933098" lon="7.66202602">
  <ele>74.800</ele>
 </trkpt>
 <trkpt lat="51.60957498" lon="7.66226700">
  <ele>75.254</ele>
 </trkpt>
 <trkpt lat="51.60986298" lon="7.66262398">
  <ele>75.478</ele>
 </trkpt>
 <trkpt lat="51.61012701" lon="7.66294501">
  <ele>75.991</ele>
 </trkpt>
 <trkpt lat="51.61026204" lon="7.66306403">
  <ele>74.793</ele>
 </trkpt>
 <trkpt lat="51.61061802" lon="7.66348497">
  <ele>74.988</ele>
 </trkpt>
 <trkpt lat="51.61103896" lon="7.66385998">
  <ele>75.225</ele>
 </trkpt>
 <trkpt lat="51.61156199" lon="7.66421000">
  <ele>75.258</ele>
 </trkpt>
 <trkpt lat="51.61202802" lon="7.66438804">
  <ele>75.201</ele>
 </trkpt>
 <trkpt lat="51.61256698" lon="7.66447102">
  <ele>75.305</ele>
 </trkpt>
 <trkpt lat="51.61280997" lon="7.66444604">
  <ele>76.647</ele>
 </trkpt>
 <trkpt lat="51.61338598" lon="7.66429500">
  <ele>76.411</ele>
 </trkpt>
 <trkpt lat="51.61388302" lon="7.66420598">
  <ele>76.268</ele>
 </trkpt>
 <trkpt lat="51.61446297" lon="7.66407497">
  <ele>76.139</ele>
 </trkpt>
 <trkpt lat="51.61522999" lon="7.66393198">
  <ele>75.380</ele>
 </trkpt>
 <trkpt lat="51.61568304" lon="7.66383500">
  <ele>75.690</ele>
 </trkpt>
 <trkpt lat="51.61584598" lon="7.66378898">
  <ele>74.685</ele>
 </trkpt>
 <trkpt lat="51.61624898" lon="7.66370198">
  <ele>74.938</ele>
 </trkpt>
 <trkpt lat="51.61693504" lon="7.66355798">
  <ele>73.976</ele>
 </trkpt>
 <trkpt lat="51.61749797" lon="7.66341104">
  <ele>73.883</ele>
 </trkpt>
 <trkpt lat="51.61833800" lon="7.66324399">
  <ele>73.728</ele>
 </trkpt>
 <trkpt lat="51.61850204" lon="7.66319504">
  <ele>73.478</ele>
 </trkpt>
 <trkpt lat="51.61903496" lon="7.66307099">
  <ele>73.080</ele>
 </trkpt>
 <trkpt lat="51.61919002" lon="7.66303997">
  <ele>72.751</ele>
 </trkpt>
 <trkpt lat="51.61933998" lon="7.66302598">
  <ele>73.227</ele>
 </trkpt>
 <trkpt lat="51.61974901" lon="7.66295096">
  <ele>72.805</ele>
 </trkpt>
 <trkpt lat="51.62011698" lon="7.66287200">
  <ele>72.933</ele>
 </trkpt>
 <trkpt lat="51.62023097" lon="7.66293604">
  <ele>72.598</ele>
 </trkpt>
 <trkpt lat="51.62055401" lon="7.66276496">
  <ele>71.539</ele>
 </trkpt>
 <trkpt lat="51.62097202" lon="7.66267704">
  <ele>72.555</ele>
 </trkpt>
 <trkpt lat="51.62112096" lon="7.66262901">
  <ele>72.853</ele>
 </trkpt>
 <trkpt lat="51.62165497" lon="7.66239800">
  <ele>72.942</ele>
 </trkpt>
 <trkpt lat="51.62235696" lon="7.66209198">
  <ele>72.676</ele>
 </trkpt>
 <trkpt lat="51.62324402" lon="7.66170599">
  <ele>72.292</ele>
 </trkpt>
 <trkpt lat="51.62381398" lon="7.66144498">
  <ele>73.902</ele>
 </trkpt>
 <trkpt lat="51.62420500" lon="7.66125698">
  <ele>74.198</ele>
 </trkpt>
 <trkpt lat="51.62470398" lon="7.66087996">
  <ele>73.578</ele>
 </trkpt>
 <trkpt lat="51.62504403" lon="7.66046204">
  <ele>74.506</ele>
 </trkpt>
 <trkpt lat="51.62511603" lon="7.66036296">
  <ele>74.399</ele>
 </trkpt>
 <trkpt lat="51.62518099" lon="7.66026498">
  <ele>74.585</ele>
 </trkpt>
 <trkpt lat="51.62529700" lon="7.66008100">
  <ele>74.100</ele>
 </trkpt>
 <trkpt lat="51.62555097" lon="7.65961102">
  <ele>72.952</ele>
 </trkpt>
 <trkpt lat="51.62591399" lon="7.65905597">
  <ele>71.888</ele>
 </trkpt>
 <trkpt lat="51.62645202" lon="7.65851299">
  <ele>71.151</ele>
 </trkpt>
 <trkpt lat="51.62698503" lon="7.65821602">
  <ele>68.887</ele>
 </trkpt>
 <trkpt lat="51.62724696" lon="7.65809800">
  <ele>68.080</ele>
 </trkpt>
 <trkpt lat="51.62736699" lon="7.65805098">
  <ele>67.700</ele>
 </trkpt>
 <trkpt lat="51.62745098" lon="7.65803598">
  <ele>67.624</ele>
 </trkpt>
 <trkpt lat="51.62745098" lon="7.65803598">
  <ele>67.624</ele>
 </trkpt>
 <trkpt lat="51.62764099" lon="7.65797404">
  <ele>68.202</ele>
 </trkpt>
 <trkpt lat="51.62788600" lon="7.65788603">
  <ele>68.125</ele>
 </trkpt>
 <trkpt lat="51.62825698" lon="7.65772602">
  <ele>68.297</ele>
 </trkpt>
 <trkpt lat="51.62848304" lon="7.65759300">
  <ele>67.612</ele>
 </trkpt>
 <trkpt lat="51.62858304" lon="7.65746601">
  <ele>66.571</ele>
 </trkpt>
 <trkpt lat="51.62875998" lon="7.65724003">
  <ele>66.000</ele>
 </trkpt>
 <trkpt lat="51.62893700" lon="7.65717499">
  <ele>67.104</ele>
 </trkpt>
 <trkpt lat="51.62909802" lon="7.65711296">
  <ele>68.032</ele>
 </trkpt>
 <trkpt lat="51.62943397" lon="7.65706100">
  <ele>68.530</ele>
 </trkpt>
 <trkpt lat="51.62970303" lon="7.65712202">
  <ele>68.540</ele>
 </trkpt>
 <trkpt lat="51.62983999" lon="7.65706502">
  <ele>68.021</ele>
 </trkpt>
 <trkpt lat="51.63016202" lon="7.65693904">
  <ele>67.152</ele>
 </trkpt>
 <trkpt lat="51.63052001" lon="7.65680199">
  <ele>66.829</ele>
 </trkpt>
 <trkpt lat="51.63059000" lon="7.65676998">
  <ele>66.641</ele>
 </trkpt>
 <trkpt lat="51.63060701" lon="7.65652598">
  <ele>65.755</ele>
 </trkpt>
 <trkpt lat="51.63061297" lon="7.65640897">
  <ele>64.780</ele>
 </trkpt>
    </trkseg>
  </trk>

  <trk>
    <name>NW 3.26 Teil 2</name>
    <trkseg>
 <trkpt lat="51.58534499" lon="7.66035802">
  <ele>66.080</ele>
 </trkpt>
 <trkpt lat="51.58514600" lon="7.65953097">
  <ele>64.880</ele>
 </trkpt>
 <trkpt lat="51.58546703" lon="7.65915899">
  <ele>64.684</ele>
 </trkpt>
 <trkpt lat="51.58562704" lon="7.65897400">
  <ele>64.363</ele>
 </trkpt>
 <trkpt lat="51.58578898" lon="7.65873503">
  <ele>64.060</ele>
 </trkpt>
 <trkpt lat="51.58638996" lon="7.65825500">
  <ele>63.959</ele>
 </trkpt>
 <trkpt lat="51.58698700" lon="7.65768897">
  <ele>63.229</ele>
 </trkpt>
 <trkpt lat="51.58758103" lon="7.65682798">
  <ele>62.391</ele>
 </trkpt>
 <trkpt lat="51.58757902" lon="7.65645197">
  <ele>63.474</ele>
 </trkpt>
 <trkpt lat="51.58718197" lon="7.65577898">
  <ele>64.387</ele>
 </trkpt>
 <trkpt lat="51.58679799" lon="7.65499100">
  <ele>64.699</ele>
 </trkpt>
 <trkpt lat="51.58666799" lon="7.65475497">
  <ele>64.581</ele>
 </trkpt>
 <trkpt lat="51.58672297" lon="7.65468397">
  <ele>65.594</ele>
 </trkpt>
 <trkpt lat="51.58695498" lon="7.65463603">
  <ele>64.917</ele>
 </trkpt>
 <trkpt lat="51.58737601" lon="7.65458196">
  <ele>64.964</ele>
 </trkpt>
 <trkpt lat="51.58754700" lon="7.65456000">
  <ele>65.147</ele>
 </trkpt>
 <trkpt lat="51.58794397" lon="7.65450804">
  <ele>65.337</ele>
 </trkpt>
 <trkpt lat="51.58832098" lon="7.65445598">
  <ele>65.599</ele>
 </trkpt>
 <trkpt lat="51.58846096" lon="7.65443897">
  <ele>65.013</ele>
 </trkpt>
 <trkpt lat="51.58905499" lon="7.65428399">
  <ele>64.667</ele>
 </trkpt>
 <trkpt lat="51.58968204" lon="7.65391300">
  <ele>65.779</ele>
 </trkpt>
 <trkpt lat="51.59015201" lon="7.65374403">
  <ele>66.041</ele>
 </trkpt>
 <trkpt lat="51.59059198" lon="7.65359399">
  <ele>66.568</ele>
 </trkpt>
 <trkpt lat="51.59085198" lon="7.65349902">
  <ele>66.075</ele>
 </trkpt>
 <trkpt lat="51.59102398" lon="7.65353397">
  <ele>66.171</ele>
 </trkpt>
 <trkpt lat="51.59135800" lon="7.65348804">
  <ele>65.861</ele>
 </trkpt>
 <trkpt lat="51.59155598" lon="7.65329501">
  <ele>65.535</ele>
 </trkpt>
 <trkpt lat="51.59176100" lon="7.65327003">
  <ele>66.734</ele>
 </trkpt>
 <trkpt lat="51.59193199" lon="7.65355904">
  <ele>66.111</ele>
 </trkpt>
 <trkpt lat="51.59199402" lon="7.65367001">
  <ele>66.233</ele>
 </trkpt>
 <trkpt lat="51.59213701" lon="7.65366901">
  <ele>66.145</ele>
 </trkpt>
 <trkpt lat="51.59225101" lon="7.65359499">
  <ele>65.406</ele>
 </trkpt>
 <trkpt lat="51.59224296" lon="7.65326701">
  <ele>65.693</ele>
 </trkpt>
 <trkpt lat="51.59221698" lon="7.65312502">
  <ele>64.950</ele>
 </trkpt>
 <trkpt lat="51.59228303" lon="7.65302100">
  <ele>65.221</ele>
 </trkpt>
 <trkpt lat="51.59262400" lon="7.65290902">
  <ele>64.894</ele>
 </trkpt>
 <trkpt lat="51.59309800" lon="7.65273702">
  <ele>65.383</ele>
 </trkpt>
 <trkpt lat="51.59325097" lon="7.65268204">
  <ele>65.516</ele>
 </trkpt>
 <trkpt lat="51.59376201" lon="7.65250300">
  <ele>66.171</ele>
 </trkpt>
 <trkpt lat="51.59421497" lon="7.65235397">
  <ele>66.165</ele>
 </trkpt>
 <trkpt lat="51.59442301" lon="7.65231399">
  <ele>66.076</ele>
 </trkpt>
 <trkpt lat="51.59462904" lon="7.65229203">
  <ele>66.475</ele>
 </trkpt>
 <trkpt lat="51.59495099" lon="7.65236001">
  <ele>66.619</ele>
 </trkpt>
 <trkpt lat="51.59564601" lon="7.65264097">
  <ele>66.166</ele>
 </trkpt>
 <trkpt lat="51.59581801" lon="7.65273401">
  <ele>67.028</ele>
 </trkpt>
 <trkpt lat="51.59609998" lon="7.65287197">
  <ele>67.470</ele>
 </trkpt>
 <trkpt lat="51.59647699" lon="7.65305403">
  <ele>67.346</ele>
 </trkpt>
 <trkpt lat="51.59651597" lon="7.65307398">
  <ele>67.095</ele>
 </trkpt>
 <trkpt lat="51.59687203" lon="7.65326902">
  <ele>68.070</ele>
 </trkpt>
 <trkpt lat="51.59726104" lon="7.65347698">
  <ele>67.283</ele>
 </trkpt>
 <trkpt lat="51.59771902" lon="7.65377998">
  <ele>67.838</ele>
 </trkpt>
 <trkpt lat="51.59831498" lon="7.65420796">
  <ele>67.636</ele>
 </trkpt>
 <trkpt lat="51.59850600" lon="7.65433604">
  <ele>67.505</ele>
 </trkpt>
 <trkpt lat="51.59865696" lon="7.65444500">
  <ele>67.593</ele>
 </trkpt>
 <trkpt lat="51.59893700" lon="7.65469998">
  <ele>67.940</ele>
 </trkpt>
 <trkpt lat="51.59918100" lon="7.65493803">
  <ele>67.794</ele>
 </trkpt>
 <trkpt lat="51.59960101" lon="7.65542996">
  <ele>68.717</ele>
 </trkpt>
 <trkpt lat="51.60032303" lon="7.65622599">
  <ele>69.713</ele>
 </trkpt>
 <trkpt lat="51.60045203" lon="7.65662899">
  <ele>70.516</ele>
 </trkpt>
 <trkpt lat="51.60061598" lon="7.65724598">
  <ele>69.794</ele>
 </trkpt>
 <trkpt lat="51.60080197" lon="7.65803799">
  <ele>70.023</ele>
 </trkpt>
 <trkpt lat="51.60107497" lon="7.65918296">
  <ele>71.047</ele>
 </trkpt>
 <trkpt lat="51.60139700" lon="7.65992903">
  <ele>71.682</ele>
 </trkpt>
 <trkpt lat="51.60161502" lon="7.66031099">
  <ele>71.995</ele>
 </trkpt>
 <trkpt lat="51.60167503" lon="7.66040303">
  <ele>71.978</ele>
 </trkpt>
 <trkpt lat="51.60178903" lon="7.66055499">
  <ele>72.008</ele>
 </trkpt>
 <trkpt lat="51.60216403" lon="7.66091298">
  <ele>71.925</ele>
 </trkpt>
 <trkpt lat="51.60245497" lon="7.66113703">
  <ele>71.512</ele>
 </trkpt>
 <trkpt lat="51.60258204" lon="7.66115002">
  <ele>72.570</ele>
 </trkpt>
 <trkpt lat="51.60261397" lon="7.66122504">
  <ele>72.275</ele>
 </trkpt>
 <trkpt lat="51.60267902" lon="7.66140400">
  <ele>71.617</ele>
 </trkpt>
 <trkpt lat="51.60276401" lon="7.66142696">
  <ele>71.464</ele>
 </trkpt>
 <trkpt lat="51.60309602" lon="7.66149100">
  <ele>71.926</ele>
 </trkpt>
 <trkpt lat="51.60338804" lon="7.66150198">
  <ele>72.597</ele>
 </trkpt>
 <trkpt lat="51.60359801" lon="7.66150097">
  <ele>72.950</ele>
 </trkpt>
 <trkpt lat="51.60388601" lon="7.66144398">
  <ele>74.116</ele>
 </trkpt>
 <trkpt lat="51.60422799" lon="7.66139201">
  <ele>73.562</ele>
 </trkpt>
 <trkpt lat="51.60459897" lon="7.66129998">
  <ele>73.801</ele>
 </trkpt>
 <trkpt lat="51.60499301" lon="7.66119797">
  <ele>74.043</ele>
 </trkpt>
 <trkpt lat="51.60558896" lon="7.66105900">
  <ele>74.984</ele>
 </trkpt>
 <trkpt lat="51.60589498" lon="7.66101399">
  <ele>75.193</ele>
 </trkpt>
 <trkpt lat="51.60646998" lon="7.66094802">
  <ele>73.991</ele>
 </trkpt>
 <trkpt lat="51.60711598" lon="7.66102304">
  <ele>74.521</ele>
 </trkpt>
 <trkpt lat="51.60767396" lon="7.66114399">
  <ele>73.870</ele>
 </trkpt>
 <trkpt lat="51.60817796" lon="7.66129796">
  <ele>74.643</ele>
 </trkpt>
 <trkpt lat="51.60827402" lon="7.66129696">
  <ele>75.033</ele>
 </trkpt>
 <trkpt lat="51.60834803" lon="7.66133904">
  <ele>75.148</ele>
 </trkpt>
 <trkpt lat="51.60850100" lon="7.66143400">
  <ele>74.144</ele>
 </trkpt>
 <trkpt lat="51.60896603" lon="7.66173600">
  <ele>74.814</ele>
 </trkpt>
    </trkseg>
  </trk>

  <trk>
    <name>NW 3.26 Teil 3</name>
    <trkseg>
 <trkpt lat="51.58656003" lon="7.65470400">
  <ele>64.431</ele>
 </trkpt>
 <trkpt lat="51.58614999" lon="7.65476896">
  <ele>64.533</ele>
 </trkpt>
 <trkpt lat="51.58565897" lon="7.65485597">
  <ele>63.648</ele>
 </trkpt>
 <trkpt lat="51.58522798" lon="7.65493300">
  <ele>64.598</ele>
 </trkpt>
 <trkpt lat="51.58451904" lon="7.65504900">
  <ele>64.364</ele>
 </trkpt>
 <trkpt lat="51.58403104" lon="7.65511698">
  <ele>63.847</ele>
 </trkpt>
 <trkpt lat="51.58386902" lon="7.65512796">
  <ele>64.505</ele>
 </trkpt>
    </trkseg>
  </trk>

  <trk>
    <name>NW 3.26 Teil 4</name>
    <trkseg>
 <trkpt lat="51.61280997" lon="7.66444604">
  <ele>76.647</ele>
 </trkpt>
 <trkpt lat="51.61294802" lon="7.66449600">
  <ele>76.266</ele>
 </trkpt>
 <trkpt lat="51.61335303" lon="7.66462198">
  <ele>75.934</ele>
 </trkpt>
 <trkpt lat="51.61363098" lon="7.66478400">
  <ele>75.994</ele>
 </trkpt>
 <trkpt lat="51.61380800" lon="7.66491601">
  <ele>76.696</ele>
 </trkpt>
 <trkpt lat="51.61391596" lon="7.66500402">
  <ele>76.831</ele>
 </trkpt>
 <trkpt lat="51.61422299" lon="7.66544701">
  <ele>77.808</ele>
 </trkpt>
 <trkpt lat="51.61445701" lon="7.66605704">
  <ele>77.533</ele>
 </trkpt>
 <trkpt lat="51.61458199" lon="7.66675601">
  <ele>78.183</ele>
 </trkpt>
 <trkpt lat="51.61462901" lon="7.66762697">
  <ele>78.007</ele>
 </trkpt>
 <trkpt lat="51.61463002" lon="7.66782001">
  <ele>78.442</ele>
 </trkpt>
 <trkpt lat="51.61460898" lon="7.66855703">
  <ele>78.980</ele>
 </trkpt>
 <trkpt lat="51.61460202" lon="7.66905298">
  <ele>79.972</ele>
 </trkpt>
 <trkpt lat="51.61460001" lon="7.66951600">
  <ele>80.004</ele>
 </trkpt>
 <trkpt lat="51.61459498" lon="7.67000601">
  <ele>80.305</ele>
 </trkpt>
    </trkseg>
  </trk>

</gpx>
