<?xml version="1.0" encoding="UTF-8" standalone="no"?>
<gpx xmlns="http://www.topografix.com/GPX/1/1" creator="MapSource 6.16.3" version="1.1">

<trk>
  <name>NW 3.11a*</name>
<trkseg>
 <trkpt lat="51.53032000" lon="6.93599000">
 </trkpt>
 <trkpt lat="51.52960998" lon="6.93665000">
 </trkpt>
 <trkpt lat="51.52947000" lon="6.93688000">
 </trkpt>
 <trkpt lat="51.52935000" lon="6.93672000">
 </trkpt>
 <trkpt lat="51.52888999" lon="6.93750000">
 </trkpt>
 <trkpt lat="51.52870999" lon="6.93785000">
 </trkpt>
 <trkpt lat="51.52844998" lon="6.93778998">
 </trkpt>
 <trkpt lat="51.52821000" lon="6.93825998">
 </trkpt>
 <trkpt lat="51.52835000" lon="6.93844998">
 </trkpt>
 <trkpt lat="51.52792000" lon="6.93914000">
 </trkpt>
 <trkpt lat="51.52812998" lon="6.93973000">
 </trkpt>
 <trkpt lat="51.52814000" lon="6.94019999">
 </trkpt>
 <trkpt lat="51.52803999" lon="6.94080000">
 </trkpt>
 <trkpt lat="51.52810000" lon="6.94282000">
 </trkpt>
 <trkpt lat="51.52808000" lon="6.94456998">
 </trkpt>
 <trkpt lat="51.52799998" lon="6.94577000">
 </trkpt>
 <trkpt lat="51.52781998" lon="6.94683999">
 </trkpt>
 <trkpt lat="51.52758999" lon="6.94789000">
 </trkpt>
 <trkpt lat="51.52727998" lon="6.94895000">
 </trkpt>
 <trkpt lat="51.52687998" lon="6.94998000">
 </trkpt>
 <trkpt lat="51.52642000" lon="6.95092000">
 </trkpt>
 <trkpt lat="51.52588000" lon="6.95176998">
 </trkpt>
 <trkpt lat="51.52279999" lon="6.95624000">
 </trkpt>
 <trkpt lat="51.52291000" lon="6.95680000">
 </trkpt>
 <trkpt lat="51.52313000" lon="6.95734000">
 </trkpt>
 <trkpt lat="51.52364000" lon="6.95819998">
 </trkpt>
 <trkpt lat="51.52425000" lon="6.95929998">
 </trkpt>
 <trkpt lat="51.52367998" lon="6.95992000">
 </trkpt>
</trkseg>
</trk>

</gpx>
