<?xml version="1.0" encoding="UTF-8" standalone="no"?>
<gpx xmlns="http://www.topografix.com/GPX/1/1" creator="MapSource 6.16.3" version="1.1">

<trk>
  <name>NW 3.11b*</name>
<trkseg>
 <trkpt lat="51.53150000" lon="7.01267998">
 </trkpt>
 <trkpt lat="51.53173998" lon="7.01198000">
 </trkpt>
 <trkpt lat="51.53101998" lon="7.01144999">
 </trkpt>
 <trkpt lat="51.53117998" lon="7.01069998">
 </trkpt>
 <trkpt lat="51.53141999" lon="7.00985998">
 </trkpt>
 <trkpt lat="51.53159998" lon="7.00874000">
 </trkpt>
 <trkpt lat="51.53204998" lon="7.00809998">
 </trkpt>
 <trkpt lat="51.53208000" lon="7.00790998">
 </trkpt>
 <trkpt lat="51.53242998" lon="7.00765998">
 </trkpt>
 <trkpt lat="51.53278998" lon="7.00717000">
 </trkpt>
 <trkpt lat="51.53296000" lon="7.00685000">
 </trkpt>
 <trkpt lat="51.53320000" lon="7.00643998">
 </trkpt>
 <trkpt lat="51.53341998" lon="7.00551000">
 </trkpt>
 <trkpt lat="51.53352000" lon="7.00464998">
 </trkpt>
 <trkpt lat="51.53352000" lon="7.00380998">
 </trkpt>
 <trkpt lat="51.53345000" lon="7.00288998">
 </trkpt>
 <trkpt lat="51.53329999" lon="7.00189000">
 </trkpt>
 <trkpt lat="51.53271000" lon="6.99905000">
 </trkpt>
 <trkpt lat="51.53244000" lon="6.99784000">
 </trkpt>
 <trkpt lat="51.53202000" lon="6.99681000">
 </trkpt>
 <trkpt lat="51.53150000" lon="6.99596000">
 </trkpt>
 <trkpt lat="51.53108000" lon="6.99556998">
 </trkpt>
 <trkpt lat="51.53074998" lon="6.99540000">
 </trkpt>
 <trkpt lat="51.53007000" lon="6.99535998">
 </trkpt>
 <trkpt lat="51.52913000" lon="6.99542000">
 </trkpt>
 <trkpt lat="51.52835000" lon="6.99559998">
 </trkpt>
 <trkpt lat="51.52718998" lon="6.99558000">
 </trkpt>
 <trkpt lat="51.52445000" lon="6.99556998">
 </trkpt>
 <trkpt lat="51.52241000" lon="6.99558000">
 </trkpt>
 <trkpt lat="51.52208000" lon="6.99552998">
 </trkpt>
 <trkpt lat="51.52174000" lon="6.99530999">
 </trkpt>
 <trkpt lat="51.52132000" lon="6.99495000">
 </trkpt>
 <trkpt lat="51.52062000" lon="6.99420000">
 </trkpt>
 <trkpt lat="51.51970000" lon="6.99326000">
 </trkpt>
 <trkpt lat="51.51955000" lon="6.99300000">
 </trkpt>
 <trkpt lat="51.51937998" lon="6.99289000">
 </trkpt>
</trkseg>
</trk>

</gpx>
