<?xml version="1.0" encoding="UTF-8" standalone="no"?>
<gpx xmlns="http://www.topografix.com/GPX/1/1" creator="www.bahntrassenradeln.de" version="1.1">

  <trk>
    <name>NW 3.29</name>
    <trkseg>
 <trkpt lat="51.39581398" lon="8.57466004">
  <ele>435.894</ele>
 </trkpt>
 <trkpt lat="51.39670003" lon="8.57462098">
  <ele>435.942</ele>
 </trkpt>
 <trkpt lat="51.39719297" lon="8.57462400">
  <ele>435.737</ele>
 </trkpt>
 <trkpt lat="51.39777199" lon="8.57465602">
  <ele>434.730</ele>
 </trkpt>
 <trkpt lat="51.39834004" lon="8.57473397">
  <ele>436.183</ele>
 </trkpt>
 <trkpt lat="51.39875703" lon="8.57490102">
  <ele>436.383</ele>
 </trkpt>
 <trkpt lat="51.39879601" lon="8.57512498">
  <ele>435.679</ele>
 </trkpt>
 <trkpt lat="51.39885603" lon="8.57519497">
  <ele>435.250</ele>
 </trkpt>
 <trkpt lat="51.39909298" lon="8.57528399">
  <ele>435.745</ele>
 </trkpt>
 <trkpt lat="51.39924897" lon="8.57528198">
  <ele>434.831</ele>
 </trkpt>
 <trkpt lat="51.39941803" lon="8.57524199">
  <ele>435.287</ele>
 </trkpt>
 <trkpt lat="51.39979798" lon="8.57514099">
  <ele>435.180</ele>
 </trkpt>
 <trkpt lat="51.40034499" lon="8.57529698">
  <ele>436.914</ele>
 </trkpt>
 <trkpt lat="51.40086500" lon="8.57549496">
  <ele>435.464</ele>
 </trkpt>
 <trkpt lat="51.40109399" lon="8.57576301">
  <ele>434.184</ele>
 </trkpt>
 <trkpt lat="51.40118200" lon="8.57584499">
  <ele>434.423</ele>
 </trkpt>
 <trkpt lat="51.40151703" lon="8.57577802">
  <ele>432.949</ele>
 </trkpt>
 <trkpt lat="51.40230199" lon="8.57557903">
  <ele>431.987</ele>
 </trkpt>
 <trkpt lat="51.40319500" lon="8.57545397">
  <ele>429.716</ele>
 </trkpt>
 <trkpt lat="51.40366204" lon="8.57552497">
  <ele>428.299</ele>
 </trkpt>
 <trkpt lat="51.40433896" lon="8.57576301">
  <ele>427.529</ele>
 </trkpt>
 <trkpt lat="51.40468203" lon="8.57599000">
  <ele>427.441</ele>
 </trkpt>
 <trkpt lat="51.40509702" lon="8.57632804">
  <ele>426.261</ele>
 </trkpt>
 <trkpt lat="51.40518503" lon="8.57640297">
  <ele>425.642</ele>
 </trkpt>
 <trkpt lat="51.40546599" lon="8.57672098">
  <ele>425.331</ele>
 </trkpt>
 <trkpt lat="51.40593002" lon="8.57736496">
  <ele>423.641</ele>
 </trkpt>
 <trkpt lat="51.40644299" lon="8.57833098">
  <ele>422.746</ele>
 </trkpt>
 <trkpt lat="51.40652999" lon="8.57851404">
  <ele>422.743</ele>
 </trkpt>
 <trkpt lat="51.40665597" lon="8.57858000">
  <ele>422.815</ele>
 </trkpt>
 <trkpt lat="51.40668397" lon="8.57874001">
  <ele>422.842</ele>
 </trkpt>
 <trkpt lat="51.40667399" lon="8.57885401">
  <ele>422.703</ele>
 </trkpt>
 <trkpt lat="51.40675999" lon="8.57903698">
  <ele>422.331</ele>
 </trkpt>
 <trkpt lat="51.40705504" lon="8.57962900">
  <ele>422.029</ele>
 </trkpt>
 <trkpt lat="51.40737900" lon="8.58013099">
  <ele>420.276</ele>
 </trkpt>
 <trkpt lat="51.40732904" lon="8.58046199">
  <ele>418.959</ele>
 </trkpt>
 <trkpt lat="51.40727196" lon="8.58093599">
  <ele>417.680</ele>
 </trkpt>
 <trkpt lat="51.40763598" lon="8.58220601">
  <ele>412.963</ele>
 </trkpt>
 <trkpt lat="51.40766197" lon="8.58229201">
  <ele>413.034</ele>
 </trkpt>
 <trkpt lat="51.40768703" lon="8.58237701">
  <ele>413.230</ele>
 </trkpt>
 <trkpt lat="51.40792600" lon="8.58262100">
  <ele>413.376</ele>
 </trkpt>
 <trkpt lat="51.40879503" lon="8.58328803">
  <ele>410.643</ele>
 </trkpt>
 <trkpt lat="51.40947003" lon="8.58392799">
  <ele>408.169</ele>
 </trkpt>
 <trkpt lat="51.41010596" lon="8.58446100">
  <ele>407.261</ele>
 </trkpt>
 <trkpt lat="51.41085103" lon="8.58488596">
  <ele>405.622</ele>
 </trkpt>
 <trkpt lat="51.41168897" lon="8.58527899">
  <ele>404.787</ele>
 </trkpt>
 <trkpt lat="51.41175401" lon="8.58454096">
  <ele>408.032</ele>
 </trkpt>
 <trkpt lat="51.41175401" lon="8.58445798">
  <ele>407.910</ele>
 </trkpt>
 <trkpt lat="51.41181696" lon="8.58441699">
  <ele>408.236</ele>
 </trkpt>
 <trkpt lat="51.41210899" lon="8.58472603">
  <ele>407.153</ele>
 </trkpt>
 <trkpt lat="51.41275196" lon="8.58531897">
  <ele>406.357</ele>
 </trkpt>
 <trkpt lat="51.41344598" lon="8.58577201">
  <ele>405.919</ele>
 </trkpt>
 <trkpt lat="51.41417404" lon="8.58600603">
  <ele>403.909</ele>
 </trkpt>
 <trkpt lat="51.41506101" lon="8.58598500">
  <ele>402.452</ele>
 </trkpt>
 <trkpt lat="51.41589602" lon="8.58570999">
  <ele>400.792</ele>
 </trkpt>
 <trkpt lat="51.41676002" lon="8.58537404">
  <ele>399.467</ele>
 </trkpt>
 <trkpt lat="51.41747802" lon="8.58492502">
  <ele>398.461</ele>
 </trkpt>
 <trkpt lat="51.41760098" lon="8.58478697">
  <ele>398.078</ele>
 </trkpt>
 <trkpt lat="51.41772604" lon="8.58461497">
  <ele>397.756</ele>
 </trkpt>
 <trkpt lat="51.41805000" lon="8.58410602">
  <ele>396.469</ele>
 </trkpt>
 <trkpt lat="51.41846297" lon="8.58317002">
  <ele>394.971</ele>
 </trkpt>
 <trkpt lat="51.41857504" lon="8.58292602">
  <ele>395.409</ele>
 </trkpt>
 <trkpt lat="51.41872399" lon="8.58267196">
  <ele>394.938</ele>
 </trkpt>
 <trkpt lat="51.41888903" lon="8.58245404">
  <ele>394.706</ele>
 </trkpt>
 <trkpt lat="51.41906898" lon="8.58225899">
  <ele>394.129</ele>
 </trkpt>
 <trkpt lat="51.41951499" lon="8.58189203">
  <ele>393.976</ele>
 </trkpt>
 <trkpt lat="51.41980500" lon="8.58174199">
  <ele>393.526</ele>
 </trkpt>
 <trkpt lat="51.42013198" lon="8.58160000">
  <ele>393.520</ele>
 </trkpt>
 <trkpt lat="51.42049399" lon="8.58144703">
  <ele>393.139</ele>
 </trkpt>
 <trkpt lat="51.42090898" lon="8.58128702">
  <ele>393.113</ele>
 </trkpt>
 <trkpt lat="51.42155799" lon="8.58103104">
  <ele>392.094</ele>
 </trkpt>
 <trkpt lat="51.42172496" lon="8.58097102">
  <ele>392.166</ele>
 </trkpt>
 <trkpt lat="51.42193903" lon="8.58087497">
  <ele>391.649</ele>
 </trkpt>
 <trkpt lat="51.42233198" lon="8.58069501">
  <ele>390.702</ele>
 </trkpt>
 <trkpt lat="51.42300404" lon="8.58035202">
  <ele>389.416</ele>
 </trkpt>
 <trkpt lat="51.42319003" lon="8.58023099">
  <ele>389.554</ele>
 </trkpt>
 <trkpt lat="51.42332104" lon="8.58011699">
  <ele>388.742</ele>
 </trkpt>
 <trkpt lat="51.42372798" lon="8.57962900">
  <ele>388.273</ele>
 </trkpt>
 <trkpt lat="51.42432301" lon="8.57859601">
  <ele>387.611</ele>
 </trkpt>
 <trkpt lat="51.42497898" lon="8.57774600">
  <ele>386.598</ele>
 </trkpt>
 <trkpt lat="51.42586897" lon="8.57693698">
  <ele>385.303</ele>
 </trkpt>
 <trkpt lat="51.42673901" lon="8.57627297">
  <ele>385.181</ele>
 </trkpt>
 <trkpt lat="51.42777502" lon="8.57552798">
  <ele>384.079</ele>
 </trkpt>
 <trkpt lat="51.42860902" lon="8.57493999">
  <ele>383.366</ele>
 </trkpt>
 <trkpt lat="51.42915501" lon="8.57453196">
  <ele>382.174</ele>
 </trkpt>
 <trkpt lat="51.42978198" lon="8.57413097">
  <ele>381.151</ele>
 </trkpt>
 <trkpt lat="51.43031498" lon="8.57381699">
  <ele>381.079</ele>
 </trkpt>
 <trkpt lat="51.43036100" lon="8.57378497">
  <ele>380.884</ele>
 </trkpt>
 <trkpt lat="51.43057298" lon="8.57357902">
  <ele>381.135</ele>
 </trkpt>
 <trkpt lat="51.43069804" lon="8.57340099">
  <ele>380.797</ele>
 </trkpt>
 <trkpt lat="51.43105804" lon="8.57287101">
  <ele>380.125</ele>
 </trkpt>
 <trkpt lat="51.43140698" lon="8.57230003">
  <ele>380.206</ele>
 </trkpt>
 <trkpt lat="51.43151603" lon="8.57213700">
  <ele>380.102</ele>
 </trkpt>
 <trkpt lat="51.43161703" lon="8.57197104">
  <ele>380.083</ele>
 </trkpt>
 <trkpt lat="51.43194803" lon="8.57152202">
  <ele>379.287</ele>
 </trkpt>
 <trkpt lat="51.43268103" lon="8.57081400">
  <ele>378.486</ele>
 </trkpt>
 <trkpt lat="51.43361201" lon="8.57033196">
  <ele>377.816</ele>
 </trkpt>
 <trkpt lat="51.43445699" lon="8.57018804">
  <ele>377.434</ele>
 </trkpt>
 <trkpt lat="51.43510600" lon="8.57012199">
  <ele>377.649</ele>
 </trkpt>
 <trkpt lat="51.43528797" lon="8.57010196">
  <ele>377.351</ele>
 </trkpt>
 <trkpt lat="51.43590597" lon="8.57002904">
  <ele>378.371</ele>
 </trkpt>
 <trkpt lat="51.43616103" lon="8.57001102">
  <ele>377.513</ele>
 </trkpt>
 <trkpt lat="51.43628701" lon="8.57000599">
  <ele>377.637</ele>
 </trkpt>
 <trkpt lat="51.43659797" lon="8.56994497">
  <ele>377.707</ele>
 </trkpt>
 <trkpt lat="51.43709896" lon="8.56965504">
  <ele>376.780</ele>
 </trkpt>
 <trkpt lat="51.43747003" lon="8.56931096">
  <ele>377.045</ele>
 </trkpt>
 <trkpt lat="51.43760003" lon="8.56914097">
  <ele>376.428</ele>
 </trkpt>
 <trkpt lat="51.43799398" lon="8.56845601">
  <ele>377.279</ele>
 </trkpt>
 <trkpt lat="51.43830403" lon="8.56740299">
  <ele>375.995</ele>
 </trkpt>
 <trkpt lat="51.43840997" lon="8.56652498">
  <ele>375.148</ele>
 </trkpt>
 <trkpt lat="51.43851701" lon="8.56545696">
  <ele>373.908</ele>
 </trkpt>
 <trkpt lat="51.43856202" lon="8.56502697">
  <ele>373.864</ele>
 </trkpt>
 <trkpt lat="51.43858298" lon="8.56480602">
  <ele>373.728</ele>
 </trkpt>
 <trkpt lat="51.43867199" lon="8.56397001">
  <ele>372.665</ele>
 </trkpt>
 <trkpt lat="51.43878800" lon="8.56274298">
  <ele>371.315</ele>
 </trkpt>
 <trkpt lat="51.43891398" lon="8.56168100">
  <ele>369.595</ele>
 </trkpt>
 <trkpt lat="51.43915102" lon="8.56071699">
  <ele>368.824</ele>
 </trkpt>
 <trkpt lat="51.43919201" lon="8.56053100">
  <ele>368.576</ele>
 </trkpt>
 <trkpt lat="51.43934196" lon="8.56012104">
  <ele>367.660</ele>
 </trkpt>
 <trkpt lat="51.43955603" lon="8.56010998">
  <ele>368.157</ele>
 </trkpt>
 <trkpt lat="51.43961797" lon="8.55994997">
  <ele>368.073</ele>
 </trkpt>
 <trkpt lat="51.43988804" lon="8.55898303">
  <ele>367.289</ele>
 </trkpt>
 <trkpt lat="51.44001201" lon="8.55861196">
  <ele>367.339</ele>
 </trkpt>
 <trkpt lat="51.44027503" lon="8.55777302">
  <ele>367.997</ele>
 </trkpt>
 <trkpt lat="51.44060997" lon="8.55673500">
  <ele>366.590</ele>
 </trkpt>
 <trkpt lat="51.44068197" lon="8.55627098">
  <ele>366.867</ele>
 </trkpt>
 <trkpt lat="51.44075196" lon="8.55608901">
  <ele>366.696</ele>
 </trkpt>
 <trkpt lat="51.44086897" lon="8.55572700">
  <ele>366.771</ele>
 </trkpt>
 <trkpt lat="51.44095900" lon="8.55548099">
  <ele>367.328</ele>
 </trkpt>
 <trkpt lat="51.44102798" lon="8.55524504">
  <ele>366.705</ele>
 </trkpt>
 <trkpt lat="51.44128799" lon="8.55448203">
  <ele>365.575</ele>
 </trkpt>
 <trkpt lat="51.44161798" lon="8.55363898">
  <ele>365.181</ele>
 </trkpt>
 <trkpt lat="51.44169199" lon="8.55350797">
  <ele>365.912</ele>
 </trkpt>
 <trkpt lat="51.44175896" lon="8.55339096">
  <ele>365.470</ele>
 </trkpt>
 <trkpt lat="51.44187497" lon="8.55324402">
  <ele>365.483</ele>
 </trkpt>
 <trkpt lat="51.44197103" lon="8.55314403">
  <ele>365.694</ele>
 </trkpt>
 <trkpt lat="51.44203498" lon="8.55307898">
  <ele>366.484</ele>
 </trkpt>
 <trkpt lat="51.44216297" lon="8.55295200">
  <ele>365.289</ele>
 </trkpt>
 <trkpt lat="51.44265197" lon="8.55267003">
  <ele>364.122</ele>
 </trkpt>
 <trkpt lat="51.44341196" lon="8.55238999">
  <ele>363.962</ele>
 </trkpt>
 <trkpt lat="51.44414999" lon="8.55186302">
  <ele>363.754</ele>
 </trkpt>
 <trkpt lat="51.44490201" lon="8.55099197">
  <ele>363.181</ele>
 </trkpt>
 <trkpt lat="51.44547600" lon="8.54996301">
  <ele>363.147</ele>
 </trkpt>
 <trkpt lat="51.44602804" lon="8.54863297">
  <ele>362.588</ele>
 </trkpt>
 <trkpt lat="51.44637496" lon="8.54742296">
  <ele>362.106</ele>
 </trkpt>
 <trkpt lat="51.44679297" lon="8.54613198">
  <ele>361.405</ele>
 </trkpt>
 <trkpt lat="51.44729404" lon="8.54493102">
  <ele>361.024</ele>
 </trkpt>
 <trkpt lat="51.44752597" lon="8.54433800">
  <ele>360.275</ele>
 </trkpt>
 <trkpt lat="51.44778002" lon="8.54338900">
  <ele>360.251</ele>
 </trkpt>
 <trkpt lat="51.44802997" lon="8.54220204">
  <ele>359.304</ele>
 </trkpt>
 <trkpt lat="51.44831303" lon="8.54093302">
  <ele>358.190</ele>
 </trkpt>
 <trkpt lat="51.44846499" lon="8.54047302">
  <ele>357.831</ele>
 </trkpt>
 <trkpt lat="51.44871100" lon="8.54002300">
  <ele>357.504</ele>
 </trkpt>
 <trkpt lat="51.44901099" lon="8.53968102">
  <ele>357.345</ele>
 </trkpt>
 <trkpt lat="51.44931902" lon="8.53945202">
  <ele>357.684</ele>
 </trkpt>
 <trkpt lat="51.44947601" lon="8.53934800">
  <ele>357.330</ele>
 </trkpt>
 <trkpt lat="51.44990701" lon="8.53925496">
  <ele>356.534</ele>
 </trkpt>
 <trkpt lat="51.45078602" lon="8.53906402">
  <ele>356.827</ele>
 </trkpt>
 <trkpt lat="51.45136697" lon="8.53853697">
  <ele>355.437</ele>
 </trkpt>
 <trkpt lat="51.45162103" lon="8.53814201">
  <ele>356.509</ele>
 </trkpt>
 <trkpt lat="51.45169102" lon="8.53795099">
  <ele>355.306</ele>
 </trkpt>
 <trkpt lat="51.45189302" lon="8.53730097">
  <ele>354.273</ele>
 </trkpt>
 <trkpt lat="51.45207901" lon="8.53625500">
  <ele>353.095</ele>
 </trkpt>
 <trkpt lat="51.45258503" lon="8.53488497">
  <ele>352.523</ele>
 </trkpt>
 <trkpt lat="51.45317897" lon="8.53393396">
  <ele>351.636</ele>
 </trkpt>
 <trkpt lat="51.45388297" lon="8.53260300">
  <ele>350.755</ele>
 </trkpt>
 <trkpt lat="51.45403602" lon="8.53188802">
  <ele>350.112</ele>
 </trkpt>
 <trkpt lat="51.45404197" lon="8.53175903">
  <ele>350.417</ele>
 </trkpt>
 <trkpt lat="51.45405798" lon="8.53122602">
  <ele>349.396</ele>
 </trkpt>
 <trkpt lat="51.45404197" lon="8.53076502">
  <ele>348.966</ele>
 </trkpt>
 <trkpt lat="51.45400601" lon="8.52942400">
  <ele>348.385</ele>
 </trkpt>
 <trkpt lat="51.45417902" lon="8.52840300">
  <ele>348.100</ele>
 </trkpt>
 <trkpt lat="51.45461798" lon="8.52752198">
  <ele>347.474</ele>
 </trkpt>
 <trkpt lat="51.45519700" lon="8.52699400">
  <ele>347.291</ele>
 </trkpt>
 <trkpt lat="51.45548601" lon="8.52685100">
  <ele>346.830</ele>
 </trkpt>
 <trkpt lat="51.45562699" lon="8.52678504">
  <ele>347.047</ele>
 </trkpt>
 <trkpt lat="51.45616402" lon="8.52662897">
  <ele>346.138</ele>
 </trkpt>
 <trkpt lat="51.45683499" lon="8.52654004">
  <ele>345.277</ele>
 </trkpt>
 <trkpt lat="51.45779698" lon="8.52656300">
  <ele>345.147</ele>
 </trkpt>
 <trkpt lat="51.45874003" lon="8.52654196">
  <ele>344.683</ele>
 </trkpt>
 <trkpt lat="51.45917203" lon="8.52645697">
  <ele>344.729</ele>
 </trkpt>
 <trkpt lat="51.45927496" lon="8.52643803">
  <ele>344.394</ele>
 </trkpt>
 <trkpt lat="51.45973697" lon="8.52625002">
  <ele>342.795</ele>
 </trkpt>
 <trkpt lat="51.46068798" lon="8.52576203">
  <ele>342.257</ele>
 </trkpt>
 <trkpt lat="51.46120900" lon="8.52535802">
  <ele>341.722</ele>
 </trkpt>
 <trkpt lat="51.46148602" lon="8.52509097">
  <ele>341.756</ele>
 </trkpt>
 <trkpt lat="51.46181803" lon="8.52464497">
  <ele>341.164</ele>
 </trkpt>
 <trkpt lat="51.46233302" lon="8.52369396">
  <ele>341.238</ele>
 </trkpt>
 <trkpt lat="51.46287901" lon="8.52277899">
  <ele>340.326</ele>
 </trkpt>
 <trkpt lat="51.46355099" lon="8.52177400">
  <ele>339.033</ele>
 </trkpt>
 <trkpt lat="51.46383204" lon="8.52133898">
  <ele>339.148</ele>
 </trkpt>
 <trkpt lat="51.46422003" lon="8.52077002">
  <ele>338.542</ele>
 </trkpt>
 <trkpt lat="51.46491598" lon="8.51990702">
  <ele>338.624</ele>
 </trkpt>
 <trkpt lat="51.46569902" lon="8.51939497">
  <ele>337.835</ele>
 </trkpt>
 <trkpt lat="51.46643898" lon="8.51928399">
  <ele>337.519</ele>
 </trkpt>
 <trkpt lat="51.46668004" lon="8.51929304">
  <ele>338.334</ele>
 </trkpt>
 <trkpt lat="51.46689101" lon="8.51928500">
  <ele>336.866</ele>
 </trkpt>
 <trkpt lat="51.46731002" lon="8.51920797">
  <ele>337.171</ele>
 </trkpt>
 <trkpt lat="51.46759601" lon="8.51908299">
  <ele>337.380</ele>
 </trkpt>
 <trkpt lat="51.46826204" lon="8.51856197">
  <ele>337.401</ele>
 </trkpt>
 <trkpt lat="51.46878599" lon="8.51779503">
  <ele>336.399</ele>
 </trkpt>
 <trkpt lat="51.46912898" lon="8.51693203">
  <ele>336.355</ele>
 </trkpt>
 <trkpt lat="51.46938496" lon="8.51562504">
  <ele>336.278</ele>
 </trkpt>
 <trkpt lat="51.46944900" lon="8.51499304">
  <ele>335.568</ele>
 </trkpt>
 <trkpt lat="51.46942997" lon="8.51458803">
  <ele>335.768</ele>
 </trkpt>
 <trkpt lat="51.46959602" lon="8.51356803">
  <ele>334.634</ele>
 </trkpt>
 <trkpt lat="51.46968897" lon="8.51310301">
  <ele>335.074</ele>
 </trkpt>
 <trkpt lat="51.46978201" lon="8.51255399">
  <ele>333.807</ele>
 </trkpt>
 <trkpt lat="51.46985603" lon="8.51231502">
  <ele>333.002</ele>
 </trkpt>
 <trkpt lat="51.46990498" lon="8.51211201">
  <ele>334.064</ele>
 </trkpt>
 <trkpt lat="51.46997396" lon="8.51191001">
  <ele>333.402</ele>
 </trkpt>
 <trkpt lat="51.47029800" lon="8.51134700">
  <ele>333.183</ele>
 </trkpt>
 <trkpt lat="51.47073504" lon="8.51082296">
  <ele>331.870</ele>
 </trkpt>
 <trkpt lat="51.47139503" lon="8.51006197">
  <ele>332.353</ele>
 </trkpt>
 <trkpt lat="51.47167096" lon="8.50969199">
  <ele>332.120</ele>
 </trkpt>
 <trkpt lat="51.47214596" lon="8.50915899">
  <ele>330.083</ele>
 </trkpt>
 <trkpt lat="51.47280897" lon="8.50839397">
  <ele>330.406</ele>
 </trkpt>
 <trkpt lat="51.47360198" lon="8.50748001">
  <ele>328.091</ele>
 </trkpt>
 <trkpt lat="51.47420196" lon="8.50665598">
  <ele>327.248</ele>
 </trkpt>
 <trkpt lat="51.47480001" lon="8.50546198">
  <ele>326.267</ele>
 </trkpt>
 <trkpt lat="51.47492398" lon="8.50513902">
  <ele>326.717</ele>
 </trkpt>
 <trkpt lat="51.47494200" lon="8.50470199">
  <ele>326.266</ele>
 </trkpt>
 <trkpt lat="51.47510000" lon="8.50409699">
  <ele>325.348</ele>
 </trkpt>
 <trkpt lat="51.47538397" lon="8.50267399">
  <ele>324.748</ele>
 </trkpt>
 <trkpt lat="51.47558397" lon="8.50121696">
  <ele>324.540</ele>
 </trkpt>
 <trkpt lat="51.47579804" lon="8.49983403">
  <ele>324.055</ele>
 </trkpt>
 <trkpt lat="51.47595604" lon="8.49843300">
  <ele>323.134</ele>
 </trkpt>
 <trkpt lat="51.47606500" lon="8.49765097">
  <ele>323.112</ele>
 </trkpt>
 <trkpt lat="51.47613700" lon="8.49717203">
  <ele>323.378</ele>
 </trkpt>
 <trkpt lat="51.47628101" lon="8.49632101">
  <ele>323.434</ele>
 </trkpt>
 <trkpt lat="51.47644697" lon="8.49528601">
  <ele>323.164</ele>
 </trkpt>
 <trkpt lat="51.47666398" lon="8.49403501">
  <ele>322.247</ele>
 </trkpt>
 <trkpt lat="51.47670999" lon="8.49377199">
  <ele>321.878</ele>
 </trkpt>
 <trkpt lat="51.47690898" lon="8.49284898">
  <ele>321.358</ele>
 </trkpt>
 <trkpt lat="51.47727300" lon="8.49153796">
  <ele>320.858</ele>
 </trkpt>
 <trkpt lat="51.47756000" lon="8.49057899">
  <ele>320.253</ele>
 </trkpt>
 <trkpt lat="51.47765203" lon="8.49036500">
  <ele>319.866</ele>
 </trkpt>
 <trkpt lat="51.47774599" lon="8.49006903">
  <ele>319.912</ele>
 </trkpt>
 <trkpt lat="51.47808203" lon="8.48887604">
  <ele>319.520</ele>
 </trkpt>
 <trkpt lat="51.47805302" lon="8.48861301">
  <ele>321.715</ele>
 </trkpt>
 <trkpt lat="51.47775899" lon="8.48828796">
  <ele>322.767</ele>
 </trkpt>
 <trkpt lat="51.47780199" lon="8.48789603">
  <ele>323.288</ele>
 </trkpt>
 <trkpt lat="51.47783702" lon="8.48740300">
  <ele>324.536</ele>
 </trkpt>
 <trkpt lat="51.47776301" lon="8.48663497">
  <ele>324.915</ele>
 </trkpt>
 <trkpt lat="51.47765597" lon="8.48547801">
  <ele>325.202</ele>
 </trkpt>
 <trkpt lat="51.47760199" lon="8.48476597">
  <ele>326.950</ele>
 </trkpt>
 <trkpt lat="51.47755899" lon="8.48377900">
  <ele>329.853</ele>
 </trkpt>
 <trkpt lat="51.47759303" lon="8.48288599">
  <ele>331.938</ele>
 </trkpt>
 <trkpt lat="51.47774801" lon="8.48210396">
  <ele>333.933</ele>
 </trkpt>
 <trkpt lat="51.47785798" lon="8.48156199">
  <ele>334.700</ele>
 </trkpt>
 <trkpt lat="51.47794196" lon="8.48109101">
  <ele>335.503</ele>
 </trkpt>
 <trkpt lat="51.47801598" lon="8.48060997">
  <ele>335.706</ele>
 </trkpt>
 <trkpt lat="51.47809803" lon="8.48009901">
  <ele>336.123</ele>
 </trkpt>
 <trkpt lat="51.47813902" lon="8.47951404">
  <ele>336.695</ele>
 </trkpt>
 <trkpt lat="51.47806702" lon="8.47896896">
  <ele>337.777</ele>
 </trkpt>
 <trkpt lat="51.47794599" lon="8.47859002">
  <ele>337.901</ele>
 </trkpt>
 <trkpt lat="51.47792604" lon="8.47803799">
  <ele>338.132</ele>
 </trkpt>
 <trkpt lat="51.47811002" lon="8.47785300">
  <ele>337.940</ele>
 </trkpt>
 <trkpt lat="51.47854404" lon="8.47800496">
  <ele>338.942</ele>
 </trkpt>
 <trkpt lat="51.47878099" lon="8.47802499">
  <ele>339.287</ele>
 </trkpt>
 <trkpt lat="51.47884201" lon="8.47801804">
  <ele>339.228</ele>
 </trkpt>
 <trkpt lat="51.47911602" lon="8.47776901">
  <ele>339.212</ele>
 </trkpt>
 <trkpt lat="51.47940201" lon="8.47718404">
  <ele>340.708</ele>
 </trkpt>
 <trkpt lat="51.47957300" lon="8.47666503">
  <ele>341.549</ele>
 </trkpt>
 <trkpt lat="51.47977701" lon="8.47601904">
  <ele>343.559</ele>
 </trkpt>
 <trkpt lat="51.48002897" lon="8.47528797">
  <ele>343.875</ele>
 </trkpt>
 <trkpt lat="51.48023198" lon="8.47464600">
  <ele>344.491</ele>
 </trkpt>
 <trkpt lat="51.48049601" lon="8.47387101">
  <ele>344.671</ele>
 </trkpt>
 <trkpt lat="51.48066600" lon="8.47342098">
  <ele>344.594</ele>
 </trkpt>
 <trkpt lat="51.48073196" lon="8.47315804">
  <ele>344.817</ele>
 </trkpt>
 <trkpt lat="51.48076700" lon="8.47294698">
  <ele>345.175</ele>
 </trkpt>
 <trkpt lat="51.48078804" lon="8.47256804">
  <ele>345.259</ele>
 </trkpt>
 <trkpt lat="51.48080204" lon="8.47201198">
  <ele>346.035</ele>
 </trkpt>
 <trkpt lat="51.48091100" lon="8.47172298">
  <ele>346.716</ele>
 </trkpt>
 <trkpt lat="51.48113203" lon="8.47168400">
  <ele>347.000</ele>
 </trkpt>
 <trkpt lat="51.48173796" lon="8.47159004">
  <ele>346.243</ele>
 </trkpt>
 <trkpt lat="51.48198497" lon="8.47149398">
  <ele>342.947</ele>
 </trkpt>
 <trkpt lat="51.48220802" lon="8.47137999">
  <ele>341.636</ele>
 </trkpt>
 <trkpt lat="51.48294797" lon="8.47100297">
  <ele>338.640</ele>
 </trkpt>
 <trkpt lat="51.48361400" lon="8.47042797">
  <ele>336.825</ele>
 </trkpt>
 <trkpt lat="51.48415002" lon="8.46952599">
  <ele>334.236</ele>
 </trkpt>
 <trkpt lat="51.48428204" lon="8.46906600">
  <ele>332.630</ele>
 </trkpt>
 <trkpt lat="51.48439301" lon="8.46781701">
  <ele>328.564</ele>
 </trkpt>
 <trkpt lat="51.48442897" lon="8.46655302">
  <ele>324.463</ele>
 </trkpt>
 <trkpt lat="51.48443400" lon="8.46641899">
  <ele>324.395</ele>
 </trkpt>
 <trkpt lat="51.48459904" lon="8.46548701">
  <ele>323.136</ele>
 </trkpt>
 <trkpt lat="51.48494001" lon="8.46441203">
  <ele>320.532</ele>
 </trkpt>
 <trkpt lat="51.48535601" lon="8.46318802">
  <ele>319.132</ele>
 </trkpt>
 <trkpt lat="51.48554804" lon="8.46258704">
  <ele>315.743</ele>
 </trkpt>
 <trkpt lat="51.48587703" lon="8.46166100">
  <ele>311.834</ele>
 </trkpt>
 <trkpt lat="51.48605498" lon="8.46110797">
  <ele>308.895</ele>
 </trkpt>
 <trkpt lat="51.48620702" lon="8.45999502">
  <ele>308.988</ele>
 </trkpt>
 <trkpt lat="51.48617299" lon="8.45912397">
  <ele>310.311</ele>
 </trkpt>
 <trkpt lat="51.48610904" lon="8.45761003">
  <ele>308.472</ele>
 </trkpt>
 <trkpt lat="51.48593604" lon="8.45628703">
  <ele>308.850</ele>
 </trkpt>
 <trkpt lat="51.48559498" lon="8.45468600">
  <ele>306.083</ele>
 </trkpt>
 <trkpt lat="51.48523699" lon="8.45314197">
  <ele>306.089</ele>
 </trkpt>
 <trkpt lat="51.48502300" lon="8.45219197">
  <ele>304.509</ele>
 </trkpt>
 <trkpt lat="51.48497497" lon="8.45104499">
  <ele>302.765</ele>
 </trkpt>
 <trkpt lat="51.48491998" lon="8.44943399">
  <ele>300.417</ele>
 </trkpt>
 <trkpt lat="51.48477003" lon="8.44792902">
  <ele>300.485</ele>
 </trkpt>
 <trkpt lat="51.48473097" lon="8.44722100">
  <ele>301.363</ele>
 </trkpt>
 <trkpt lat="51.48471002" lon="8.44659998">
  <ele>300.794</ele>
 </trkpt>
 <trkpt lat="51.48467104" lon="8.44632497">
  <ele>299.292</ele>
 </trkpt>
 <trkpt lat="51.48446501" lon="8.44536197">
  <ele>300.879</ele>
 </trkpt>
 <trkpt lat="51.48451203" lon="8.44528997">
  <ele>302.226</ele>
 </trkpt>
 <trkpt lat="51.48464497" lon="8.44520599">
  <ele>302.413</ele>
 </trkpt>
 <trkpt lat="51.48493004" lon="8.44493399">
  <ele>302.574</ele>
 </trkpt>
 <trkpt lat="51.48498301" lon="8.44454097">
  <ele>300.824</ele>
 </trkpt>
 <trkpt lat="51.48491101" lon="8.44419798">
  <ele>301.906</ele>
 </trkpt>
 <trkpt lat="51.48464296" lon="8.44331201">
  <ele>300.940</ele>
 </trkpt>
 <trkpt lat="51.48455797" lon="8.44308704">
  <ele>300.530</ele>
 </trkpt>
 <trkpt lat="51.48408598" lon="8.44236301">
  <ele>299.376</ele>
 </trkpt>
 <trkpt lat="51.48348299" lon="8.44099400">
  <ele>299.203</ele>
 </trkpt>
 <trkpt lat="51.48324997" lon="8.44052402">
  <ele>297.445</ele>
 </trkpt>
 <trkpt lat="51.48252804" lon="8.43910304">
  <ele>297.626</ele>
 </trkpt>
 <trkpt lat="51.48234297" lon="8.43855201">
  <ele>296.953</ele>
 </trkpt>
 <trkpt lat="51.48223400" lon="8.43815002">
  <ele>295.564</ele>
 </trkpt>
 <trkpt lat="51.48193200" lon="8.43699197">
  <ele>296.130</ele>
 </trkpt>
 <trkpt lat="51.48179001" lon="8.43665401">
  <ele>297.021</ele>
 </trkpt>
 <trkpt lat="51.48138500" lon="8.43597399">
  <ele>300.287</ele>
 </trkpt>
 <trkpt lat="51.48110001" lon="8.43533898">
  <ele>300.700</ele>
 </trkpt>
 <trkpt lat="51.48099398" lon="8.43449400">
  <ele>298.246</ele>
 </trkpt>
 <trkpt lat="51.48089499" lon="8.43366897">
  <ele>295.193</ele>
 </trkpt>
 <trkpt lat="51.48076298" lon="8.43250799">
  <ele>292.484</ele>
 </trkpt>
 <trkpt lat="51.48047104" lon="8.43140300">
  <ele>292.645</ele>
 </trkpt>
 <trkpt lat="51.48031597" lon="8.43083697">
  <ele>294.537</ele>
 </trkpt>
 <trkpt lat="51.48020902" lon="8.43048602">
  <ele>294.770</ele>
 </trkpt>
 <trkpt lat="51.47995798" lon="8.42962998">
  <ele>295.632</ele>
 </trkpt>
 <trkpt lat="51.47981800" lon="8.42866598">
  <ele>295.149</ele>
 </trkpt>
 <trkpt lat="51.47952799" lon="8.42761698">
  <ele>296.087</ele>
 </trkpt>
 <trkpt lat="51.47923797" lon="8.42665197">
  <ele>298.234</ele>
 </trkpt>
 <trkpt lat="51.47904703" lon="8.42580096">
  <ele>300.134</ele>
 </trkpt>
 <trkpt lat="51.47886003" lon="8.42424603">
  <ele>298.528</ele>
 </trkpt>
 <trkpt lat="51.47877504" lon="8.42310199">
  <ele>298.255</ele>
 </trkpt>
 <trkpt lat="51.47874998" lon="8.42170204">
  <ele>296.582</ele>
 </trkpt>
 <trkpt lat="51.47866298" lon="8.42022297">
  <ele>295.500</ele>
 </trkpt>
 <trkpt lat="51.47869097" lon="8.41818097">
  <ele>294.061</ele>
 </trkpt>
 <trkpt lat="51.47874797" lon="8.41675697">
  <ele>291.228</ele>
 </trkpt>
 <trkpt lat="51.47894897" lon="8.41623302">
  <ele>290.538</ele>
 </trkpt>
 <trkpt lat="51.47929497" lon="8.41593504">
  <ele>288.969</ele>
 </trkpt>
 <trkpt lat="51.47958599" lon="8.41561100">
  <ele>288.796</ele>
 </trkpt>
 <trkpt lat="51.48009502" lon="8.41447701">
  <ele>287.458</ele>
 </trkpt>
 <trkpt lat="51.48014297" lon="8.41436301">
  <ele>287.159</ele>
 </trkpt>
 <trkpt lat="51.48012897" lon="8.41411298">
  <ele>287.967</ele>
 </trkpt>
 <trkpt lat="51.47964098" lon="8.41404802">
  <ele>287.811</ele>
 </trkpt>
 <trkpt lat="51.47961197" lon="8.41403796">
  <ele>287.705</ele>
 </trkpt>
 <trkpt lat="51.47959404" lon="8.41381199">
  <ele>287.449</ele>
 </trkpt>
 <trkpt lat="51.47956797" lon="8.41337403">
  <ele>286.217</ele>
 </trkpt>
 <trkpt lat="51.47955003" lon="8.41326800">
  <ele>285.636</ele>
 </trkpt>
 <trkpt lat="51.47950301" lon="8.41277297">
  <ele>285.685</ele>
 </trkpt>
 <trkpt lat="51.47946998" lon="8.41232898">
  <ele>285.221</ele>
 </trkpt>
 <trkpt lat="51.47946504" lon="8.41218498">
  <ele>285.553</ele>
 </trkpt>
 <trkpt lat="51.47951600" lon="8.41182003">
  <ele>285.602</ele>
 </trkpt>
 <trkpt lat="51.47953796" lon="8.41143899">
  <ele>284.922</ele>
 </trkpt>
 <trkpt lat="51.47976897" lon="8.41073298">
  <ele>284.585</ele>
 </trkpt>
 <trkpt lat="51.47984700" lon="8.41053098">
  <ele>284.805</ele>
 </trkpt>
 <trkpt lat="51.47996896" lon="8.40970100">
  <ele>283.536</ele>
 </trkpt>
 <trkpt lat="51.48013199" lon="8.40766302">
  <ele>282.161</ele>
 </trkpt>
 <trkpt lat="51.48027699" lon="8.40704503">
  <ele>282.970</ele>
 </trkpt>
 <trkpt lat="51.48037598" lon="8.40596803">
  <ele>282.320</ele>
 </trkpt>
 <trkpt lat="51.48043600" lon="8.40499104">
  <ele>281.821</ele>
 </trkpt>
 <trkpt lat="51.48040700" lon="8.40397800">
  <ele>281.247</ele>
 </trkpt>
 <trkpt lat="51.48063197" lon="8.40246398">
  <ele>280.201</ele>
 </trkpt>
 <trkpt lat="51.48071000" lon="8.40176904">
  <ele>280.541</ele>
 </trkpt>
 <trkpt lat="51.48072199" lon="8.40159603">
  <ele>279.346</ele>
 </trkpt>
 <trkpt lat="51.48074797" lon="8.40021604">
  <ele>277.504</ele>
 </trkpt>
 <trkpt lat="51.48063901" lon="8.39866798">
  <ele>277.207</ele>
 </trkpt>
 <trkpt lat="51.48067899" lon="8.39769401">
  <ele>279.284</ele>
 </trkpt>
 <trkpt lat="51.48081796" lon="8.39637796">
  <ele>276.813</ele>
 </trkpt>
 <trkpt lat="51.48098703" lon="8.39483603">
  <ele>276.736</ele>
 </trkpt>
 <trkpt lat="51.48124896" lon="8.39322796">
  <ele>277.079</ele>
 </trkpt>
 <trkpt lat="51.48140604" lon="8.39207897">
  <ele>276.878</ele>
 </trkpt>
 <trkpt lat="51.48147301" lon="8.39180304">
  <ele>276.551</ele>
 </trkpt>
 <trkpt lat="51.48152196" lon="8.39161998">
  <ele>276.762</ele>
 </trkpt>
 <trkpt lat="51.48154199" lon="8.39055799">
  <ele>276.948</ele>
 </trkpt>
 <trkpt lat="51.48153897" lon="8.39016999">
  <ele>277.198</ele>
 </trkpt>
 <trkpt lat="51.48154803" lon="8.38851297">
  <ele>277.258</ele>
 </trkpt>
 <trkpt lat="51.48153403" lon="8.38731998">
  <ele>277.539</ele>
 </trkpt>
 <trkpt lat="51.48152799" lon="8.38645102">
  <ele>277.745</ele>
 </trkpt>
 <trkpt lat="51.48153403" lon="8.38626302">
  <ele>277.748</ele>
 </trkpt>
 <trkpt lat="51.48155398" lon="8.38602698">
  <ele>277.897</ele>
 </trkpt>
 <trkpt lat="51.48154300" lon="8.38538501">
  <ele>279.240</ele>
 </trkpt>
 <trkpt lat="51.48153403" lon="8.38505904">
  <ele>281.432</ele>
 </trkpt>
 <trkpt lat="51.48152498" lon="8.38449402">
  <ele>284.737</ele>
 </trkpt>
 <trkpt lat="51.48151701" lon="8.38384802">
  <ele>286.075</ele>
 </trkpt>
 <trkpt lat="51.48150503" lon="8.38320899">
  <ele>287.837</ele>
 </trkpt>
 <trkpt lat="51.48150100" lon="8.38255897">
  <ele>289.591</ele>
 </trkpt>
 <trkpt lat="51.48149204" lon="8.38189504">
  <ele>290.343</ele>
 </trkpt>
 <trkpt lat="51.48148399" lon="8.38117898">
  <ele>292.175</ele>
 </trkpt>
 <trkpt lat="51.48146798" lon="8.38033198">
  <ele>292.731</ele>
 </trkpt>
 <trkpt lat="51.48146798" lon="8.37964098">
  <ele>292.736</ele>
 </trkpt>
 <trkpt lat="51.48147301" lon="8.37952296">
  <ele>293.510</ele>
 </trkpt>
 <trkpt lat="51.48147100" lon="8.37848696">
  <ele>291.934</ele>
 </trkpt>
 <trkpt lat="51.48150402" lon="8.37718097">
  <ele>291.168</ele>
 </trkpt>
 <trkpt lat="51.48160997" lon="8.37655099">
  <ele>287.455</ele>
 </trkpt>
 <trkpt lat="51.48166898" lon="8.37617699">
  <ele>285.713</ele>
 </trkpt>
 <trkpt lat="51.48192203" lon="8.37571297">
  <ele>284.428</ele>
 </trkpt>
 <trkpt lat="51.48214901" lon="8.37558699">
  <ele>281.373</ele>
 </trkpt>
 <trkpt lat="51.48249200" lon="8.37541298">
  <ele>278.293</ele>
 </trkpt>
 <trkpt lat="51.48258302" lon="8.37536998">
  <ele>278.013</ele>
 </trkpt>
 <trkpt lat="51.48324301" lon="8.37509497">
  <ele>271.263</ele>
 </trkpt>
 <trkpt lat="51.48365700" lon="8.37499799">
  <ele>270.684</ele>
 </trkpt>
 <trkpt lat="51.48399998" lon="8.37461100">
  <ele>271.399</ele>
 </trkpt>
 <trkpt lat="51.48422596" lon="8.37392603">
  <ele>270.454</ele>
 </trkpt>
 <trkpt lat="51.48413200" lon="8.37356200">
  <ele>269.660</ele>
 </trkpt>
 <trkpt lat="51.48343898" lon="8.37258400">
  <ele>272.905</ele>
 </trkpt>
 <trkpt lat="51.48304797" lon="8.37203499">
  <ele>273.302</ele>
 </trkpt>
 <trkpt lat="51.48295702" lon="8.37155102">
  <ele>272.949</ele>
 </trkpt>
 <trkpt lat="51.48294101" lon="8.37142403">
  <ele>272.986</ele>
 </trkpt>
 <trkpt lat="51.48291897" lon="8.37128296">
  <ele>272.898</ele>
 </trkpt>
 <trkpt lat="51.48280003" lon="8.37029197">
  <ele>272.462</ele>
 </trkpt>
 <trkpt lat="51.48267497" lon="8.36919797">
  <ele>272.467</ele>
 </trkpt>
 <trkpt lat="51.48262301" lon="8.36879798">
  <ele>272.300</ele>
 </trkpt>
 <trkpt lat="51.48252301" lon="8.36804504">
  <ele>271.267</ele>
 </trkpt>
 <trkpt lat="51.48233701" lon="8.36662799">
  <ele>269.571</ele>
 </trkpt>
 <trkpt lat="51.48221699" lon="8.36562803">
  <ele>270.038</ele>
 </trkpt>
 <trkpt lat="51.48203501" lon="8.36523400">
  <ele>271.218</ele>
 </trkpt>
 <trkpt lat="51.48194902" lon="8.36512998">
  <ele>273.636</ele>
 </trkpt>
 <trkpt lat="51.48164903" lon="8.36458197">
  <ele>274.891</ele>
 </trkpt>
 <trkpt lat="51.48157904" lon="8.36418500">
  <ele>275.389</ele>
 </trkpt>
 <trkpt lat="51.48151198" lon="8.36368896">
  <ele>276.026</ele>
 </trkpt>
 <trkpt lat="51.48146798" lon="8.36339802">
  <ele>275.683</ele>
 </trkpt>
 <trkpt lat="51.48154199" lon="8.36300299">
  <ele>275.413</ele>
 </trkpt>
 <trkpt lat="51.48173301" lon="8.36283803">
  <ele>274.564</ele>
 </trkpt>
 <trkpt lat="51.48184600" lon="8.36274499">
  <ele>275.033</ele>
 </trkpt>
 <trkpt lat="51.48198699" lon="8.36253301">
  <ele>274.366</ele>
 </trkpt>
 <trkpt lat="51.48209897" lon="8.36211098">
  <ele>271.755</ele>
 </trkpt>
 <trkpt lat="51.48205304" lon="8.36059503">
  <ele>268.850</ele>
 </trkpt>
 <trkpt lat="51.48195304" lon="8.35929299">
  <ele>268.686</ele>
 </trkpt>
 <trkpt lat="51.48189797" lon="8.35837500">
  <ele>269.116</ele>
 </trkpt>
 <trkpt lat="51.48195002" lon="8.35730799">
  <ele>270.231</ele>
 </trkpt>
 <trkpt lat="51.48203703" lon="8.35623099">
  <ele>268.085</ele>
 </trkpt>
 <trkpt lat="51.48212998" lon="8.35491504">
  <ele>265.907</ele>
 </trkpt>
 <trkpt lat="51.48216703" lon="8.35372103">
  <ele>265.317</ele>
 </trkpt>
 <trkpt lat="51.48221900" lon="8.35251203">
  <ele>265.545</ele>
 </trkpt>
 <trkpt lat="51.48225001" lon="8.35221497">
  <ele>265.741</ele>
 </trkpt>
 <trkpt lat="51.48240700" lon="8.35113899">
  <ele>264.926</ele>
 </trkpt>
 <trkpt lat="51.48257397" lon="8.34992303">
  <ele>264.202</ele>
 </trkpt>
 <trkpt lat="51.48271898" lon="8.34909900">
  <ele>266.091</ele>
 </trkpt>
 <trkpt lat="51.48282300" lon="8.34868401">
  <ele>267.477</ele>
 </trkpt>
 <trkpt lat="51.48316900" lon="8.34799896">
  <ele>265.208</ele>
 </trkpt>
 <trkpt lat="51.48328098" lon="8.34777600">
  <ele>265.437</ele>
 </trkpt>
 <trkpt lat="51.48342004" lon="8.34756796">
  <ele>264.009</ele>
 </trkpt>
 <trkpt lat="51.48383302" lon="8.34755396">
  <ele>264.517</ele>
 </trkpt>
 <trkpt lat="51.48431104" lon="8.34768397">
  <ele>263.013</ele>
 </trkpt>
 <trkpt lat="51.48445898" lon="8.34756503">
  <ele>263.230</ele>
 </trkpt>
 <trkpt lat="51.48470599" lon="8.34623398">
  <ele>262.661</ele>
 </trkpt>
 <trkpt lat="51.48500397" lon="8.34462600">
  <ele>262.520</ele>
 </trkpt>
 <trkpt lat="51.48518301" lon="8.34372503">
  <ele>262.408</ele>
 </trkpt>
 <trkpt lat="51.48540999" lon="8.34257101">
  <ele>262.271</ele>
 </trkpt>
 <trkpt lat="51.48561501" lon="8.34142403">
  <ele>261.942</ele>
 </trkpt>
 <trkpt lat="51.48581400" lon="8.34032499">
  <ele>262.166</ele>
 </trkpt>
 <trkpt lat="51.48599303" lon="8.33941396">
  <ele>261.424</ele>
 </trkpt>
 <trkpt lat="51.48601399" lon="8.33929201">
  <ele>261.628</ele>
 </trkpt>
 <trkpt lat="51.48601499" lon="8.33919796">
  <ele>261.398</ele>
 </trkpt>
 <trkpt lat="51.48594199" lon="8.33911297">
  <ele>261.396</ele>
 </trkpt>
 <trkpt lat="51.48553002" lon="8.33875003">
  <ele>262.461</ele>
 </trkpt>
 <trkpt lat="51.48549004" lon="8.33813396">
  <ele>263.502</ele>
 </trkpt>
 <trkpt lat="51.48546598" lon="8.33762200">
  <ele>264.026</ele>
 </trkpt>
 <trkpt lat="51.48564996" lon="8.33755201">
  <ele>263.094</ele>
 </trkpt>
 <trkpt lat="51.48569103" lon="8.33716501">
  <ele>263.414</ele>
 </trkpt>
 <trkpt lat="51.48576597" lon="8.33654501">
  <ele>263.755</ele>
 </trkpt>
 <trkpt lat="51.48560897" lon="8.33636899">
  <ele>264.157</ele>
 </trkpt>
 <trkpt lat="51.48535802" lon="8.33587797">
  <ele>263.461</ele>
 </trkpt>
 <trkpt lat="51.48508896" lon="8.33525897">
  <ele>263.585</ele>
 </trkpt>
 <trkpt lat="51.48476399" lon="8.33482303">
  <ele>263.718</ele>
 </trkpt>
 <trkpt lat="51.48469904" lon="8.33465497">
  <ele>263.689</ele>
 </trkpt>
 <trkpt lat="51.48461103" lon="8.33453603">
  <ele>264.881</ele>
 </trkpt>
 <trkpt lat="51.48459996" lon="8.33435196">
  <ele>264.365</ele>
 </trkpt>
    </trkseg>
  </trk>

</gpx>
