<?xml version="1.0" encoding="UTF-8" standalone="no"?>
<gpx xmlns="http://www.topografix.com/GPX/1/1" creator="www.bahntrassenradeln.de" version="1.1">

<trk>
  <name>NW 3.14b*</name>
  <trkseg>
 <trkpt lat="51.57976000" lon="7.16322000"/>
 <trkpt lat="51.57985000" lon="7.16301000"/>
 <trkpt lat="51.58010000" lon="7.16255000"/>
 <trkpt lat="51.58027000" lon="7.16219000"/>
 <trkpt lat="51.58035000" lon="7.16206000"/>
 <trkpt lat="51.58041000" lon="7.16194000"/>
 <trkpt lat="51.58045000" lon="7.16178000"/>
 <trkpt lat="51.58047000" lon="7.16158000"/>
 <trkpt lat="51.58048000" lon="7.16135000"/>
 <trkpt lat="51.58048000" lon="7.16104000"/>
 <trkpt lat="51.58050000" lon="7.16052000"/>
 <trkpt lat="51.58054000" lon="7.15986000"/>
 <trkpt lat="51.58058000" lon="7.15933000"/>
 <trkpt lat="51.58060000" lon="7.15875000"/>
 <trkpt lat="51.58063000" lon="7.15857000"/>
 <trkpt lat="51.58070000" lon="7.15837000"/>
 <trkpt lat="51.58081000" lon="7.15819000"/>
 <trkpt lat="51.58095000" lon="7.15799000"/>
 <trkpt lat="51.58108000" lon="7.15777000"/>
 <trkpt lat="51.58117000" lon="7.15757000"/>
 <trkpt lat="51.58124000" lon="7.15730000"/>
 <trkpt lat="51.58127000" lon="7.15697000"/>
 <trkpt lat="51.58131000" lon="7.15663000"/>
  </trkseg>
</trk>

</gpx>
