<?xml version="1.0" encoding="UTF-8" standalone="no"?>
<gpx xmlns="http://www.topografix.com/GPX/1/1" creator="MapSource 6.16.3" version="1.1">

  <trk>
    <name>NW 4.27</name>
    <trkseg>
 <trkpt lat="51.03279600" lon="8.34988500">
  <ele>410.642</ele>
 </trkpt>
 <trkpt lat="51.03265200" lon="8.35002200">
  <ele>410.686</ele>
 </trkpt>
 <trkpt lat="51.03211900" lon="8.35051600">
  <ele>409.926</ele>
 </trkpt>
 <trkpt lat="51.03204200" lon="8.35059300">
  <ele>409.993</ele>
 </trkpt>
 <trkpt lat="51.03197100" lon="8.35095100">
  <ele>409.384</ele>
 </trkpt>
 <trkpt lat="51.03232300" lon="8.35218700">
  <ele>409.170</ele>
 </trkpt>
 <trkpt lat="51.03258400" lon="8.35317800">
  <ele>409.151</ele>
 </trkpt>
 <trkpt lat="51.03302300" lon="8.35475200">
  <ele>409.184</ele>
 </trkpt>
 <trkpt lat="51.03326900" lon="8.35589600">
  <ele>408.547</ele>
 </trkpt>
 <trkpt lat="51.03336000" lon="8.35669100">
  <ele>407.901</ele>
 </trkpt>
 <trkpt lat="51.03348000" lon="8.35780600">
  <ele>407.905</ele>
 </trkpt>
 <trkpt lat="51.03365400" lon="8.35933800">
  <ele>407.343</ele>
 </trkpt>
 <trkpt lat="51.03364300" lon="8.36016000">
  <ele>408.011</ele>
 </trkpt>
 <trkpt lat="51.03362400" lon="8.36041300">
  <ele>407.836</ele>
 </trkpt>
 <trkpt lat="51.03348200" lon="8.36091600">
  <ele>407.642</ele>
 </trkpt>
 <trkpt lat="51.03346000" lon="8.36136000">
  <ele>407.313</ele>
 </trkpt>
 <trkpt lat="51.03348900" lon="8.36161600">
  <ele>406.658</ele>
 </trkpt>
 <trkpt lat="51.03359200" lon="8.36244500">
  <ele>406.095</ele>
 </trkpt>
 <trkpt lat="51.03356200" lon="8.36364100">
  <ele>406.366</ele>
 </trkpt>
 <trkpt lat="51.03355000" lon="8.36419000">
  <ele>406.531</ele>
 </trkpt>
 <trkpt lat="51.03345800" lon="8.36445500">
  <ele>405.543</ele>
 </trkpt>
 <trkpt lat="51.03314600" lon="8.36505100">
  <ele>405.580</ele>
 </trkpt>
 <trkpt lat="51.03277400" lon="8.36584600">
  <ele>405.622</ele>
 </trkpt>
 <trkpt lat="51.03249900" lon="8.36662300">
  <ele>405.673</ele>
 </trkpt>
 <trkpt lat="51.03241000" lon="8.36693000">
  <ele>406.071</ele>
 </trkpt>
 <trkpt lat="51.03236900" lon="8.36713400">
  <ele>405.423</ele>
 </trkpt>
 <trkpt lat="51.03222600" lon="8.36772900">
  <ele>405.486</ele>
 </trkpt>
 <trkpt lat="51.03193300" lon="8.36898100">
  <ele>404.507</ele>
 </trkpt>
 <trkpt lat="51.03167600" lon="8.37011300">
  <ele>404.811</ele>
 </trkpt>
 <trkpt lat="51.03130700" lon="8.37156600">
  <ele>402.934</ele>
 </trkpt>
 <trkpt lat="51.03122000" lon="8.37231200">
  <ele>402.870</ele>
 </trkpt>
 <trkpt lat="51.03115100" lon="8.37296500">
  <ele>402.722</ele>
 </trkpt>
 <trkpt lat="51.03125500" lon="8.37336000">
  <ele>402.720</ele>
 </trkpt>
 <trkpt lat="51.03192500" lon="8.37361300">
  <ele>402.911</ele>
 </trkpt>
 <trkpt lat="51.03249300" lon="8.37382300">
  <ele>402.220</ele>
 </trkpt>
 <trkpt lat="51.03259500" lon="8.37418500">
  <ele>402.226</ele>
 </trkpt>
 <trkpt lat="51.03244600" lon="8.37547700">
  <ele>402.713</ele>
 </trkpt>
 <trkpt lat="51.03237100" lon="8.37584400">
  <ele>405.324</ele>
 </trkpt>
 <trkpt lat="51.03225000" lon="8.37624100">
  <ele>406.699</ele>
 </trkpt>
 <trkpt lat="51.03216300" lon="8.37642300">
  <ele>406.677</ele>
 </trkpt>
 <trkpt lat="51.03196300" lon="8.37680200">
  <ele>406.296</ele>
 </trkpt>
 <trkpt lat="51.03173400" lon="8.37732300">
  <ele>406.390</ele>
 </trkpt>
 <trkpt lat="51.03149300" lon="8.37783300">
  <ele>406.523</ele>
 </trkpt>
 <trkpt lat="51.03111000" lon="8.37815300">
  <ele>406.838</ele>
 </trkpt>
 <trkpt lat="51.03100800" lon="8.37815600">
  <ele>406.729</ele>
 </trkpt>
 <trkpt lat="51.03085400" lon="8.37833100">
  <ele>405.724</ele>
 </trkpt>
 <trkpt lat="51.03079300" lon="8.37861800">
  <ele>406.085</ele>
 </trkpt>
 <trkpt lat="51.03042700" lon="8.37959700">
  <ele>404.723</ele>
 </trkpt>
 <trkpt lat="51.03022200" lon="8.38062000">
  <ele>403.996</ele>
 </trkpt>
 <trkpt lat="51.03022800" lon="8.38170000">
  <ele>403.320</ele>
 </trkpt>
 <trkpt lat="51.03042500" lon="8.38271900">
  <ele>402.331</ele>
 </trkpt>
 <trkpt lat="51.03043300" lon="8.38291000">
  <ele>402.359</ele>
 </trkpt>
 <trkpt lat="51.03040200" lon="8.38304600">
  <ele>401.362</ele>
 </trkpt>
 <trkpt lat="51.03027000" lon="8.38311200">
  <ele>399.305</ele>
 </trkpt>
 <trkpt lat="51.03003600" lon="8.38320500">
  <ele>400.898</ele>
 </trkpt>
 <trkpt lat="51.02969600" lon="8.38340900">
  <ele>399.849</ele>
 </trkpt>
 <trkpt lat="51.02968800" lon="8.38399500">
  <ele>398.727</ele>
 </trkpt>
 <trkpt lat="51.02957700" lon="8.38462700">
  <ele>398.614</ele>
 </trkpt>
 <trkpt lat="51.02943000" lon="8.38513400">
  <ele>399.901</ele>
 </trkpt>
 <trkpt lat="51.02941400" lon="8.38521200">
  <ele>399.646</ele>
 </trkpt>
 <trkpt lat="51.02942400" lon="8.38539100">
  <ele>400.422</ele>
 </trkpt>
 <trkpt lat="51.02942200" lon="8.38548600">
  <ele>399.932</ele>
 </trkpt>
 <trkpt lat="51.02944200" lon="8.38592400">
  <ele>398.967</ele>
 </trkpt>
 <trkpt lat="51.02941700" lon="8.38644800">
  <ele>398.766</ele>
 </trkpt>
 <trkpt lat="51.02938500" lon="8.38662400">
  <ele>398.994</ele>
 </trkpt>
 <trkpt lat="51.02905000" lon="8.38733300">
  <ele>398.192</ele>
 </trkpt>
 <trkpt lat="51.02901100" lon="8.38737300">
  <ele>398.612</ele>
 </trkpt>
 <trkpt lat="51.02865900" lon="8.38744900">
  <ele>397.981</ele>
 </trkpt>
 <trkpt lat="51.02795300" lon="8.38742100">
  <ele>397.621</ele>
 </trkpt>
 <trkpt lat="51.02787500" lon="8.38740400">
  <ele>397.738</ele>
 </trkpt>
 <trkpt lat="51.02779300" lon="8.38717100">
  <ele>398.289</ele>
 </trkpt>
 <trkpt lat="51.02792900" lon="8.38657500">
  <ele>399.657</ele>
 </trkpt>
 <trkpt lat="51.02779500" lon="8.38626400">
  <ele>399.987</ele>
 </trkpt>
 <trkpt lat="51.02742900" lon="8.38591400">
  <ele>401.862</ele>
 </trkpt>
 <trkpt lat="51.02707700" lon="8.38586400">
  <ele>401.404</ele>
 </trkpt>
 <trkpt lat="51.02669000" lon="8.38595300">
  <ele>399.089</ele>
 </trkpt>
 <trkpt lat="51.02587900" lon="8.38616300">
  <ele>397.238</ele>
 </trkpt>
 <trkpt lat="51.02559100" lon="8.38612400">
  <ele>398.149</ele>
 </trkpt>
 <trkpt lat="51.02518000" lon="8.38607500">
  <ele>397.290</ele>
 </trkpt>
 <trkpt lat="51.02511200" lon="8.38611900">
  <ele>397.777</ele>
 </trkpt>
 <trkpt lat="51.02510100" lon="8.38618200">
  <ele>399.069</ele>
 </trkpt>
 <trkpt lat="51.02510000" lon="8.38641400">
  <ele>398.751</ele>
 </trkpt>
 <trkpt lat="51.02506400" lon="8.38675000">
  <ele>398.271</ele>
 </trkpt>
 <trkpt lat="51.02507000" lon="8.38694200">
  <ele>397.802</ele>
 </trkpt>
 <trkpt lat="51.02486000" lon="8.38690700">
  <ele>397.534</ele>
 </trkpt>
 <trkpt lat="51.02415900" lon="8.38720900">
  <ele>395.737</ele>
 </trkpt>
 <trkpt lat="51.02361300" lon="8.38769300">
  <ele>396.127</ele>
 </trkpt>
 <trkpt lat="51.02313800" lon="8.38835600">
  <ele>395.395</ele>
 </trkpt>
 <trkpt lat="51.02281100" lon="8.38908300">
  <ele>395.007</ele>
 </trkpt>
 <trkpt lat="51.02260200" lon="8.38986000">
  <ele>394.878</ele>
 </trkpt>
 <trkpt lat="51.02245400" lon="8.39070500">
  <ele>393.756</ele>
 </trkpt>
 <trkpt lat="51.02227000" lon="8.39186000">
  <ele>392.267</ele>
 </trkpt>
 <trkpt lat="51.02227300" lon="8.39237100">
  <ele>391.971</ele>
 </trkpt>
 <trkpt lat="51.02236000" lon="8.39265800">
  <ele>392.060</ele>
 </trkpt>
 <trkpt lat="51.02250600" lon="8.39314600">
  <ele>392.765</ele>
 </trkpt>
 <trkpt lat="51.02252900" lon="8.39420400">
  <ele>393.572</ele>
 </trkpt>
 <trkpt lat="51.02260700" lon="8.39528000">
  <ele>394.237</ele>
 </trkpt>
 <trkpt lat="51.02270000" lon="8.39597900">
  <ele>395.335</ele>
 </trkpt>
 <trkpt lat="51.02278400" lon="8.39630700">
  <ele>396.207</ele>
 </trkpt>
 <trkpt lat="51.02289100" lon="8.39656500">
  <ele>397.285</ele>
 </trkpt>
 <trkpt lat="51.02313500" lon="8.39690800">
  <ele>397.752</ele>
 </trkpt>
 <trkpt lat="51.02345000" lon="8.39740300">
  <ele>397.052</ele>
 </trkpt>
 <trkpt lat="51.02350600" lon="8.39749700">
  <ele>396.869</ele>
 </trkpt>
 <trkpt lat="51.02389900" lon="8.39801600">
  <ele>393.588</ele>
 </trkpt>
 <trkpt lat="51.02416200" lon="8.39827700">
  <ele>392.545</ele>
 </trkpt>
 <trkpt lat="51.02457300" lon="8.39846500">
  <ele>393.113</ele>
 </trkpt>
 <trkpt lat="51.02482900" lon="8.39856800">
  <ele>394.564</ele>
 </trkpt>
 <trkpt lat="51.02501000" lon="8.39857000">
  <ele>396.478</ele>
 </trkpt>
 <trkpt lat="51.02512900" lon="8.39862300">
  <ele>397.478</ele>
 </trkpt>
 <trkpt lat="51.02522500" lon="8.39868700">
  <ele>397.367</ele>
 </trkpt>
 <trkpt lat="51.02539500" lon="8.39877300">
  <ele>397.988</ele>
 </trkpt>
 <trkpt lat="51.02559500" lon="8.39888800">
  <ele>397.935</ele>
 </trkpt>
 <trkpt lat="51.02588400" lon="8.39900100">
  <ele>398.244</ele>
 </trkpt>
 <trkpt lat="51.02626600" lon="8.39929200">
  <ele>397.839</ele>
 </trkpt>
 <trkpt lat="51.02636500" lon="8.39937200">
  <ele>397.298</ele>
 </trkpt>
 <trkpt lat="51.02651300" lon="8.39955300">
  <ele>396.814</ele>
 </trkpt>
 <trkpt lat="51.02676200" lon="8.39991100">
  <ele>396.557</ele>
 </trkpt>
 <trkpt lat="51.02698600" lon="8.40028000">
  <ele>396.751</ele>
 </trkpt>
 <trkpt lat="51.02714500" lon="8.40057100">
  <ele>397.060</ele>
 </trkpt>
 <trkpt lat="51.02728300" lon="8.40086100">
  <ele>395.969</ele>
 </trkpt>
 <trkpt lat="51.02739100" lon="8.40134300">
  <ele>396.109</ele>
 </trkpt>
 <trkpt lat="51.02745600" lon="8.40159900">
  <ele>396.278</ele>
 </trkpt>
 <trkpt lat="51.02756900" lon="8.40221000">
  <ele>395.603</ele>
 </trkpt>
 <trkpt lat="51.02761500" lon="8.40288900">
  <ele>396.003</ele>
 </trkpt>
 <trkpt lat="51.02758400" lon="8.40362900">
  <ele>395.341</ele>
 </trkpt>
 <trkpt lat="51.02749500" lon="8.40415700">
  <ele>395.863</ele>
 </trkpt>
 <trkpt lat="51.02726800" lon="8.40464500">
  <ele>395.710</ele>
 </trkpt>
 <trkpt lat="51.02716800" lon="8.40481800">
  <ele>396.042</ele>
 </trkpt>
 <trkpt lat="51.02693800" lon="8.40534900">
  <ele>396.175</ele>
 </trkpt>
 <trkpt lat="51.02679100" lon="8.40570200">
  <ele>396.014</ele>
 </trkpt>
 <trkpt lat="51.02652300" lon="8.40626900">
  <ele>395.989</ele>
 </trkpt>
 <trkpt lat="51.02622500" lon="8.40703600">
  <ele>396.766</ele>
 </trkpt>
 <trkpt lat="51.02612000" lon="8.40734000">
  <ele>396.199</ele>
 </trkpt>
 <trkpt lat="51.02597800" lon="8.40778400">
  <ele>396.631</ele>
 </trkpt>
 <trkpt lat="51.02594200" lon="8.40790600">
  <ele>396.121</ele>
 </trkpt>
 <trkpt lat="51.02587900" lon="8.40813900">
  <ele>395.859</ele>
 </trkpt>
 <trkpt lat="51.02566200" lon="8.40888600">
  <ele>395.825</ele>
 </trkpt>
 <trkpt lat="51.02555600" lon="8.40924700">
  <ele>396.454</ele>
 </trkpt>
 <trkpt lat="51.02549200" lon="8.40948200">
  <ele>396.149</ele>
 </trkpt>
 <trkpt lat="51.02529100" lon="8.41030900">
  <ele>395.569</ele>
 </trkpt>
 <trkpt lat="51.02521700" lon="8.41076100">
  <ele>396.020</ele>
 </trkpt>
 <trkpt lat="51.02519100" lon="8.41103700">
  <ele>395.956</ele>
 </trkpt>
 <trkpt lat="51.02519500" lon="8.41156200">
  <ele>395.959</ele>
 </trkpt>
 <trkpt lat="51.02521400" lon="8.41211500">
  <ele>395.385</ele>
 </trkpt>
 <trkpt lat="51.02521800" lon="8.41230800">
  <ele>396.088</ele>
 </trkpt>
 <trkpt lat="51.02528100" lon="8.41291500">
  <ele>396.422</ele>
 </trkpt>
 <trkpt lat="51.02531100" lon="8.41312400">
  <ele>396.098</ele>
 </trkpt>
 <trkpt lat="51.02538300" lon="8.41360800">
  <ele>395.135</ele>
 </trkpt>
 <trkpt lat="51.02541000" lon="8.41385500">
  <ele>394.319</ele>
 </trkpt>
 <trkpt lat="51.02543900" lon="8.41493100">
  <ele>391.392</ele>
 </trkpt>
 <trkpt lat="51.02544000" lon="8.41511500">
  <ele>390.987</ele>
 </trkpt>
 <trkpt lat="51.02546400" lon="8.41531600">
  <ele>390.235</ele>
 </trkpt>
 <trkpt lat="51.02551800" lon="8.41555700">
  <ele>391.460</ele>
 </trkpt>
 <trkpt lat="51.02557100" lon="8.41575800">
  <ele>393.588</ele>
 </trkpt>
 <trkpt lat="51.02561700" lon="8.41603600">
  <ele>395.186</ele>
 </trkpt>
 <trkpt lat="51.02565100" lon="8.41615200">
  <ele>395.698</ele>
 </trkpt>
 <trkpt lat="51.02566600" lon="8.41653900">
  <ele>396.156</ele>
 </trkpt>
 <trkpt lat="51.02562900" lon="8.41697500">
  <ele>395.428</ele>
 </trkpt>
 <trkpt lat="51.02558100" lon="8.41721400">
  <ele>395.130</ele>
 </trkpt>
 <trkpt lat="51.02550500" lon="8.41743500">
  <ele>396.177</ele>
 </trkpt>
 <trkpt lat="51.02544300" lon="8.41769300">
  <ele>395.769</ele>
 </trkpt>
 <trkpt lat="51.02529900" lon="8.41820700">
  <ele>396.006</ele>
 </trkpt>
 <trkpt lat="51.02508200" lon="8.41888600">
  <ele>395.782</ele>
 </trkpt>
 <trkpt lat="51.02498900" lon="8.41910000">
  <ele>395.412</ele>
 </trkpt>
 <trkpt lat="51.02491000" lon="8.41929900">
  <ele>394.781</ele>
 </trkpt>
 <trkpt lat="51.02456700" lon="8.41993200">
  <ele>394.875</ele>
 </trkpt>
 <trkpt lat="51.02446300" lon="8.42006200">
  <ele>395.310</ele>
 </trkpt>
 <trkpt lat="51.02399900" lon="8.42059500">
  <ele>394.302</ele>
 </trkpt>
 <trkpt lat="51.02353000" lon="8.42090800">
  <ele>394.171</ele>
 </trkpt>
 <trkpt lat="51.02301000" lon="8.42099400">
  <ele>393.979</ele>
 </trkpt>
 <trkpt lat="51.02262700" lon="8.42103900">
  <ele>394.704</ele>
 </trkpt>
 <trkpt lat="51.02236000" lon="8.42111100">
  <ele>395.304</ele>
 </trkpt>
 <trkpt lat="51.02171500" lon="8.42132800">
  <ele>394.333</ele>
 </trkpt>
 <trkpt lat="51.02171800" lon="8.42138900">
  <ele>393.899</ele>
 </trkpt>
 <trkpt lat="51.02161000" lon="8.42138400">
  <ele>394.891</ele>
 </trkpt>
 <trkpt lat="51.02145500" lon="8.42151900">
  <ele>393.850</ele>
 </trkpt>
 <trkpt lat="51.02079400" lon="8.42193600">
  <ele>393.119</ele>
 </trkpt>
 <trkpt lat="51.02041200" lon="8.42218600">
  <ele>392.256</ele>
 </trkpt>
 <trkpt lat="51.02031200" lon="8.42224200">
  <ele>392.692</ele>
 </trkpt>
 <trkpt lat="51.02013600" lon="8.42236900">
  <ele>392.501</ele>
 </trkpt>
 <trkpt lat="51.01976800" lon="8.42267200">
  <ele>391.501</ele>
 </trkpt>
 <trkpt lat="51.01936100" lon="8.42298900">
  <ele>390.953</ele>
 </trkpt>
 <trkpt lat="51.01868500" lon="8.42349200">
  <ele>389.943</ele>
 </trkpt>
 <trkpt lat="51.01844000" lon="8.42365600">
  <ele>390.069</ele>
 </trkpt>
 <trkpt lat="51.01828200" lon="8.42377800">
  <ele>389.209</ele>
 </trkpt>
 <trkpt lat="51.01794500" lon="8.42404600">
  <ele>389.075</ele>
 </trkpt>
 <trkpt lat="51.01760200" lon="8.42435200">
  <ele>388.616</ele>
 </trkpt>
 <trkpt lat="51.01715500" lon="8.42479000">
  <ele>388.959</ele>
 </trkpt>
 <trkpt lat="51.01672700" lon="8.42518000">
  <ele>389.619</ele>
 </trkpt>
 <trkpt lat="51.01663900" lon="8.42524800">
  <ele>389.228</ele>
 </trkpt>
 <trkpt lat="51.01639000" lon="8.42550100">
  <ele>389.102</ele>
 </trkpt>
 <trkpt lat="51.01586900" lon="8.42599900">
  <ele>388.710</ele>
 </trkpt>
 <trkpt lat="51.01541500" lon="8.42642400">
  <ele>389.346</ele>
 </trkpt>
 <trkpt lat="51.01502200" lon="8.42681100">
  <ele>389.123</ele>
 </trkpt>
 <trkpt lat="51.01490300" lon="8.42690700">
  <ele>388.747</ele>
 </trkpt>
 <trkpt lat="51.01447600" lon="8.42731900">
  <ele>389.873</ele>
 </trkpt>
 <trkpt lat="51.01385000" lon="8.42788000">
  <ele>390.123</ele>
 </trkpt>
 <trkpt lat="51.01380500" lon="8.42798200">
  <ele>389.628</ele>
 </trkpt>
 <trkpt lat="51.01381300" lon="8.42835700">
  <ele>389.132</ele>
 </trkpt>
 <trkpt lat="51.01379900" lon="8.42849400">
  <ele>388.974</ele>
 </trkpt>
 <trkpt lat="51.01352900" lon="8.42931700">
  <ele>389.009</ele>
 </trkpt>
 <trkpt lat="51.01321900" lon="8.43007700">
  <ele>390.761</ele>
 </trkpt>
 <trkpt lat="51.01301200" lon="8.43096400">
  <ele>392.242</ele>
 </trkpt>
 <trkpt lat="51.01294300" lon="8.43159800">
  <ele>393.870</ele>
 </trkpt>
 <trkpt lat="51.01287700" lon="8.43219100">
  <ele>394.224</ele>
 </trkpt>
 <trkpt lat="51.01275200" lon="8.43324500">
  <ele>394.517</ele>
 </trkpt>
 <trkpt lat="51.01268600" lon="8.43381700">
  <ele>395.440</ele>
 </trkpt>
 <trkpt lat="51.01269100" lon="8.43402400">
  <ele>395.184</ele>
 </trkpt>
 <trkpt lat="51.01272100" lon="8.43428500">
  <ele>397.809</ele>
 </trkpt>
 <trkpt lat="51.01258800" lon="8.43434300">
  <ele>395.885</ele>
 </trkpt>
 <trkpt lat="51.01232900" lon="8.43470600">
  <ele>394.608</ele>
 </trkpt>
 <trkpt lat="51.01197500" lon="8.43498900">
  <ele>395.655</ele>
 </trkpt>
 <trkpt lat="51.01173200" lon="8.43520700">
  <ele>397.248</ele>
 </trkpt>
 <trkpt lat="51.01137400" lon="8.43550900">
  <ele>397.419</ele>
 </trkpt>
 <trkpt lat="51.01104200" lon="8.43591200">
  <ele>396.997</ele>
 </trkpt>
 <trkpt lat="51.01064000" lon="8.43637500">
  <ele>397.323</ele>
 </trkpt>
 <trkpt lat="51.01029800" lon="8.43658400">
  <ele>398.532</ele>
 </trkpt>
 <trkpt lat="51.01003600" lon="8.43668300">
  <ele>398.829</ele>
 </trkpt>
 <trkpt lat="51.00980900" lon="8.43680800">
  <ele>398.639</ele>
 </trkpt>
 <trkpt lat="51.00950100" lon="8.43695100">
  <ele>398.692</ele>
 </trkpt>
 <trkpt lat="51.00917800" lon="8.43708100">
  <ele>397.503</ele>
 </trkpt>
 <trkpt lat="51.00877200" lon="8.43728200">
  <ele>397.483</ele>
 </trkpt>
 <trkpt lat="51.00834300" lon="8.43766400">
  <ele>398.206</ele>
 </trkpt>
 <trkpt lat="51.00808400" lon="8.43778000">
  <ele>400.610</ele>
 </trkpt>
 <trkpt lat="51.00786000" lon="8.43769100">
  <ele>400.284</ele>
 </trkpt>
 <trkpt lat="51.00773700" lon="8.43761400">
  <ele>399.219</ele>
 </trkpt>
 <trkpt lat="51.00755300" lon="8.43751600">
  <ele>395.855</ele>
 </trkpt>
 <trkpt lat="51.00739400" lon="8.43739800">
  <ele>393.786</ele>
 </trkpt>
 <trkpt lat="51.00728900" lon="8.43732600">
  <ele>392.530</ele>
 </trkpt>
 <trkpt lat="51.00700600" lon="8.43720300">
  <ele>391.010</ele>
 </trkpt>
 <trkpt lat="51.00692800" lon="8.43723100">
  <ele>389.182</ele>
 </trkpt>
 <trkpt lat="51.00675800" lon="8.43725200">
  <ele>387.754</ele>
 </trkpt>
 <trkpt lat="51.00659000" lon="8.43730800">
  <ele>385.667</ele>
 </trkpt>
 <trkpt lat="51.00639500" lon="8.43739900">
  <ele>384.135</ele>
 </trkpt>
 <trkpt lat="51.00614100" lon="8.43764500">
  <ele>382.489</ele>
 </trkpt>
 <trkpt lat="51.00592100" lon="8.43776300">
  <ele>381.267</ele>
 </trkpt>
 <trkpt lat="51.00555700" lon="8.43812400">
  <ele>380.573</ele>
 </trkpt>
 <trkpt lat="51.00542400" lon="8.43824800">
  <ele>381.802</ele>
 </trkpt>
 <trkpt lat="51.00529700" lon="8.43834900">
  <ele>381.403</ele>
 </trkpt>
 <trkpt lat="51.00516600" lon="8.43847800">
  <ele>381.095</ele>
 </trkpt>
 <trkpt lat="51.00519400" lon="8.43862500">
  <ele>381.104</ele>
 </trkpt>
 <trkpt lat="51.00547200" lon="8.43936700">
  <ele>379.469</ele>
 </trkpt>
 <trkpt lat="51.00573900" lon="8.44040100">
  <ele>378.911</ele>
 </trkpt>
 <trkpt lat="51.00577800" lon="8.44103400">
  <ele>380.317</ele>
 </trkpt>
 <trkpt lat="51.00579900" lon="8.44115700">
  <ele>380.843</ele>
 </trkpt>
 <trkpt lat="51.00613000" lon="8.44129000">
  <ele>379.819</ele>
 </trkpt>
 <trkpt lat="51.00675300" lon="8.44149000">
  <ele>379.531</ele>
 </trkpt>
 <trkpt lat="51.00679800" lon="8.44150400">
  <ele>379.977</ele>
 </trkpt>
 <trkpt lat="51.00740800" lon="8.44168200">
  <ele>379.726</ele>
 </trkpt>
 <trkpt lat="51.00803100" lon="8.44192000">
  <ele>379.173</ele>
 </trkpt>
 <trkpt lat="51.00848000" lon="8.44234200">
  <ele>378.552</ele>
 </trkpt>
 <trkpt lat="51.00856500" lon="8.44244000">
  <ele>378.698</ele>
 </trkpt>
 <trkpt lat="51.00870700" lon="8.44256700">
  <ele>378.412</ele>
 </trkpt>
 <trkpt lat="51.00935200" lon="8.44268700">
  <ele>378.434</ele>
 </trkpt>
 <trkpt lat="51.00991000" lon="8.44254700">
  <ele>377.535</ele>
 </trkpt>
 <trkpt lat="51.01081800" lon="8.44215700">
  <ele>377.249</ele>
 </trkpt>
 <trkpt lat="51.01129900" lon="8.44174300">
  <ele>377.214</ele>
 </trkpt>
 <trkpt lat="51.01175200" lon="8.44134100">
  <ele>377.384</ele>
 </trkpt>
 <trkpt lat="51.01247800" lon="8.44090600">
  <ele>377.674</ele>
 </trkpt>
 <trkpt lat="51.01293100" lon="8.44059400">
  <ele>377.359</ele>
 </trkpt>
 <trkpt lat="51.01302400" lon="8.44054500">
  <ele>376.894</ele>
 </trkpt>
 <trkpt lat="51.01344800" lon="8.44038000">
  <ele>377.330</ele>
 </trkpt>
 <trkpt lat="51.01350100" lon="8.44053300">
  <ele>378.131</ele>
 </trkpt>
 <trkpt lat="51.01353400" lon="8.44092300">
  <ele>377.581</ele>
 </trkpt>
 <trkpt lat="51.01358100" lon="8.44141700">
  <ele>376.540</ele>
 </trkpt>
 <trkpt lat="51.01356700" lon="8.44159400">
  <ele>377.981</ele>
 </trkpt>
 <trkpt lat="51.01355900" lon="8.44168700">
  <ele>378.189</ele>
 </trkpt>
 <trkpt lat="51.01361200" lon="8.44173800">
  <ele>377.748</ele>
 </trkpt>
 <trkpt lat="51.01371800" lon="8.44168100">
  <ele>377.553</ele>
 </trkpt>
 <trkpt lat="51.01381100" lon="8.44154300">
  <ele>379.397</ele>
 </trkpt>
 <trkpt lat="51.01383700" lon="8.44138600">
  <ele>379.313</ele>
 </trkpt>
 <trkpt lat="51.01414300" lon="8.44106000">
  <ele>379.760</ele>
 </trkpt>
 <trkpt lat="51.01452900" lon="8.44098700">
  <ele>379.718</ele>
 </trkpt>
 <trkpt lat="51.01466100" lon="8.44094000">
  <ele>379.633</ele>
 </trkpt>
 <trkpt lat="51.01509700" lon="8.44063600">
  <ele>379.768</ele>
 </trkpt>
 <trkpt lat="51.01535700" lon="8.44054200">
  <ele>379.364</ele>
 </trkpt>
 <trkpt lat="51.01551000" lon="8.44051800">
  <ele>379.151</ele>
 </trkpt>
 <trkpt lat="51.01589600" lon="8.44040900">
  <ele>379.825</ele>
 </trkpt>
 <trkpt lat="51.01636300" lon="8.44045900">
  <ele>380.339</ele>
 </trkpt>
 <trkpt lat="51.01662900" lon="8.44057800">
  <ele>382.412</ele>
 </trkpt>
 <trkpt lat="51.01692800" lon="8.44062300">
  <ele>381.019</ele>
 </trkpt>
 <trkpt lat="51.01704500" lon="8.44056700">
  <ele>379.764</ele>
 </trkpt>
 <trkpt lat="51.01727100" lon="8.44060500">
  <ele>379.019</ele>
 </trkpt>
 <trkpt lat="51.01733400" lon="8.44100200">
  <ele>378.174</ele>
 </trkpt>
 <trkpt lat="51.01711300" lon="8.44174800">
  <ele>378.794</ele>
 </trkpt>
 <trkpt lat="51.01692300" lon="8.44204100">
  <ele>378.918</ele>
 </trkpt>
 <trkpt lat="51.01681100" lon="8.44224800">
  <ele>378.382</ele>
 </trkpt>
 <trkpt lat="51.01660800" lon="8.44262500">
  <ele>379.086</ele>
 </trkpt>
 <trkpt lat="51.01671900" lon="8.44286000">
  <ele>380.299</ele>
 </trkpt>
 <trkpt lat="51.01695100" lon="8.44324500">
  <ele>382.959</ele>
 </trkpt>
 <trkpt lat="51.01699600" lon="8.44331600">
  <ele>383.278</ele>
 </trkpt>
 <trkpt lat="51.01706800" lon="8.44344200">
  <ele>385.293</ele>
 </trkpt>
 <trkpt lat="51.01712500" lon="8.44345500">
  <ele>386.301</ele>
 </trkpt>
 <trkpt lat="51.01714200" lon="8.44373300">
  <ele>385.510</ele>
 </trkpt>
 <trkpt lat="51.01724700" lon="8.44435100">
  <ele>384.581</ele>
 </trkpt>
 <trkpt lat="51.01729800" lon="8.44483600">
  <ele>384.328</ele>
 </trkpt>
 <trkpt lat="51.01734700" lon="8.44515000">
  <ele>384.151</ele>
 </trkpt>
 <trkpt lat="51.01735400" lon="8.44530600">
  <ele>384.215</ele>
 </trkpt>
 <trkpt lat="51.01735500" lon="8.44568400">
  <ele>384.477</ele>
 </trkpt>
 <trkpt lat="51.01735300" lon="8.44598100">
  <ele>384.416</ele>
 </trkpt>
 <trkpt lat="51.01730800" lon="8.44642600">
  <ele>384.842</ele>
 </trkpt>
 <trkpt lat="51.01708400" lon="8.44718900">
  <ele>384.524</ele>
 </trkpt>
 <trkpt lat="51.01707800" lon="8.44731700">
  <ele>384.182</ele>
 </trkpt>
 <trkpt lat="51.01696600" lon="8.44776200">
  <ele>384.731</ele>
 </trkpt>
 <trkpt lat="51.01679200" lon="8.44822900">
  <ele>384.279</ele>
 </trkpt>
 <trkpt lat="51.01658500" lon="8.44869500">
  <ele>384.464</ele>
 </trkpt>
 <trkpt lat="51.01632300" lon="8.44930700">
  <ele>384.517</ele>
 </trkpt>
 <trkpt lat="51.01614100" lon="8.44973500">
  <ele>384.651</ele>
 </trkpt>
 <trkpt lat="51.01580100" lon="8.45050700">
  <ele>384.773</ele>
 </trkpt>
 <trkpt lat="51.01566700" lon="8.45083100">
  <ele>385.018</ele>
 </trkpt>
 <trkpt lat="51.01542200" lon="8.45133400">
  <ele>385.063</ele>
 </trkpt>
 <trkpt lat="51.01525800" lon="8.45173700">
  <ele>384.865</ele>
 </trkpt>
 <trkpt lat="51.01505200" lon="8.45225600">
  <ele>384.827</ele>
 </trkpt>
 <trkpt lat="51.01498700" lon="8.45248800">
  <ele>384.847</ele>
 </trkpt>
 <trkpt lat="51.01473600" lon="8.45306400">
  <ele>385.583</ele>
 </trkpt>
 <trkpt lat="51.01449400" lon="8.45359200">
  <ele>385.726</ele>
 </trkpt>
 <trkpt lat="51.01431000" lon="8.45410100">
  <ele>385.447</ele>
 </trkpt>
 <trkpt lat="51.01414100" lon="8.45466100">
  <ele>385.277</ele>
 </trkpt>
 <trkpt lat="51.01399700" lon="8.45537000">
  <ele>385.660</ele>
 </trkpt>
 <trkpt lat="51.01394500" lon="8.45592200">
  <ele>385.783</ele>
 </trkpt>
 <trkpt lat="51.01393600" lon="8.45661200">
  <ele>385.774</ele>
 </trkpt>
 <trkpt lat="51.01419600" lon="8.45843200">
  <ele>386.103</ele>
 </trkpt>
 <trkpt lat="51.01439400" lon="8.45886100">
  <ele>386.257</ele>
 </trkpt>
 <trkpt lat="51.01450900" lon="8.45907900">
  <ele>386.297</ele>
 </trkpt>
 <trkpt lat="51.01469000" lon="8.45952000">
  <ele>386.175</ele>
 </trkpt>
 <trkpt lat="51.01494200" lon="8.45989300">
  <ele>386.401</ele>
 </trkpt>
 <trkpt lat="51.01519500" lon="8.46012500">
  <ele>386.408</ele>
 </trkpt>
 <trkpt lat="51.01562900" lon="8.46060800">
  <ele>386.810</ele>
 </trkpt>
 <trkpt lat="51.01602100" lon="8.46097100">
  <ele>387.374</ele>
 </trkpt>
 <trkpt lat="51.01638500" lon="8.46116600">
  <ele>386.927</ele>
 </trkpt>
 <trkpt lat="51.01670300" lon="8.46131800">
  <ele>386.796</ele>
 </trkpt>
 <trkpt lat="51.01694200" lon="8.46141100">
  <ele>386.854</ele>
 </trkpt>
 <trkpt lat="51.01709700" lon="8.46139800">
  <ele>386.401</ele>
 </trkpt>
 <trkpt lat="51.01740400" lon="8.46147800">
  <ele>385.738</ele>
 </trkpt>
 <trkpt lat="51.01789200" lon="8.46161300">
  <ele>385.483</ele>
 </trkpt>
 <trkpt lat="51.01818500" lon="8.46175900">
  <ele>384.829</ele>
 </trkpt>
 <trkpt lat="51.01862500" lon="8.46198100">
  <ele>383.698</ele>
 </trkpt>
 <trkpt lat="51.01910000" lon="8.46233600">
  <ele>383.465</ele>
 </trkpt>
 <trkpt lat="51.01923200" lon="8.46247600">
  <ele>383.300</ele>
 </trkpt>
 <trkpt lat="51.01936300" lon="8.46260300">
  <ele>382.525</ele>
 </trkpt>
 <trkpt lat="51.01961700" lon="8.46297300">
  <ele>382.646</ele>
 </trkpt>
 <trkpt lat="51.01982700" lon="8.46330200">
  <ele>382.801</ele>
 </trkpt>
 <trkpt lat="51.02006500" lon="8.46378500">
  <ele>382.484</ele>
 </trkpt>
 <trkpt lat="51.02033900" lon="8.46459600">
  <ele>381.820</ele>
 </trkpt>
 <trkpt lat="51.02048000" lon="8.46525600">
  <ele>380.655</ele>
 </trkpt>
 <trkpt lat="51.02057400" lon="8.46585300">
  <ele>379.583</ele>
 </trkpt>
 <trkpt lat="51.02064100" lon="8.46630700">
  <ele>379.902</ele>
 </trkpt>
 <trkpt lat="51.02066700" lon="8.46652400">
  <ele>379.089</ele>
 </trkpt>
 <trkpt lat="51.02072100" lon="8.46717400">
  <ele>377.218</ele>
 </trkpt>
 <trkpt lat="51.02096700" lon="8.46885700">
  <ele>376.715</ele>
 </trkpt>
 <trkpt lat="51.02097800" lon="8.46905800">
  <ele>376.532</ele>
 </trkpt>
 <trkpt lat="51.02100800" lon="8.46924600">
  <ele>376.541</ele>
 </trkpt>
 <trkpt lat="51.02107500" lon="8.46949400">
  <ele>376.037</ele>
 </trkpt>
 <trkpt lat="51.02117600" lon="8.47005500">
  <ele>371.913</ele>
 </trkpt>
 <trkpt lat="51.02128000" lon="8.47053500">
  <ele>369.562</ele>
 </trkpt>
 <trkpt lat="51.02134400" lon="8.47073500">
  <ele>369.351</ele>
 </trkpt>
 <trkpt lat="51.02145900" lon="8.47094000">
  <ele>368.745</ele>
 </trkpt>
 <trkpt lat="51.02150700" lon="8.47113400">
  <ele>368.713</ele>
 </trkpt>
 <trkpt lat="51.02173100" lon="8.47160400">
  <ele>368.814</ele>
 </trkpt>
 <trkpt lat="51.02185200" lon="8.47184700">
  <ele>368.835</ele>
 </trkpt>
 <trkpt lat="51.02169500" lon="8.47190200">
  <ele>368.922</ele>
 </trkpt>
 <trkpt lat="51.02134500" lon="8.47236700">
  <ele>368.888</ele>
 </trkpt>
 <trkpt lat="51.02122800" lon="8.47264100">
  <ele>369.273</ele>
 </trkpt>
 <trkpt lat="51.02104100" lon="8.47371200">
  <ele>368.262</ele>
 </trkpt>
 <trkpt lat="51.02077100" lon="8.47412700">
  <ele>368.143</ele>
 </trkpt>
 <trkpt lat="51.02061000" lon="8.47417200">
  <ele>368.655</ele>
 </trkpt>
 <trkpt lat="51.02026400" lon="8.47417200">
  <ele>370.201</ele>
 </trkpt>
 <trkpt lat="51.01995700" lon="8.47418400">
  <ele>371.154</ele>
 </trkpt>
 <trkpt lat="51.01954300" lon="8.47422100">
  <ele>373.114</ele>
 </trkpt>
 <trkpt lat="51.01926400" lon="8.47425100">
  <ele>373.484</ele>
 </trkpt>
 <trkpt lat="51.01909500" lon="8.47431500">
  <ele>372.713</ele>
 </trkpt>
 <trkpt lat="51.01850900" lon="8.47454100">
  <ele>371.339</ele>
 </trkpt>
 <trkpt lat="51.01810500" lon="8.47455200">
  <ele>370.350</ele>
 </trkpt>
 <trkpt lat="51.01786400" lon="8.47458400">
  <ele>370.471</ele>
 </trkpt>
 <trkpt lat="51.01729700" lon="8.47467000">
  <ele>370.247</ele>
 </trkpt>
 <trkpt lat="51.01680100" lon="8.47450700">
  <ele>370.103</ele>
 </trkpt>
 <trkpt lat="51.01650300" lon="8.47453600">
  <ele>370.109</ele>
 </trkpt>
 <trkpt lat="51.01625100" lon="8.47478100">
  <ele>369.568</ele>
 </trkpt>
 <trkpt lat="51.01574200" lon="8.47531600">
  <ele>369.747</ele>
 </trkpt>
 <trkpt lat="51.01566900" lon="8.47538600">
  <ele>369.533</ele>
 </trkpt>
 <trkpt lat="51.01517400" lon="8.47596600">
  <ele>370.310</ele>
 </trkpt>
 <trkpt lat="51.01486100" lon="8.47636400">
  <ele>370.186</ele>
 </trkpt>
 <trkpt lat="51.01458100" lon="8.47663300">
  <ele>372.401</ele>
 </trkpt>
 <trkpt lat="51.01435900" lon="8.47681000">
  <ele>374.376</ele>
 </trkpt>
 <trkpt lat="51.01429700" lon="8.47708800">
  <ele>372.223</ele>
 </trkpt>
 <trkpt lat="51.01425000" lon="8.47718100">
  <ele>370.399</ele>
 </trkpt>
 <trkpt lat="51.01401200" lon="8.47735700">
  <ele>370.851</ele>
 </trkpt>
 <trkpt lat="51.01388800" lon="8.47743800">
  <ele>371.198</ele>
 </trkpt>
 <trkpt lat="51.01334000" lon="8.47787400">
  <ele>371.424</ele>
 </trkpt>
 <trkpt lat="51.01266000" lon="8.47842600">
  <ele>371.475</ele>
 </trkpt>
 <trkpt lat="51.01219200" lon="8.47879100">
  <ele>371.916</ele>
 </trkpt>
 <trkpt lat="51.01190200" lon="8.47904000">
  <ele>371.971</ele>
 </trkpt>
 <trkpt lat="51.01149400" lon="8.47935300">
  <ele>372.541</ele>
 </trkpt>
 <trkpt lat="51.01098900" lon="8.47978400">
  <ele>372.519</ele>
 </trkpt>
 <trkpt lat="51.01077700" lon="8.47995300">
  <ele>372.846</ele>
 </trkpt>
 <trkpt lat="51.01029900" lon="8.48034600">
  <ele>372.771</ele>
 </trkpt>
 <trkpt lat="51.01009200" lon="8.48057900">
  <ele>371.557</ele>
 </trkpt>
 <trkpt lat="51.00972900" lon="8.48105600">
  <ele>371.118</ele>
 </trkpt>
 <trkpt lat="51.00954800" lon="8.48127000">
  <ele>371.235</ele>
 </trkpt>
 <trkpt lat="51.00934200" lon="8.48154600">
  <ele>370.724</ele>
 </trkpt>
 <trkpt lat="51.00887600" lon="8.48221600">
  <ele>370.155</ele>
 </trkpt>
 <trkpt lat="51.00879400" lon="8.48229800">
  <ele>370.210</ele>
 </trkpt>
 <trkpt lat="51.00867400" lon="8.48242200">
  <ele>370.636</ele>
 </trkpt>
 <trkpt lat="51.00859800" lon="8.48249200">
  <ele>370.118</ele>
 </trkpt>
 <trkpt lat="51.00837500" lon="8.48267900">
  <ele>369.707</ele>
 </trkpt>
 <trkpt lat="51.00825800" lon="8.48274500">
  <ele>368.702</ele>
 </trkpt>
 <trkpt lat="51.00785900" lon="8.48296600">
  <ele>368.973</ele>
 </trkpt>
 <trkpt lat="51.00740900" lon="8.48314700">
  <ele>369.204</ele>
 </trkpt>
 <trkpt lat="51.00699300" lon="8.48328800">
  <ele>368.365</ele>
 </trkpt>
 <trkpt lat="51.00661500" lon="8.48339200">
  <ele>368.357</ele>
 </trkpt>
 <trkpt lat="51.00605000" lon="8.48362600">
  <ele>368.036</ele>
 </trkpt>
 <trkpt lat="51.00589500" lon="8.48368200">
  <ele>367.719</ele>
 </trkpt>
 <trkpt lat="51.00538100" lon="8.48381300">
  <ele>367.605</ele>
 </trkpt>
 <trkpt lat="51.00529300" lon="8.48382100">
  <ele>367.380</ele>
 </trkpt>
 <trkpt lat="51.00469300" lon="8.48389300">
  <ele>367.151</ele>
 </trkpt>
 <trkpt lat="51.00450000" lon="8.48391300">
  <ele>367.347</ele>
 </trkpt>
 <trkpt lat="51.00435400" lon="8.48393800">
  <ele>366.798</ele>
 </trkpt>
 <trkpt lat="51.00382400" lon="8.48400000">
  <ele>366.150</ele>
 </trkpt>
 <trkpt lat="51.00316100" lon="8.48408900">
  <ele>365.759</ele>
 </trkpt>
 <trkpt lat="51.00226900" lon="8.48419500">
  <ele>365.203</ele>
 </trkpt>
 <trkpt lat="51.00165500" lon="8.48433000">
  <ele>365.283</ele>
 </trkpt>
 <trkpt lat="51.00110500" lon="8.48460300">
  <ele>364.754</ele>
 </trkpt>
 <trkpt lat="51.00087300" lon="8.48473200">
  <ele>365.333</ele>
 </trkpt>
 <trkpt lat="51.00082600" lon="8.48482800">
  <ele>364.921</ele>
 </trkpt>
 <trkpt lat="51.00076000" lon="8.48504300">
  <ele>364.770</ele>
 </trkpt>
 <trkpt lat="51.00035900" lon="8.48558500">
  <ele>364.275</ele>
 </trkpt>
 <trkpt lat="50.99974300" lon="8.48633800">
  <ele>364.249</ele>
 </trkpt>
 <trkpt lat="50.99953300" lon="8.48707900">
  <ele>364.378</ele>
 </trkpt>
 <trkpt lat="50.99947500" lon="8.48740100">
  <ele>364.107</ele>
 </trkpt>
 <trkpt lat="50.99929600" lon="8.48751700">
  <ele>362.557</ele>
 </trkpt>
 <trkpt lat="50.99918500" lon="8.48767900">
  <ele>361.354</ele>
 </trkpt>
 <trkpt lat="50.99899900" lon="8.48784300">
  <ele>361.416</ele>
 </trkpt>
 <trkpt lat="50.99859400" lon="8.48793100">
  <ele>363.478</ele>
 </trkpt>
 <trkpt lat="50.99851500" lon="8.48800400">
  <ele>363.412</ele>
 </trkpt>
 <trkpt lat="50.99845900" lon="8.48819300">
  <ele>363.617</ele>
 </trkpt>
 <trkpt lat="50.99860300" lon="8.48855300">
  <ele>363.623</ele>
 </trkpt>
 <trkpt lat="50.99871800" lon="8.48872300">
  <ele>363.113</ele>
 </trkpt>
 <trkpt lat="50.99844300" lon="8.48921500">
  <ele>362.038</ele>
 </trkpt>
 <trkpt lat="50.99835200" lon="8.48933500">
  <ele>360.114</ele>
 </trkpt>
 <trkpt lat="50.99795100" lon="8.49030100">
  <ele>360.424</ele>
 </trkpt>
 <trkpt lat="50.99756500" lon="8.49153600">
  <ele>359.807</ele>
 </trkpt>
 <trkpt lat="50.99729100" lon="8.49283600">
  <ele>358.856</ele>
 </trkpt>
 <trkpt lat="50.99709100" lon="8.49421500">
  <ele>358.530</ele>
 </trkpt>
 <trkpt lat="50.99698900" lon="8.49535900">
  <ele>358.062</ele>
 </trkpt>
 <trkpt lat="50.99700100" lon="8.49673200">
  <ele>357.631</ele>
 </trkpt>
 <trkpt lat="50.99700700" lon="8.49796200">
  <ele>358.444</ele>
 </trkpt>
 <trkpt lat="50.99688500" lon="8.49882500">
  <ele>358.271</ele>
 </trkpt>
 <trkpt lat="50.99680700" lon="8.49929500">
  <ele>358.042</ele>
 </trkpt>
 <trkpt lat="50.99677900" lon="8.49945800">
  <ele>358.154</ele>
 </trkpt>
 <trkpt lat="50.99669600" lon="8.49947900">
  <ele>359.177</ele>
 </trkpt>
 <trkpt lat="50.99627300" lon="8.49914400">
  <ele>358.378</ele>
 </trkpt>
 <trkpt lat="50.99595200" lon="8.49888600">
  <ele>359.528</ele>
 </trkpt>
 <trkpt lat="50.99583400" lon="8.49882200">
  <ele>359.006</ele>
 </trkpt>
 <trkpt lat="50.99575500" lon="8.49901000">
  <ele>360.265</ele>
 </trkpt>
 <trkpt lat="50.99560200" lon="8.49934200">
  <ele>363.317</ele>
 </trkpt>
 <trkpt lat="50.99546700" lon="8.49965600">
  <ele>362.574</ele>
 </trkpt>
 <trkpt lat="50.99527600" lon="8.50011100">
  <ele>362.810</ele>
 </trkpt>
 <trkpt lat="50.99519300" lon="8.50032700">
  <ele>362.077</ele>
 </trkpt>
 <trkpt lat="50.99485200" lon="8.50108700">
  <ele>361.307</ele>
 </trkpt>
 <trkpt lat="50.99435100" lon="8.50222100">
  <ele>361.963</ele>
 </trkpt>
 <trkpt lat="50.99398500" lon="8.50306700">
  <ele>360.768</ele>
 </trkpt>
 <trkpt lat="50.99367200" lon="8.50377600">
  <ele>360.314</ele>
 </trkpt>
 <trkpt lat="50.99315700" lon="8.50495300">
  <ele>359.286</ele>
 </trkpt>
 <trkpt lat="50.99277500" lon="8.50581700">
  <ele>359.390</ele>
 </trkpt>
 <trkpt lat="50.99272100" lon="8.50594200">
  <ele>359.100</ele>
 </trkpt>
 <trkpt lat="50.99249000" lon="8.50654800">
  <ele>359.050</ele>
 </trkpt>
 <trkpt lat="50.99212800" lon="8.50772000">
  <ele>357.724</ele>
 </trkpt>
 <trkpt lat="50.99202600" lon="8.50805800">
  <ele>358.746</ele>
 </trkpt>
 <trkpt lat="50.99173300" lon="8.50893500">
  <ele>359.818</ele>
 </trkpt>
 <trkpt lat="50.99168900" lon="8.50913800">
  <ele>359.560</ele>
 </trkpt>
 <trkpt lat="50.99159400" lon="8.50951400">
  <ele>358.540</ele>
 </trkpt>
 <trkpt lat="50.99153700" lon="8.50970300">
  <ele>359.302</ele>
 </trkpt>
 <trkpt lat="50.99118400" lon="8.51080200">
  <ele>358.301</ele>
 </trkpt>
 <trkpt lat="50.99099800" lon="8.51137300">
  <ele>358.206</ele>
 </trkpt>
 <trkpt lat="50.99081300" lon="8.51201200">
  <ele>358.008</ele>
 </trkpt>
 <trkpt lat="50.99071100" lon="8.51233400">
  <ele>357.909</ele>
 </trkpt>
 <trkpt lat="50.99053000" lon="8.51311100">
  <ele>357.580</ele>
 </trkpt>
 <trkpt lat="50.99049700" lon="8.51323400">
  <ele>357.679</ele>
 </trkpt>
 <trkpt lat="50.99040400" lon="8.51378000">
  <ele>356.936</ele>
 </trkpt>
 <trkpt lat="50.99026300" lon="8.51469300">
  <ele>356.122</ele>
 </trkpt>
 <trkpt lat="50.99021100" lon="8.51539900">
  <ele>356.443</ele>
 </trkpt>
 <trkpt lat="50.99015200" lon="8.51622200">
  <ele>356.558</ele>
 </trkpt>
 <trkpt lat="50.99014700" lon="8.51729900">
  <ele>356.779</ele>
 </trkpt>
 <trkpt lat="50.99014200" lon="8.51750800">
  <ele>356.500</ele>
 </trkpt>
 <trkpt lat="50.99017800" lon="8.51825400">
  <ele>356.707</ele>
 </trkpt>
 <trkpt lat="50.99025500" lon="8.51925100">
  <ele>356.363</ele>
 </trkpt>
 <trkpt lat="50.99034200" lon="8.52034800">
  <ele>355.504</ele>
 </trkpt>
 <trkpt lat="50.99040500" lon="8.52136800">
  <ele>355.371</ele>
 </trkpt>
 <trkpt lat="50.99043200" lon="8.52174500">
  <ele>354.913</ele>
 </trkpt>
 <trkpt lat="50.99045900" lon="8.52251600">
  <ele>355.105</ele>
 </trkpt>
 <trkpt lat="50.99053900" lon="8.52360000">
  <ele>354.860</ele>
 </trkpt>
 <trkpt lat="50.99056700" lon="8.52385900">
  <ele>354.501</ele>
 </trkpt>
 <trkpt lat="50.99062000" lon="8.52412500">
  <ele>354.566</ele>
 </trkpt>
 <trkpt lat="50.99082300" lon="8.52480000">
  <ele>354.548</ele>
 </trkpt>
 <trkpt lat="50.99103600" lon="8.52558900">
  <ele>354.633</ele>
 </trkpt>
 <trkpt lat="50.99109100" lon="8.52579000">
  <ele>354.543</ele>
 </trkpt>
 <trkpt lat="50.99130600" lon="8.52654400">
  <ele>354.024</ele>
 </trkpt>
 <trkpt lat="50.99163400" lon="8.52764000">
  <ele>354.179</ele>
 </trkpt>
 <trkpt lat="50.99175300" lon="8.52792100">
  <ele>354.507</ele>
 </trkpt>
 <trkpt lat="50.99181500" lon="8.52810300">
  <ele>354.086</ele>
 </trkpt>
 <trkpt lat="50.99196300" lon="8.52875500">
  <ele>353.649</ele>
 </trkpt>
 <trkpt lat="50.99202300" lon="8.52904100">
  <ele>354.091</ele>
 </trkpt>
 <trkpt lat="50.99213100" lon="8.52974500">
  <ele>354.548</ele>
 </trkpt>
 <trkpt lat="50.99216900" lon="8.53088900">
  <ele>353.868</ele>
 </trkpt>
 <trkpt lat="50.99217000" lon="8.53112600">
  <ele>353.363</ele>
 </trkpt>
 <trkpt lat="50.99212000" lon="8.53177000">
  <ele>353.895</ele>
 </trkpt>
 <trkpt lat="50.99210100" lon="8.53198400">
  <ele>353.543</ele>
 </trkpt>
 <trkpt lat="50.99204800" lon="8.53273500">
  <ele>352.920</ele>
 </trkpt>
 <trkpt lat="50.99193100" lon="8.53401900">
  <ele>352.223</ele>
 </trkpt>
 <trkpt lat="50.99183000" lon="8.53547100">
  <ele>351.752</ele>
 </trkpt>
 <trkpt lat="50.99185400" lon="8.53644100">
  <ele>351.583</ele>
 </trkpt>
 <trkpt lat="50.99191800" lon="8.53779200">
  <ele>350.793</ele>
 </trkpt>
 <trkpt lat="50.99197600" lon="8.53915100">
  <ele>350.907</ele>
 </trkpt>
 <trkpt lat="50.99203000" lon="8.54032100">
  <ele>351.498</ele>
 </trkpt>
 <trkpt lat="50.99206300" lon="8.54091400">
  <ele>351.217</ele>
 </trkpt>
 <trkpt lat="50.99207200" lon="8.54100100">
  <ele>351.251</ele>
 </trkpt>
 <trkpt lat="50.99210600" lon="8.54119800">
  <ele>351.145</ele>
 </trkpt>
 <trkpt lat="50.99214200" lon="8.54184500">
  <ele>351.018</ele>
 </trkpt>
 <trkpt lat="50.99201400" lon="8.54306500">
  <ele>351.573</ele>
 </trkpt>
 <trkpt lat="50.99198100" lon="8.54324800">
  <ele>351.331</ele>
 </trkpt>
 <trkpt lat="50.99193700" lon="8.54346000">
  <ele>350.941</ele>
 </trkpt>
 <trkpt lat="50.99187800" lon="8.54366100">
  <ele>350.517</ele>
 </trkpt>
 <trkpt lat="50.99179600" lon="8.54387700">
  <ele>350.569</ele>
 </trkpt>
 <trkpt lat="50.99169600" lon="8.54455700">
  <ele>351.115</ele>
 </trkpt>
 <trkpt lat="50.99155400" lon="8.54559900">
  <ele>350.519</ele>
 </trkpt>
 <trkpt lat="50.99146100" lon="8.54639000">
  <ele>351.842</ele>
 </trkpt>
 <trkpt lat="50.99143200" lon="8.54676000">
  <ele>351.266</ele>
 </trkpt>
 <trkpt lat="50.99136900" lon="8.54717900">
  <ele>348.543</ele>
 </trkpt>
 <trkpt lat="50.99106400" lon="8.54808100">
  <ele>347.161</ele>
 </trkpt>
 <trkpt lat="50.99054500" lon="8.54906300">
  <ele>347.171</ele>
 </trkpt>
 <trkpt lat="50.99022300" lon="8.54947800">
  <ele>345.775</ele>
 </trkpt>
 <trkpt lat="50.99014900" lon="8.54956000">
  <ele>346.121</ele>
 </trkpt>
 <trkpt lat="50.98982000" lon="8.54982000">
  <ele>345.533</ele>
 </trkpt>
 <trkpt lat="50.98961600" lon="8.55029300">
  <ele>346.530</ele>
 </trkpt>
 <trkpt lat="50.98943300" lon="8.55052400">
  <ele>346.528</ele>
 </trkpt>
 <trkpt lat="50.98880000" lon="8.55093900">
  <ele>346.099</ele>
 </trkpt>
 <trkpt lat="50.98875000" lon="8.55090600">
  <ele>346.893</ele>
 </trkpt>
 <trkpt lat="50.98865700" lon="8.55073600">
  <ele>347.449</ele>
 </trkpt>
 <trkpt lat="50.98842500" lon="8.55035100">
  <ele>349.953</ele>
 </trkpt>
 <trkpt lat="50.98835600" lon="8.55031300">
  <ele>348.953</ele>
 </trkpt>
 <trkpt lat="50.98817400" lon="8.55039700">
  <ele>348.553</ele>
 </trkpt>
 <trkpt lat="50.98759600" lon="8.55058300">
  <ele>347.570</ele>
 </trkpt>
 <trkpt lat="50.98662600" lon="8.55090300">
  <ele>347.202</ele>
 </trkpt>
 <trkpt lat="50.98568700" lon="8.55121400">
  <ele>346.535</ele>
 </trkpt>
 <trkpt lat="50.98489700" lon="8.55147700">
  <ele>346.923</ele>
 </trkpt>
 <trkpt lat="50.98429400" lon="8.55167500">
  <ele>346.585</ele>
 </trkpt>
 <trkpt lat="50.98357900" lon="8.55205000">
  <ele>346.618</ele>
 </trkpt>
 <trkpt lat="50.98290800" lon="8.55265700">
  <ele>346.975</ele>
 </trkpt>
 <trkpt lat="50.98252600" lon="8.55318700">
  <ele>346.893</ele>
 </trkpt>
 <trkpt lat="50.98226600" lon="8.55365100">
  <ele>347.018</ele>
 </trkpt>
 <trkpt lat="50.98216400" lon="8.55388100">
  <ele>347.132</ele>
 </trkpt>
 <trkpt lat="50.98207100" lon="8.55412200">
  <ele>346.402</ele>
 </trkpt>
 <trkpt lat="50.98183300" lon="8.55469500">
  <ele>346.894</ele>
 </trkpt>
 <trkpt lat="50.98147000" lon="8.55559900">
  <ele>346.838</ele>
 </trkpt>
 <trkpt lat="50.98109400" lon="8.55655600">
  <ele>347.244</ele>
 </trkpt>
 <trkpt lat="50.98077100" lon="8.55744000">
  <ele>347.500</ele>
 </trkpt>
 <trkpt lat="50.98071300" lon="8.55763700">
  <ele>347.533</ele>
 </trkpt>
 <trkpt lat="50.98058600" lon="8.55820200">
  <ele>347.595</ele>
 </trkpt>
 <trkpt lat="50.98054800" lon="8.55839800">
  <ele>347.595</ele>
 </trkpt>
 <trkpt lat="50.98044100" lon="8.55935300">
  <ele>347.804</ele>
 </trkpt>
 <trkpt lat="50.98037100" lon="8.56024600">
  <ele>347.576</ele>
 </trkpt>
 <trkpt lat="50.98029200" lon="8.56121400">
  <ele>346.248</ele>
 </trkpt>
 <trkpt lat="50.98024700" lon="8.56169400">
  <ele>346.609</ele>
 </trkpt>
 <trkpt lat="50.98019300" lon="8.56268500">
  <ele>347.294</ele>
 </trkpt>
 <trkpt lat="50.98023100" lon="8.56368600">
  <ele>347.082</ele>
 </trkpt>
 <trkpt lat="50.98028800" lon="8.56411100">
  <ele>346.469</ele>
 </trkpt>
 <trkpt lat="50.98032000" lon="8.56438500">
  <ele>346.426</ele>
 </trkpt>
 <trkpt lat="50.98049000" lon="8.56507100">
  <ele>346.549</ele>
 </trkpt>
 <trkpt lat="50.98076800" lon="8.56586300">
  <ele>346.267</ele>
 </trkpt>
 <trkpt lat="50.98100800" lon="8.56642300">
  <ele>346.376</ele>
 </trkpt>
 <trkpt lat="50.98109300" lon="8.56659600">
  <ele>346.250</ele>
 </trkpt>
 <trkpt lat="50.98129600" lon="8.56709800">
  <ele>345.850</ele>
 </trkpt>
 <trkpt lat="50.98162700" lon="8.56785700">
  <ele>345.817</ele>
 </trkpt>
 <trkpt lat="50.98206200" lon="8.56876300">
  <ele>345.369</ele>
 </trkpt>
 <trkpt lat="50.98235000" lon="8.56938400">
  <ele>345.217</ele>
 </trkpt>
 <trkpt lat="50.98249600" lon="8.56975900">
  <ele>344.872</ele>
 </trkpt>
 <trkpt lat="50.98260600" lon="8.56999400">
  <ele>344.589</ele>
 </trkpt>
 <trkpt lat="50.98271200" lon="8.57023400">
  <ele>345.000</ele>
 </trkpt>
 <trkpt lat="50.98279100" lon="8.57041000">
  <ele>344.803</ele>
 </trkpt>
 <trkpt lat="50.98292300" lon="8.57063600">
  <ele>344.893</ele>
 </trkpt>
 <trkpt lat="50.98316200" lon="8.57108100">
  <ele>345.002</ele>
 </trkpt>
 <trkpt lat="50.98337100" lon="8.57137900">
  <ele>344.887</ele>
 </trkpt>
 <trkpt lat="50.98349500" lon="8.57153300">
  <ele>344.214</ele>
 </trkpt>
 <trkpt lat="50.98395200" lon="8.57199000">
  <ele>344.421</ele>
 </trkpt>
 <trkpt lat="50.98454900" lon="8.57232500">
  <ele>344.244</ele>
 </trkpt>
 <trkpt lat="50.98510300" lon="8.57244100">
  <ele>344.549</ele>
 </trkpt>
 <trkpt lat="50.98575200" lon="8.57236000">
  <ele>343.287</ele>
 </trkpt>
 <trkpt lat="50.98617900" lon="8.57222700">
  <ele>343.530</ele>
 </trkpt>
 <trkpt lat="50.98634400" lon="8.57218800">
  <ele>343.096</ele>
 </trkpt>
 <trkpt lat="50.98676300" lon="8.57203000">
  <ele>343.322</ele>
 </trkpt>
 <trkpt lat="50.98701100" lon="8.57194600">
  <ele>343.338</ele>
 </trkpt>
 <trkpt lat="50.98742400" lon="8.57187900">
  <ele>342.884</ele>
 </trkpt>
 <trkpt lat="50.98785800" lon="8.57186200">
  <ele>341.777</ele>
 </trkpt>
 <trkpt lat="50.98870400" lon="8.57185400">
  <ele>340.405</ele>
 </trkpt>
 <trkpt lat="50.98945900" lon="8.57185800">
  <ele>340.381</ele>
 </trkpt>
 <trkpt lat="50.99054500" lon="8.57184700">
  <ele>340.046</ele>
 </trkpt>
 <trkpt lat="50.99073300" lon="8.57184700">
  <ele>340.208</ele>
 </trkpt>
 <trkpt lat="50.99103500" lon="8.57186600">
  <ele>340.433</ele>
 </trkpt>
 <trkpt lat="50.99168500" lon="8.57207600">
  <ele>339.754</ele>
 </trkpt>
 <trkpt lat="50.99191600" lon="8.57222300">
  <ele>339.660</ele>
 </trkpt>
 <trkpt lat="50.99205600" lon="8.57234000">
  <ele>338.593</ele>
 </trkpt>
 <trkpt lat="50.99258200" lon="8.57292500">
  <ele>338.072</ele>
 </trkpt>
 <trkpt lat="50.99306800" lon="8.57382700">
  <ele>338.217</ele>
 </trkpt>
 <trkpt lat="50.99324600" lon="8.57435700">
  <ele>338.259</ele>
 </trkpt>
 <trkpt lat="50.99329700" lon="8.57447900">
  <ele>337.800</ele>
 </trkpt>
 <trkpt lat="50.99341400" lon="8.57508800">
  <ele>337.583</ele>
 </trkpt>
 <trkpt lat="50.99350700" lon="8.57609700">
  <ele>337.615</ele>
 </trkpt>
 <trkpt lat="50.99355000" lon="8.57678200">
  <ele>337.688</ele>
 </trkpt>
 <trkpt lat="50.99356000" lon="8.57702200">
  <ele>337.457</ele>
 </trkpt>
 <trkpt lat="50.99359200" lon="8.57786200">
  <ele>337.365</ele>
 </trkpt>
 <trkpt lat="50.99359500" lon="8.57810500">
  <ele>337.574</ele>
 </trkpt>
 <trkpt lat="50.99359100" lon="8.57826500">
  <ele>337.640</ele>
 </trkpt>
 <trkpt lat="50.99358700" lon="8.57852600">
  <ele>337.044</ele>
 </trkpt>
 <trkpt lat="50.99357400" lon="8.57944400">
  <ele>336.887</ele>
 </trkpt>
 <trkpt lat="50.99342000" lon="8.58071400">
  <ele>337.144</ele>
 </trkpt>
 <trkpt lat="50.99314100" lon="8.58173400">
  <ele>336.239</ele>
 </trkpt>
 <trkpt lat="50.99287600" lon="8.58251800">
  <ele>336.881</ele>
 </trkpt>
 <trkpt lat="50.99262500" lon="8.58327500">
  <ele>336.105</ele>
 </trkpt>
 <trkpt lat="50.99258000" lon="8.58340000">
  <ele>335.684</ele>
 </trkpt>
 <trkpt lat="50.99251100" lon="8.58359600">
  <ele>335.817</ele>
 </trkpt>
 <trkpt lat="50.99241900" lon="8.58386000">
  <ele>336.475</ele>
 </trkpt>
 <trkpt lat="50.99232560" lon="8.58415360">
  <ele>335.160</ele>
 </trkpt>
 <trkpt lat="50.99219060" lon="8.58503520">
  <ele>335.640</ele>
 </trkpt>
 <trkpt lat="50.99216770" lon="8.58559540">
  <ele>334.680</ele>
 </trkpt>
 <trkpt lat="50.99215940" lon="8.58584930">
  <ele>335.160</ele>
 </trkpt>
 <trkpt lat="50.99227710" lon="8.58688350">
  <ele>335.640</ele>
 </trkpt>
 <trkpt lat="50.99251340" lon="8.58777200">
  <ele>335.640</ele>
 </trkpt>
 <trkpt lat="50.99276400" lon="8.58831330">
  <ele>335.160</ele>
 </trkpt>
 <trkpt lat="50.99295320" lon="8.58866950">
  <ele>335.640</ele>
 </trkpt>
 <trkpt lat="50.99307350" lon="8.58885400">
  <ele>335.640</ele>
 </trkpt>
 <trkpt lat="50.99350740" lon="8.58935800">
  <ele>336.120</ele>
 </trkpt>
 <trkpt lat="50.99365550" lon="8.58948760">
  <ele>336.120</ele>
 </trkpt>
 <trkpt lat="50.99417220" lon="8.58983260">
  <ele>335.640</ele>
 </trkpt>
 <trkpt lat="50.99486440" lon="8.59005660">
  <ele>334.200</ele>
 </trkpt>
 <trkpt lat="50.99532990" lon="8.59005320">
  <ele>333.710</ele>
 </trkpt>
 <trkpt lat="50.99550940" lon="8.58999990">
  <ele>333.710</ele>
 </trkpt>
 <trkpt lat="50.99605150" lon="8.58977900">
  <ele>334.200</ele>
 </trkpt>
 <trkpt lat="50.99667970" lon="8.58932030">
  <ele>333.710</ele>
 </trkpt>
 <trkpt lat="50.99738940" lon="8.58864060">
  <ele>332.750</ele>
 </trkpt>
 <trkpt lat="50.99758480" lon="8.58843650">
  <ele>332.750</ele>
 </trkpt>
 <trkpt lat="50.99777390" lon="8.58814520">
  <ele>332.750</ele>
 </trkpt>
 <trkpt lat="50.99837720" lon="8.58752160">
  <ele>333.230</ele>
 </trkpt>
 <trkpt lat="50.99845780" lon="8.58744080">
  <ele>333.230</ele>
 </trkpt>
 <trkpt lat="50.99879890" lon="8.58708190">
  <ele>333.230</ele>
 </trkpt>
 <trkpt lat="50.99923670" lon="8.58673290">
  <ele>333.710</ele>
 </trkpt>
 <trkpt lat="50.99972750" lon="8.58638480">
  <ele>332.270</ele>
 </trkpt>
 <trkpt lat="51.00035970" lon="8.58603930">
  <ele>331.790</ele>
 </trkpt>
 <trkpt lat="51.00044920" lon="8.58599660">
  <ele>331.310</ele>
 </trkpt>
 <trkpt lat="51.00055340" lon="8.58607040">
  <ele>330.830</ele>
 </trkpt>
 <trkpt lat="51.00058820" lon="8.58617060">
  <ele>331.310</ele>
 </trkpt>
 <trkpt lat="51.00093990" lon="8.58611300">
  <ele>332.750</ele>
 </trkpt>
 <trkpt lat="51.00175640" lon="8.58589670">
  <ele>332.750</ele>
 </trkpt>
 <trkpt lat="51.00261780" lon="8.58568070">
  <ele>333.230</ele>
 </trkpt>
 <trkpt lat="51.00349150" lon="8.58543920">
  <ele>332.270</ele>
 </trkpt>
 <trkpt lat="51.00437810" lon="8.58526630">
  <ele>328.910</ele>
 </trkpt>
 <trkpt lat="51.00522200" lon="8.58533650">
  <ele>329.390</ele>
 </trkpt>
 <trkpt lat="51.00537340" lon="8.58531460">
  <ele>329.870</ele>
 </trkpt>
 <trkpt lat="51.00573060" lon="8.58502990">
  <ele>330.830</ele>
 </trkpt>
 <trkpt lat="51.00615740" lon="8.58485950">
  <ele>330.350</ele>
 </trkpt>
 <trkpt lat="51.00675750" lon="8.58466160">
  <ele>332.270</ele>
 </trkpt>
 <trkpt lat="51.00714140" lon="8.58471250">
  <ele>335.640</ele>
 </trkpt>
 <trkpt lat="51.00750500" lon="8.58475080">
  <ele>336.600</ele>
 </trkpt>
 <trkpt lat="51.00813180" lon="8.58483630">
  <ele>335.640</ele>
 </trkpt>
 <trkpt lat="51.00871420" lon="8.58490570">
  <ele>335.160</ele>
 </trkpt>
 <trkpt lat="51.00903300" lon="8.58503190">
  <ele>335.640</ele>
 </trkpt>
 <trkpt lat="51.00908010" lon="8.58509970">
  <ele>335.640</ele>
 </trkpt>
 <trkpt lat="51.00912420" lon="8.58549270">
  <ele>336.600</ele>
 </trkpt>
 <trkpt lat="51.00916820" lon="8.58563270">
  <ele>336.600</ele>
 </trkpt>
 <trkpt lat="51.00980280" lon="8.58616870">
  <ele>335.640</ele>
 </trkpt>
 <trkpt lat="51.01022670" lon="8.58647160">
  <ele>334.680</ele>
 </trkpt>
 <trkpt lat="51.01047300" lon="8.58616860">
  <ele>332.750</ele>
 </trkpt>
 <trkpt lat="51.01063330" lon="8.58608760">
  <ele>331.790</ele>
 </trkpt>
 <trkpt lat="51.01086280" lon="8.58584380">
  <ele>331.310</ele>
 </trkpt>
 <trkpt lat="51.01103520" lon="8.58542310">
  <ele>329.870</ele>
 </trkpt>
 <trkpt lat="51.01113630" lon="8.58515800">
  <ele>329.390</ele>
 </trkpt>
 <trkpt lat="51.01116530" lon="8.58506510">
  <ele>328.430</ele>
 </trkpt>
 <trkpt lat="51.01126160" lon="8.58505570">
  <ele>328.430</ele>
 </trkpt>
 <trkpt lat="51.01137060" lon="8.58509370">
  <ele>328.910</ele>
 </trkpt>
 <trkpt lat="51.01182420" lon="8.58513070">
  <ele>328.910</ele>
 </trkpt>
 <trkpt lat="51.01256030" lon="8.58521680">
  <ele>328.430</ele>
 </trkpt>
 <trkpt lat="51.01344470" lon="8.58532960">
  <ele>327.950</ele>
 </trkpt>
 <trkpt lat="51.01432810" lon="8.58545720">
  <ele>327.470</ele>
 </trkpt>
 <trkpt lat="51.01495340" lon="8.58553590">
  <ele>327.470</ele>
 </trkpt>
 <trkpt lat="51.01547570" lon="8.58557410">
  <ele>326.990</ele>
 </trkpt>
 <trkpt lat="51.01587860" lon="8.58551520">
  <ele>326.990</ele>
 </trkpt>
 <trkpt lat="51.01603110" lon="8.58544490">
  <ele>327.470</ele>
 </trkpt>
 <trkpt lat="51.01658550" lon="8.58520810">
  <ele>326.990</ele>
 </trkpt>
 <trkpt lat="51.01698750" lon="8.58500260">
  <ele>326.500</ele>
 </trkpt>
 <trkpt lat="51.01725610" lon="8.58487580">
  <ele>326.990</ele>
 </trkpt>
 <trkpt lat="51.01784560" lon="8.58458460">
  <ele>326.500</ele>
 </trkpt>
 <trkpt lat="51.01849730" lon="8.58419790">
  <ele>326.020</ele>
 </trkpt>
 <trkpt lat="51.01882710" lon="8.58399660">
  <ele>325.540</ele>
 </trkpt>
 <trkpt lat="51.01908390" lon="8.58385560">
  <ele>325.540</ele>
 </trkpt>
 <trkpt lat="51.01923960" lon="8.58380020">
  <ele>325.060</ele>
 </trkpt>
 <trkpt lat="51.01945430" lon="8.58377480">
  <ele>324.860</ele>
 </trkpt>
 <trkpt lat="51.01984960" lon="8.58381860">
  <ele>324.660</ele>
 </trkpt>
 <trkpt lat="51.02029870" lon="8.58397220">
  <ele>324.460</ele>
 </trkpt>
 <trkpt lat="51.02071190" lon="8.58416960">
  <ele>324.260</ele>
 </trkpt>
 <trkpt lat="51.02095450" lon="8.58436700">
  <ele>324.060</ele>
 </trkpt>
 <trkpt lat="51.02121500" lon="8.58464110">
  <ele>323.860</ele>
 </trkpt>
 <trkpt lat="51.02140370" lon="8.58491530">
  <ele>323.660</ele>
 </trkpt>
 <trkpt lat="51.02159230" lon="8.58524430">
  <ele>323.460</ele>
 </trkpt>
 <trkpt lat="51.02177200" lon="8.58567190">
  <ele>323.260</ele>
 </trkpt>
 <trkpt lat="51.02185280" lon="8.58591320">
  <ele>322.961</ele>
 </trkpt>
 <trkpt lat="51.02192230" lon="8.58613270">
  <ele>322.660</ele>
 </trkpt>
 <trkpt lat="51.02203610" lon="8.58663340">
  <ele>322.660</ele>
 </trkpt>
 <trkpt lat="51.02217190" lon="8.58734120">
  <ele>322.180</ele>
 </trkpt>
 <trkpt lat="51.02223620" lon="8.58801630">
  <ele>321.700</ele>
 </trkpt>
 <trkpt lat="51.02225430" lon="8.58819240">
  <ele>321.700</ele>
 </trkpt>
 <trkpt lat="51.02270160" lon="8.58851620">
  <ele>321.220</ele>
 </trkpt>
 <trkpt lat="51.02313650" lon="8.58878690">
  <ele>321.700</ele>
 </trkpt>
 <trkpt lat="51.02361220" lon="8.58945330">
  <ele>321.700</ele>
 </trkpt>
 <trkpt lat="51.02378190" lon="8.58969720">
  <ele>320.740</ele>
 </trkpt>
 <trkpt lat="51.02434730" lon="8.59025110">
  <ele>319.780</ele>
 </trkpt>
 <trkpt lat="51.02442820" lon="8.59036510">
  <ele>319.780</ele>
 </trkpt>
 <trkpt lat="51.02456310" lon="8.59082430">
  <ele>319.780</ele>
 </trkpt>
    </trkseg>
  </trk>

</gpx>
