<?xml version="1.0" encoding="UTF-8" standalone="no"?>
<gpx xmlns="http://www.topografix.com/GPX/1/1" creator="MapSource 6.16.3" version="1.1">

<trk>
  <name>NW 4.26*</name>
<trkseg>
 <trkpt lat="51.36179000" lon="8.40169000">
 </trkpt>
 <trkpt lat="51.36029000" lon="8.40210000">
 </trkpt>
 <trkpt lat="51.35959000" lon="8.40243000">
 </trkpt>
 <trkpt lat="51.35885000" lon="8.40303000">
 </trkpt>
 <trkpt lat="51.35747000" lon="8.40418000">
 </trkpt>
 <trkpt lat="51.35607000" lon="8.40546000">
 </trkpt>
 <trkpt lat="51.35533000" lon="8.40639000">
 </trkpt>
 <trkpt lat="51.35473000" lon="8.40683000">
 </trkpt>
 <trkpt lat="51.35381000" lon="8.40700000">
 </trkpt>
 <trkpt lat="51.35310000" lon="8.40710000">
 </trkpt>
 <trkpt lat="51.35267000" lon="8.40724000">
 </trkpt>
 <trkpt lat="51.35232000" lon="8.40782000">
 </trkpt>
 <trkpt lat="51.35193000" lon="8.40861000">
 </trkpt>
 <trkpt lat="51.35148000" lon="8.40901000">
 </trkpt>
 <trkpt lat="51.35082000" lon="8.40928000">
 </trkpt>
 <trkpt lat="51.34973000" lon="8.40978000">
 </trkpt>
 <trkpt lat="51.34887000" lon="8.40981000">
 </trkpt>
 <trkpt lat="51.34827000" lon="8.40980000">
 </trkpt>
 <trkpt lat="51.34766000" lon="8.40985000">
 </trkpt>
 <trkpt lat="51.34713000" lon="8.41007000">
 </trkpt>
 <trkpt lat="51.34667000" lon="8.41020000">
 </trkpt>
 <trkpt lat="51.34612000" lon="8.41010000">
 </trkpt>
 <trkpt lat="51.34533000" lon="8.40979000">
 </trkpt>
 <trkpt lat="51.34462000" lon="8.40972000">
 </trkpt>
 <trkpt lat="51.34420000" lon="8.40959000">
 </trkpt>
 <trkpt lat="51.34392000" lon="8.40912000">
 </trkpt>
 <trkpt lat="51.34365000" lon="8.40849000">
 </trkpt>
 <trkpt lat="51.34329000" lon="8.40801000">
 </trkpt>
 <trkpt lat="51.34305000" lon="8.40784000">
 </trkpt>
 <trkpt lat="51.34275000" lon="8.40774000">
 </trkpt>
 <trkpt lat="51.34258000" lon="8.40755000">
 </trkpt>
 <trkpt lat="51.34228000" lon="8.40730000">
 </trkpt>
 <trkpt lat="51.34189000" lon="8.40691000">
 </trkpt>
 <trkpt lat="51.34142000" lon="8.40666000">
 </trkpt>
 <trkpt lat="51.34102000" lon="8.40678000">
 </trkpt>
 <trkpt lat="51.34073000" lon="8.40721000">
 </trkpt>
 <trkpt lat="51.34053000" lon="8.40742000">
 </trkpt>
 <trkpt lat="51.34014000" lon="8.40760000">
 </trkpt>
 <trkpt lat="51.33952000" lon="8.40762000">
 </trkpt>
 <trkpt lat="51.33905000" lon="8.40756000">
 </trkpt>
 <trkpt lat="51.33829000" lon="8.40731000">
 </trkpt>
 <trkpt lat="51.33784000" lon="8.40737000">
 </trkpt>
 <trkpt lat="51.33730000" lon="8.40739000">
 </trkpt>
 <trkpt lat="51.33665000" lon="8.40730000">
 </trkpt>
 <trkpt lat="51.33593000" lon="8.40725000">
 </trkpt>
 <trkpt lat="51.33542000" lon="8.40729000">
 </trkpt>
 <trkpt lat="51.33484000" lon="8.40758000">
 </trkpt>
 <trkpt lat="51.33417000" lon="8.40802000">
 </trkpt>
 <trkpt lat="51.33360000" lon="8.40813000">
 </trkpt>
 <trkpt lat="51.33282000" lon="8.40819000">
 </trkpt>
 <trkpt lat="51.33260000" lon="8.40809000">
 </trkpt>
 <trkpt lat="51.33218000" lon="8.40807000">
 </trkpt>
 <trkpt lat="51.33132000" lon="8.40787000">
 </trkpt>
 <trkpt lat="51.33026000" lon="8.40778000">
 </trkpt>
 <trkpt lat="51.32955000" lon="8.40739000">
 </trkpt>
 <trkpt lat="51.32876000" lon="8.40690000">
 </trkpt>
 <trkpt lat="51.32809000" lon="8.40624000">
 </trkpt>
 <trkpt lat="51.32746000" lon="8.40547000">
 </trkpt>
 <trkpt lat="51.32715000" lon="8.40474000">
 </trkpt>
 <trkpt lat="51.32662000" lon="8.40276000">
 </trkpt>
 <trkpt lat="51.32634000" lon="8.40213000">
 </trkpt>
 <trkpt lat="51.32600000" lon="8.40153000">
 </trkpt>
 <trkpt lat="51.32565000" lon="8.40135000">
 </trkpt>
 <trkpt lat="51.32538000" lon="8.40152000">
 </trkpt>
 <trkpt lat="51.32515000" lon="8.40189000">
 </trkpt>
 <trkpt lat="51.32510000" lon="8.40227000">
 </trkpt>
 <trkpt lat="51.32523000" lon="8.40335000">
 </trkpt>
 <trkpt lat="51.32532000" lon="8.40426000">
 </trkpt>
 <trkpt lat="51.32522000" lon="8.40488000">
 </trkpt>
 <trkpt lat="51.32492000" lon="8.40550000">
 </trkpt>
 <trkpt lat="51.32463000" lon="8.40602000">
 </trkpt>
 <trkpt lat="51.32427000" lon="8.40624000">
 </trkpt>
 <trkpt lat="51.32361000" lon="8.40635000">
 </trkpt>
 <trkpt lat="51.32300000" lon="8.40640000">
 </trkpt>
 <trkpt lat="51.32259000" lon="8.40615000">
 </trkpt>
 <trkpt lat="51.32221000" lon="8.40572000">
 </trkpt>
 <trkpt lat="51.32194000" lon="8.40546000">
 </trkpt>
 <trkpt lat="51.32166000" lon="8.40581000">
 </trkpt>
 <trkpt lat="51.32148000" lon="8.40600000">
 </trkpt>
 <trkpt lat="51.32115000" lon="8.40563000">
 </trkpt>
 <trkpt lat="51.32047000" lon="8.40498000">
 </trkpt>
 <trkpt lat="51.31973000" lon="8.40430000">
 </trkpt>
 <trkpt lat="51.31815000" lon="8.40263000">
 </trkpt>
 <trkpt lat="51.31783000" lon="8.40237000">
 </trkpt>
 <trkpt lat="51.31567000" lon="8.40240000">
 </trkpt>
</trkseg>
</trk>

</gpx>
