<?xml version="1.0" encoding="UTF-8" standalone="no"?>
<gpx xmlns="http://www.topografix.com/GPX/1/1" creator="MapSource 6.16.3" version="1.1">

<trk>
  <name>NW 4.24b*</name>
<trkseg>
 <trkpt lat="51.23229000" lon="7.86917000">
 </trkpt>
 <trkpt lat="51.23209000" lon="7.87027000">
 </trkpt>
 <trkpt lat="51.23202000" lon="7.87080000">
 </trkpt>
 <trkpt lat="51.23211000" lon="7.87152000">
 </trkpt>
 <trkpt lat="51.23228000" lon="7.87202000">
 </trkpt>
 <trkpt lat="51.23182000" lon="7.87200000">
 </trkpt>
 <trkpt lat="51.23177000" lon="7.87183000">
 </trkpt>
 <trkpt lat="51.23174000" lon="7.87198000">
 </trkpt>
 <trkpt lat="51.23075000" lon="7.87192000">
 </trkpt>
 <trkpt lat="51.23046000" lon="7.87194000">
 </trkpt>
 <trkpt lat="51.23006000" lon="7.87187000">
 </trkpt>
 <trkpt lat="51.22963000" lon="7.87172000">
 </trkpt>
 <trkpt lat="51.22916000" lon="7.87161000">
 </trkpt>
 <trkpt lat="51.22918000" lon="7.87174000">
 </trkpt>
 <trkpt lat="51.22833000" lon="7.87181000">
 </trkpt>
 <trkpt lat="51.22833000" lon="7.87085000">
 </trkpt>
 <trkpt lat="51.22846000" lon="7.87010000">
 </trkpt>
 <trkpt lat="51.22686000" lon="7.86986000">
 </trkpt>
 <trkpt lat="51.22598000" lon="7.86956000">
 </trkpt>
 <trkpt lat="51.22563000" lon="7.86952000">
 </trkpt>
 <trkpt lat="51.22549000" lon="7.86891000">
 </trkpt>
 <trkpt lat="51.22543000" lon="7.86880000">
 </trkpt>
 <trkpt lat="51.22506000" lon="7.86902000">
 </trkpt>
 <trkpt lat="51.22443000" lon="7.86954000">
 </trkpt>
 <trkpt lat="51.22379000" lon="7.87024000">
 </trkpt>
 <trkpt lat="51.22218000" lon="7.87080000">
 </trkpt>
 <trkpt lat="51.22133000" lon="7.87102000">
 </trkpt>
 <trkpt lat="51.22071000" lon="7.87123000">
 </trkpt>
 <trkpt lat="51.22000000" lon="7.87166000">
 </trkpt>
 <trkpt lat="51.21932000" lon="7.87214000">
 </trkpt>
 <trkpt lat="51.21922000" lon="7.87232000">
 </trkpt>
 <trkpt lat="51.21928000" lon="7.87268000">
 </trkpt>
 <trkpt lat="51.21911000" lon="7.87270000">
 </trkpt>
 <trkpt lat="51.21889000" lon="7.87250000">
 </trkpt>
 <trkpt lat="51.21853000" lon="7.87224000">
 </trkpt>
 <trkpt lat="51.21809000" lon="7.87199000">
 </trkpt>
 <trkpt lat="51.21761000" lon="7.87180000">
 </trkpt>
 <trkpt lat="51.21677000" lon="7.87166000">
 </trkpt>
 <trkpt lat="51.21599000" lon="7.87161000">
 </trkpt>
 <trkpt lat="51.21519000" lon="7.87174000">
 </trkpt>
 <trkpt lat="51.21504000" lon="7.87184000">
 </trkpt>
 <trkpt lat="51.21483000" lon="7.87173000">
 </trkpt>
 <trkpt lat="51.21476000" lon="7.87176000">
 </trkpt>
 <trkpt lat="51.21485000" lon="7.87195000">
 </trkpt>
 <trkpt lat="51.21386000" lon="7.87285000">
 </trkpt>
 <trkpt lat="51.21342000" lon="7.87346000">
 </trkpt>
 <trkpt lat="51.21318000" lon="7.87410000">
 </trkpt>
 <trkpt lat="51.21291000" lon="7.87538000">
 </trkpt>
 <trkpt lat="51.21285000" lon="7.87647000">
 </trkpt>
 <trkpt lat="51.21247000" lon="7.87748000">
 </trkpt>
 <trkpt lat="51.21153000" lon="7.87981000">
 </trkpt>
 <trkpt lat="51.21125000" lon="7.88040000">
 </trkpt>
 <trkpt lat="51.21106000" lon="7.88046000">
 </trkpt>
 <trkpt lat="51.21094000" lon="7.88092000">
 </trkpt>
 <trkpt lat="51.21035000" lon="7.88186000">
 </trkpt>
 <trkpt lat="51.21019000" lon="7.88227000">
 </trkpt>
 <trkpt lat="51.20915000" lon="7.88228000">
 </trkpt>
 <trkpt lat="51.20822000" lon="7.88235000">
 </trkpt>
 <trkpt lat="51.20747000" lon="7.88228000">
 </trkpt>
 <trkpt lat="51.20695000" lon="7.88215000">
 </trkpt>
 <trkpt lat="51.20646000" lon="7.88163000">
 </trkpt>
 <trkpt lat="51.20650000" lon="7.88081000">
 </trkpt>
 <trkpt lat="51.20672000" lon="7.87994000">
 </trkpt>
 <trkpt lat="51.20639000" lon="7.87921000">
 </trkpt>
 <trkpt lat="51.20597000" lon="7.87810000">
 </trkpt>
 <trkpt lat="51.20574000" lon="7.87769000">
 </trkpt>
 <trkpt lat="51.20531000" lon="7.87732000">
 </trkpt>
 <trkpt lat="51.20434000" lon="7.87676000">
 </trkpt>
 <trkpt lat="51.20332000" lon="7.87622000">
 </trkpt>
 <trkpt lat="51.20222000" lon="7.87578000">
 </trkpt>
 <trkpt lat="51.19987000" lon="7.87525000">
 </trkpt>
 <trkpt lat="51.19890000" lon="7.87497000">
 </trkpt>
 <trkpt lat="51.19841000" lon="7.87467000">
 </trkpt>
 <trkpt lat="51.19766000" lon="7.87383000">
 </trkpt>
 <trkpt lat="51.19743000" lon="7.87415000">
 </trkpt>
 <trkpt lat="51.19717000" lon="7.87391000">
 </trkpt>
 <trkpt lat="51.19684000" lon="7.87348000">
 </trkpt>
 <trkpt lat="51.19653000" lon="7.87291000">
 </trkpt>
 <trkpt lat="51.19642000" lon="7.87265000">
 </trkpt>
 <trkpt lat="51.19609000" lon="7.87240000">
 </trkpt>
 <trkpt lat="51.19567000" lon="7.87200000">
 </trkpt>
 <trkpt lat="51.19481000" lon="7.87141000">
 </trkpt>
 <trkpt lat="51.19467000" lon="7.87102000">
 </trkpt>
 <trkpt lat="51.19416000" lon="7.86936000">
 </trkpt>
 <trkpt lat="51.19399000" lon="7.86810000">
 </trkpt>
 <trkpt lat="51.19372000" lon="7.86714000">
 </trkpt>
 <trkpt lat="51.19334000" lon="7.86630000">
 </trkpt>
 <trkpt lat="51.19088000" lon="7.86252000">
 </trkpt>
 <trkpt lat="51.19076000" lon="7.86221000">
 </trkpt>
 <trkpt lat="51.19012000" lon="7.86198000">
 </trkpt>
 <trkpt lat="51.18982000" lon="7.86172000">
 </trkpt>
 <trkpt lat="51.18968000" lon="7.86169000">
 </trkpt>
 <trkpt lat="51.18940000" lon="7.86186000">
 </trkpt>
 <trkpt lat="51.18900000" lon="7.86201000">
 </trkpt>
 <trkpt lat="51.18863000" lon="7.86211000">
 </trkpt>
 <trkpt lat="51.18820000" lon="7.86184000">
 </trkpt>
 <trkpt lat="51.18653000" lon="7.85969000">
 </trkpt>
 <trkpt lat="51.18602000" lon="7.85922000">
 </trkpt>
 <trkpt lat="51.18552000" lon="7.85884000">
 </trkpt>
 <trkpt lat="51.18492000" lon="7.85852000">
 </trkpt>
 <trkpt lat="51.18388000" lon="7.85816000">
 </trkpt>
 <trkpt lat="51.18286000" lon="7.85787000">
 </trkpt>
 <trkpt lat="51.18210000" lon="7.85775000">
 </trkpt>
 <trkpt lat="51.18133000" lon="7.85770000">
 </trkpt>
 <trkpt lat="51.18117000" lon="7.85740000">
 </trkpt>
 <trkpt lat="51.18086000" lon="7.85787000">
 </trkpt>
 <trkpt lat="51.18047000" lon="7.85900000">
 </trkpt>
 <trkpt lat="51.18015000" lon="7.85936000">
 </trkpt>
 <trkpt lat="51.18000000" lon="7.85949000">
 </trkpt>
 <trkpt lat="51.17988000" lon="7.85813000">
 </trkpt>
 <trkpt lat="51.17916000" lon="7.85808000">
 </trkpt>
 <trkpt lat="51.17859000" lon="7.85835000">
 </trkpt>
 <trkpt lat="51.17804000" lon="7.85885000">
 </trkpt>
 <trkpt lat="51.17755000" lon="7.85895000">
 </trkpt>
 <trkpt lat="51.17648000" lon="7.85899000">
 </trkpt>
 <trkpt lat="51.17642000" lon="7.85872000">
 </trkpt>
 <trkpt lat="51.17591000" lon="7.85864000">
 </trkpt>
 <trkpt lat="51.17556000" lon="7.85842000">
 </trkpt>
 <trkpt lat="51.17525000" lon="7.85802000">
 </trkpt>
 <trkpt lat="51.17503000" lon="7.85732000">
 </trkpt>
 <trkpt lat="51.17441000" lon="7.85498000">
 </trkpt>
 <trkpt lat="51.17399000" lon="7.85401000">
 </trkpt>
 <trkpt lat="51.17350000" lon="7.85296000">
 </trkpt>
 <trkpt lat="51.17306000" lon="7.85228000">
 </trkpt>
 <trkpt lat="51.17114000" lon="7.84987000">
 </trkpt>
 <trkpt lat="51.17063000" lon="7.84899000">
 </trkpt>
 <trkpt lat="51.17028000" lon="7.84815000">
 </trkpt>
 <trkpt lat="51.17007000" lon="7.84732000">
 </trkpt>
 <trkpt lat="51.16993000" lon="7.84664000">
 </trkpt>
 <trkpt lat="51.16999000" lon="7.84610000">
 </trkpt>
 <trkpt lat="51.16938000" lon="7.84513000">
 </trkpt>
 <trkpt lat="51.16924000" lon="7.84516000">
 </trkpt>
 <trkpt lat="51.16927000" lon="7.84493000">
 </trkpt>
 <trkpt lat="51.16891000" lon="7.84436000">
 </trkpt>
 <trkpt lat="51.16830000" lon="7.84260000">
 </trkpt>
 <trkpt lat="51.16817000" lon="7.84204000">
 </trkpt>
 <trkpt lat="51.16816000" lon="7.84103000">
 </trkpt>
 <trkpt lat="51.16817000" lon="7.84063000">
 </trkpt>
 <trkpt lat="51.16899000" lon="7.84018000">
 </trkpt>
 <trkpt lat="51.16977000" lon="7.83978000">
 </trkpt>
 <trkpt lat="51.17020000" lon="7.83906000">
 </trkpt>
 <trkpt lat="51.17039000" lon="7.83844000">
 </trkpt>
 <trkpt lat="51.17047000" lon="7.83764000">
 </trkpt>
 <trkpt lat="51.17058000" lon="7.83706000">
 </trkpt>
 <trkpt lat="51.17092000" lon="7.83591000">
 </trkpt>
 <trkpt lat="51.17133000" lon="7.83416000">
 </trkpt>
 <trkpt lat="51.17137000" lon="7.83328000">
 </trkpt>
</trkseg>
</trk>

</gpx>
