<?xml version="1.0" encoding="UTF-8" standalone="no"?>
<gpx xmlns="http://www.topografix.com/GPX/1/1" creator="MapSource 6.16.3" version="1.1">

<trk>
  <name>NW 4.02*</name>
<trkseg>
 <trkpt lat="51.43965000" lon="6.86414000">
 </trkpt>
 <trkpt lat="51.43945000" lon="6.86407000">
 </trkpt>
 <trkpt lat="51.43833000" lon="6.86382000">
 </trkpt>
 <trkpt lat="51.43727000" lon="6.86355000">
 </trkpt>
 <trkpt lat="51.43706000" lon="6.86351000">
 </trkpt>
 <trkpt lat="51.43682000" lon="6.86349000">
 </trkpt>
 <trkpt lat="51.43625000" lon="6.86350000">
 </trkpt>
 <trkpt lat="51.43556000" lon="6.86368000">
 </trkpt>
 <trkpt lat="51.43518000" lon="6.86385000">
 </trkpt>
 <trkpt lat="51.43482000" lon="6.86406000">
 </trkpt>
 <trkpt lat="51.43446000" lon="6.86433000">
 </trkpt>
 <trkpt lat="51.43414000" lon="6.86458000">
 </trkpt>
 <trkpt lat="51.43393000" lon="6.86479000">
 </trkpt>
 <trkpt lat="51.43368000" lon="6.86513000">
 </trkpt>
 <trkpt lat="51.43320000" lon="6.86562000">
 </trkpt>
 <trkpt lat="51.43311000" lon="6.86580000">
 </trkpt>
 <trkpt lat="51.43304000" lon="6.86602000">
 </trkpt>
 <trkpt lat="51.43294000" lon="6.86620000">
 </trkpt>
 <trkpt lat="51.43277000" lon="6.86645000">
 </trkpt>
 <trkpt lat="51.43195000" lon="6.86753000">
 </trkpt>
 <trkpt lat="51.43219000" lon="6.86798000">
 </trkpt>
 <trkpt lat="51.43230000" lon="6.86809000">
 </trkpt>
 <trkpt lat="51.43231000" lon="6.86815000">
 </trkpt>
 <trkpt lat="51.43230000" lon="6.86823000">
 </trkpt>
 <trkpt lat="51.43226000" lon="6.86825000">
 </trkpt>
 <trkpt lat="51.43220000" lon="6.86824000">
 </trkpt>
 <trkpt lat="51.43215000" lon="6.86819000">
 </trkpt>
 <trkpt lat="51.43213000" lon="6.86811000">
 </trkpt>
 <trkpt lat="51.43214000" lon="6.86802000">
 </trkpt>
 <trkpt lat="51.43217000" lon="6.86793000">
 </trkpt>
 <trkpt lat="51.43223000" lon="6.86790000">
 </trkpt>
 <trkpt lat="51.43231000" lon="6.86790000">
 </trkpt>
 <trkpt lat="51.43237000" lon="6.86795000">
 </trkpt>
 <trkpt lat="51.43242000" lon="6.86802000">
 </trkpt>
 <trkpt lat="51.43244000" lon="6.86815000">
 </trkpt>
 <trkpt lat="51.43243000" lon="6.86828000">
 </trkpt>
 <trkpt lat="51.43234000" lon="6.86869000">
 </trkpt>
 <trkpt lat="51.43231000" lon="6.86914000">
 </trkpt>
 <trkpt lat="51.43241000" lon="6.87032000">
 </trkpt>
 <trkpt lat="51.43237000" lon="6.87073000">
 </trkpt>
 <trkpt lat="51.43224000" lon="6.87096000">
 </trkpt>
 <trkpt lat="51.43187000" lon="6.87170000">
 </trkpt>
 <trkpt lat="51.43173000" lon="6.87203000">
 </trkpt>
 <trkpt lat="51.43160000" lon="6.87222000">
 </trkpt>
 <trkpt lat="51.43145000" lon="6.87241000">
 </trkpt>
 <trkpt lat="51.43135000" lon="6.87259000">
 </trkpt>
 <trkpt lat="51.43131000" lon="6.87279000">
 </trkpt>
 <trkpt lat="51.43130000" lon="6.87303000">
 </trkpt>
 <trkpt lat="51.43125000" lon="6.87323000">
 </trkpt>
 <trkpt lat="51.43117000" lon="6.87338000">
 </trkpt>
 <trkpt lat="51.43086000" lon="6.87360000">
 </trkpt>
 <trkpt lat="51.43075000" lon="6.87372000">
 </trkpt>
 <trkpt lat="51.43067000" lon="6.87391000">
 </trkpt>
 <trkpt lat="51.43037000" lon="6.87423000">
 </trkpt>
 <trkpt lat="51.43023000" lon="6.87431000">
 </trkpt>
 <trkpt lat="51.43012000" lon="6.87448000">
 </trkpt>
 <trkpt lat="51.43011000" lon="6.87453000">
 </trkpt>
 <trkpt lat="51.42983000" lon="6.87434000">
 </trkpt>
 <trkpt lat="51.42974000" lon="6.87434000">
 </trkpt>
 <trkpt lat="51.42957000" lon="6.87442000">
 </trkpt>
 <trkpt lat="51.42946000" lon="6.87441000">
 </trkpt>
 <trkpt lat="51.42936000" lon="6.87434000">
 </trkpt>
 <trkpt lat="51.42927000" lon="6.87415000">
 </trkpt>
 <trkpt lat="51.42916000" lon="6.87382000">
 </trkpt>
 <trkpt lat="51.42893000" lon="6.87355000">
 </trkpt>
 <trkpt lat="51.42870000" lon="6.87354000">
 </trkpt>
 <trkpt lat="51.42870000" lon="6.87336000">
 </trkpt>
 <trkpt lat="51.42854000" lon="6.87316000">
 </trkpt>
 <trkpt lat="51.42832000" lon="6.87314000">
 </trkpt>
 <trkpt lat="51.42810000" lon="6.87283000">
 </trkpt>
 <trkpt lat="51.42805000" lon="6.87281000">
 </trkpt>
 <trkpt lat="51.42772000" lon="6.87230000">
 </trkpt>
 <trkpt lat="51.42776000" lon="6.87199000">
 </trkpt>
 <trkpt lat="51.42772000" lon="6.87177000">
 </trkpt>
 <trkpt lat="51.42763000" lon="6.87150000">
 </trkpt>
 <trkpt lat="51.42750000" lon="6.87130000">
 </trkpt>
 <trkpt lat="51.42738000" lon="6.87118000">
 </trkpt>
 <trkpt lat="51.42727000" lon="6.87099000">
 </trkpt>
 <trkpt lat="51.42718000" lon="6.87073000">
 </trkpt>
 <trkpt lat="51.42697000" lon="6.87022000">
 </trkpt>
 <trkpt lat="51.42639000" lon="6.87046000">
 </trkpt>
 <trkpt lat="51.42624000" lon="6.87057000">
 </trkpt>
 <trkpt lat="51.42607000" lon="6.87089000">
 </trkpt>
 <trkpt lat="51.42598000" lon="6.87102000">
 </trkpt>
 <trkpt lat="51.42580000" lon="6.87105000">
 </trkpt>
 <trkpt lat="51.42571000" lon="6.87113000">
 </trkpt>
 <trkpt lat="51.42562000" lon="6.87136000">
 </trkpt>
 <trkpt lat="51.42554000" lon="6.87139000">
 </trkpt>
 <trkpt lat="51.42544000" lon="6.87139000">
 </trkpt>
 <trkpt lat="51.42528000" lon="6.87134000">
 </trkpt>
 <trkpt lat="51.42500000" lon="6.87136000">
 </trkpt>
 <trkpt lat="51.42445000" lon="6.87143000">
 </trkpt>
 <trkpt lat="51.42232000" lon="6.87144000">
 </trkpt>
 <trkpt lat="51.42158000" lon="6.87143000">
 </trkpt>
 <trkpt lat="51.42119000" lon="6.87138000">
 </trkpt>
 <trkpt lat="51.42080000" lon="6.87129000">
 </trkpt>
 <trkpt lat="51.42003000" lon="6.87099000">
 </trkpt>
 <trkpt lat="51.41975000" lon="6.87083000">
 </trkpt>
 <trkpt lat="51.41946000" lon="6.87061000">
 </trkpt>
 <trkpt lat="51.41918000" lon="6.87032000">
 </trkpt>
 <trkpt lat="51.41882000" lon="6.86989000">
 </trkpt>
 <trkpt lat="51.41821000" lon="6.86952000">
 </trkpt>
 <trkpt lat="51.41787000" lon="6.86973000">
 </trkpt>
 <trkpt lat="51.41763000" lon="6.87045000">
 </trkpt>
 <trkpt lat="51.41729000" lon="6.87067000">
 </trkpt>
 <trkpt lat="51.41685000" lon="6.87090000">
 </trkpt>
 <trkpt lat="51.41665000" lon="6.87106000">
 </trkpt>
 <trkpt lat="51.41636000" lon="6.87149000">
 </trkpt>
 <trkpt lat="51.41619000" lon="6.87161000">
 </trkpt>
 <trkpt lat="51.41593000" lon="6.87172000">
 </trkpt>
 <trkpt lat="51.41579000" lon="6.87181000">
 </trkpt>
 <trkpt lat="51.41550000" lon="6.87211000">
 </trkpt>
 <trkpt lat="51.41524000" lon="6.87229000">
 </trkpt>
 <trkpt lat="51.41514000" lon="6.87225000">
 </trkpt>
 <trkpt lat="51.41455000" lon="6.87136000">
 </trkpt>
 <trkpt lat="51.41383000" lon="6.87204000">
 </trkpt>
 <trkpt lat="51.41215000" lon="6.87400000">
 </trkpt>
 <trkpt lat="51.41167000" lon="6.87458000">
 </trkpt>
 <trkpt lat="51.41127000" lon="6.87510000">
 </trkpt>
 <trkpt lat="51.41081000" lon="6.87554000">
 </trkpt>
 <trkpt lat="51.41029000" lon="6.87598000">
 </trkpt>
 <trkpt lat="51.40977000" lon="6.87654000">
 </trkpt>
 <trkpt lat="51.40953000" lon="6.87667000">
 </trkpt>
 <trkpt lat="51.40901000" lon="6.87654000">
 </trkpt>
 <trkpt lat="51.40771000" lon="6.87682000">
 </trkpt>
 <trkpt lat="51.40746000" lon="6.87702000">
 </trkpt>
 <trkpt lat="51.40715000" lon="6.87737000">
 </trkpt>
 <trkpt lat="51.40674000" lon="6.87687000">
 </trkpt>
 <trkpt lat="51.40676000" lon="6.87644000">
 </trkpt>
 <trkpt lat="51.40666000" lon="6.87644000">
 </trkpt>
 <trkpt lat="51.40432000" lon="6.88140000">
 </trkpt>
 <trkpt lat="51.40392000" lon="6.88211000">
 </trkpt>
 <trkpt lat="51.40362000" lon="6.88259000">
 </trkpt>
 <trkpt lat="51.40302000" lon="6.88342000">
 </trkpt>
 <trkpt lat="51.40268000" lon="6.88379000">
 </trkpt>
 <trkpt lat="51.40234000" lon="6.88410000">
 </trkpt>
 <trkpt lat="51.40192000" lon="6.88444000">
 </trkpt>
 <trkpt lat="51.40151000" lon="6.88473000">
 </trkpt>
 <trkpt lat="51.40110000" lon="6.88495000">
 </trkpt>
 <trkpt lat="51.40066000" lon="6.88516000">
 </trkpt>
 <trkpt lat="51.40027000" lon="6.88530000">
 </trkpt>
 <trkpt lat="51.40018000" lon="6.88540000">
 </trkpt>
 <trkpt lat="51.40019000" lon="6.88561000">
 </trkpt>
 <trkpt lat="51.40017000" lon="6.88580000">
 </trkpt>
 <trkpt lat="51.40011000" lon="6.88597000">
 </trkpt>
 <trkpt lat="51.39973000" lon="6.88656000">
 </trkpt>
 <trkpt lat="51.39956000" lon="6.88692000">
 </trkpt>
 <trkpt lat="51.39937000" lon="6.88746000">
 </trkpt>
 <trkpt lat="51.39929000" lon="6.88775000">
 </trkpt>
 <trkpt lat="51.39917000" lon="6.88800000">
 </trkpt>
 <trkpt lat="51.39877000" lon="6.88806000">
 </trkpt>
 <trkpt lat="51.39828000" lon="6.88809000">
 </trkpt>
 <trkpt lat="51.39774000" lon="6.88804000">
 </trkpt>
 <trkpt lat="51.39734000" lon="6.88803000">
 </trkpt>
 <trkpt lat="51.39686000" lon="6.88807000">
 </trkpt>
 <trkpt lat="51.39577000" lon="6.88822000">
 </trkpt>
 <trkpt lat="51.39512000" lon="6.88836000">
 </trkpt>
 <trkpt lat="51.39406000" lon="6.88865000">
 </trkpt>
 <trkpt lat="51.39383000" lon="6.88876000">
 </trkpt>
 <trkpt lat="51.39328000" lon="6.88909000">
 </trkpt>
 <trkpt lat="51.39299000" lon="6.88914000">
 </trkpt>
 <trkpt lat="51.39261000" lon="6.88918000">
 </trkpt>
 <trkpt lat="51.39163000" lon="6.88938000">
 </trkpt>
 <trkpt lat="51.39099000" lon="6.88953000">
 </trkpt>
 <trkpt lat="51.39046000" lon="6.88969000">
 </trkpt>
 <trkpt lat="51.39018000" lon="6.88982000">
 </trkpt>
 <trkpt lat="51.38979000" lon="6.89011000">
 </trkpt>
 <trkpt lat="51.38878000" lon="6.89079000">
 </trkpt>
 <trkpt lat="51.38781000" lon="6.89130000">
 </trkpt>
 <trkpt lat="51.38745000" lon="6.89154000">
 </trkpt>
 <trkpt lat="51.38714000" lon="6.89178000">
 </trkpt>
 <trkpt lat="51.38642000" lon="6.89250000">
 </trkpt>
 <trkpt lat="51.38491000" lon="6.89409000">
 </trkpt>
 <trkpt lat="51.38469000" lon="6.89417000">
 </trkpt>
 <trkpt lat="51.38410000" lon="6.89419000">
 </trkpt>
 <trkpt lat="51.38383000" lon="6.89422000">
 </trkpt>
 <trkpt lat="51.38355000" lon="6.89429000">
 </trkpt>
 <trkpt lat="51.38283000" lon="6.89467000">
 </trkpt>
 <trkpt lat="51.38254000" lon="6.89492000">
 </trkpt>
 <trkpt lat="51.38135000" lon="6.89614000">
 </trkpt>
 <trkpt lat="51.38028000" lon="6.89701000">
 </trkpt>
 <trkpt lat="51.37959000" lon="6.89585000">
 </trkpt>
 <trkpt lat="51.37950000" lon="6.89598000">
 </trkpt>
 <trkpt lat="51.37942000" lon="6.89621000">
 </trkpt>
 <trkpt lat="51.37925000" lon="6.89640000">
 </trkpt>
 <trkpt lat="51.37909000" lon="6.89649000">
 </trkpt>
 <trkpt lat="51.37898000" lon="6.89643000">
 </trkpt>
 <trkpt lat="51.37873000" lon="6.89603000">
 </trkpt>
 <trkpt lat="51.37840000" lon="6.89558000">
 </trkpt>
 <trkpt lat="51.37823000" lon="6.89530000">
 </trkpt>
 <trkpt lat="51.37744000" lon="6.89448000">
 </trkpt>
 <trkpt lat="51.37711000" lon="6.89477000">
 </trkpt>
 <trkpt lat="51.37655000" lon="6.89536000">
 </trkpt>
 <trkpt lat="51.37556000" lon="6.89659000">
 </trkpt>
 <trkpt lat="51.37507000" lon="6.89725000">
 </trkpt>
 <trkpt lat="51.37479000" lon="6.89755000">
 </trkpt>
 <trkpt lat="51.37442000" lon="6.89788000">
 </trkpt>
 <trkpt lat="51.37287000" lon="6.89923000">
 </trkpt>
 <trkpt lat="51.37175000" lon="6.90040000">
 </trkpt>
 <trkpt lat="51.37149000" lon="6.90071000">
 </trkpt>
 <trkpt lat="51.37137000" lon="6.90099000">
 </trkpt>
 <trkpt lat="51.37134000" lon="6.90124000">
 </trkpt>
 <trkpt lat="51.37137000" lon="6.90151000">
 </trkpt>
 <trkpt lat="51.37158000" lon="6.90241000">
 </trkpt>
 <trkpt lat="51.37192000" lon="6.90365000">
 </trkpt>
 <trkpt lat="51.37205000" lon="6.90437000">
 </trkpt>
 <trkpt lat="51.37219000" lon="6.90533000">
 </trkpt>
 <trkpt lat="51.37219000" lon="6.90550000">
 </trkpt>
 <trkpt lat="51.37213000" lon="6.90573000">
 </trkpt>
 <trkpt lat="51.37193000" lon="6.90621000">
 </trkpt>
 <trkpt lat="51.37129000" lon="6.90747000">
 </trkpt>
 <trkpt lat="51.37096000" lon="6.90825000">
 </trkpt>
 <trkpt lat="51.37005000" lon="6.91052000">
 </trkpt>
 <trkpt lat="51.36965000" lon="6.91149000">
 </trkpt>
 <trkpt lat="51.36934000" lon="6.91239000">
 </trkpt>
 <trkpt lat="51.36918000" lon="6.91293000">
 </trkpt>
 <trkpt lat="51.36899000" lon="6.91349000">
 </trkpt>
 <trkpt lat="51.36873000" lon="6.91408000">
 </trkpt>
 <trkpt lat="51.36858000" lon="6.91457000">
 </trkpt>
 <trkpt lat="51.36836000" lon="6.91558000">
 </trkpt>
 <trkpt lat="51.36688000" lon="6.92148000">
 </trkpt>
 <trkpt lat="51.36675000" lon="6.92187000">
 </trkpt>
 <trkpt lat="51.36631000" lon="6.92285000">
 </trkpt>
 <trkpt lat="51.36534000" lon="6.92461000">
 </trkpt>
 <trkpt lat="51.36505000" lon="6.92523000">
 </trkpt>
 <trkpt lat="51.36331000" lon="6.92966000">
 </trkpt>
 <trkpt lat="51.36236000" lon="6.93104000">
 </trkpt>
 <trkpt lat="51.36172000" lon="6.93191000">
 </trkpt>
 <trkpt lat="51.36114000" lon="6.93279000">
 </trkpt>
 <trkpt lat="51.36101000" lon="6.93294000">
 </trkpt>
 <trkpt lat="51.36092000" lon="6.93272000">
 </trkpt>
 <trkpt lat="51.36088000" lon="6.93222000">
 </trkpt>
 <trkpt lat="51.35960000" lon="6.93171000">
 </trkpt>
 <trkpt lat="51.35949000" lon="6.93207000">
 </trkpt>
 <trkpt lat="51.35931000" lon="6.93248000">
 </trkpt>
 <trkpt lat="51.35911000" lon="6.93277000">
 </trkpt>
</trkseg>
</trk>

</gpx>
