<?xml version="1.0" encoding="UTF-8" standalone="no" ?>
<gpx xmlns="http://www.topografix.com/GPX/1/1" creator="MapSource 6.16.3" version="1.1" xmlns:xsi="http://www.w3.org/2001/XMLSchema-instance" xsi:schemaLocation="http://www.topografix.com/GPX/1/1 http://www.topografix.com/GPX/1/1/gpx.xsd">

  <metadata>
    <link href="http://www.garmin.com">
      <text>Garmin International</text>
    </link>
    <time>2018-12-29T17:06:35Z</time>
    <bounds maxlat="51.04542151093483" maxlon="7.842154959216714" minlat="50.985218659043312" minlon="7.543208599090576"/>
  </metadata>

  <trk>
    <name>NW 4.21</name>
    <trkseg>
      <trkpt lat="50.985218659043312" lon="7.543208599090576">
        <ele>174.136</ele>
      </trkpt>
      <trkpt lat="50.985323097556829" lon="7.543593244627118">
        <ele>174.136</ele>
      </trkpt>
      <trkpt lat="50.985396355390549" lon="7.543815029785037">
        <ele>174.136</ele>
      </trkpt>
      <trkpt lat="50.98572769202292" lon="7.544850362464786">
        <ele>174.136</ele>
      </trkpt>
      <trkpt lat="50.986091550439596" lon="7.546098679304123">
        <ele>174.61699999999999</ele>
      </trkpt>
      <trkpt lat="50.986275281757116" lon="7.546690441668034">
        <ele>174.136</ele>
      </trkpt>
      <trkpt lat="50.986615335568786" lon="7.547681266441941">
        <ele>175.09700000000001</ele>
      </trkpt>
      <trkpt lat="50.986687839031219" lon="7.547857370227575">
        <ele>174.61699999999999</ele>
      </trkpt>
      <trkpt lat="50.987029820680618" lon="7.548585087060928">
        <ele>174.136</ele>
      </trkpt>
      <trkpt lat="50.987530890852213" lon="7.54923258908093">
        <ele>173.17500000000001</ele>
      </trkpt>
      <trkpt lat="50.987844876945019" lon="7.549582533538342">
        <ele>172.69399999999999</ele>
      </trkpt>
      <trkpt lat="50.987920816987753" lon="7.54974958486855">
        <ele>173.17500000000001</ele>
      </trkpt>
      <trkpt lat="50.988199599087238" lon="7.550200195983052">
        <ele>173.655</ele>
      </trkpt>
      <trkpt lat="50.988387353718281" lon="7.550595235079527">
        <ele>175.09700000000001</ele>
      </trkpt>
      <trkpt lat="50.988697567954659" lon="7.551037799566984">
        <ele>175.09700000000001</ele>
      </trkpt>
      <trkpt lat="50.988981295377016" lon="7.551914881914854">
        <ele>176.059</ele>
      </trkpt>
      <trkpt lat="50.989527376368642" lon="7.553574498742819">
        <ele>177.501</ele>
      </trkpt>
      <trkpt lat="50.989736672490835" lon="7.553478358313441">
        <ele>177.98099999999999</ele>
      </trkpt>
      <trkpt lat="50.990214021876454" lon="7.553526889532805">
        <ele>178.46199999999999</ele>
      </trkpt>
      <trkpt lat="50.990473860874772" lon="7.553501576185226">
        <ele>178.46199999999999</ele>
      </trkpt>
      <trkpt lat="50.990746188908815" lon="7.553378026932478">
        <ele>179.423</ele>
      </trkpt>
      <trkpt lat="50.990936290472746" lon="7.553244922310114">
        <ele>180.38499999999999</ele>
      </trkpt>
      <trkpt lat="50.991038298234344" lon="7.553507778793573">
        <ele>183.749</ele>
      </trkpt>
      <trkpt lat="50.991127733141184" lon="7.553865434601903">
        <ele>185.672</ele>
      </trkpt>
      <trkpt lat="50.991139551624656" lon="7.553988145664334">
        <ele>186.15199999999999</ele>
      </trkpt>
      <trkpt lat="50.991534842178226" lon="7.555371075868607">
        <ele>184.22999999999999</ele>
      </trkpt>
      <trkpt lat="50.991595191881061" lon="7.555734850466251">
        <ele>184.71100000000001</ele>
      </trkpt>
      <trkpt lat="50.9916777536273" lon="7.556811338290572">
        <ele>184.22999999999999</ele>
      </trkpt>
      <trkpt lat="50.991745982319117" lon="7.557514328509569">
        <ele>184.22999999999999</ele>
      </trkpt>
      <trkpt lat="50.991817647591233" lon="7.558408929035068">
        <ele>183.749</ele>
      </trkpt>
      <trkpt lat="50.991834327578545" lon="7.558665163815022">
        <ele>183.749</ele>
      </trkpt>
      <trkpt lat="50.991860227659345" lon="7.558915950357914">
        <ele>183.749</ele>
      </trkpt>
      <trkpt lat="50.991903562098742" lon="7.559669986367226">
        <ele>183.749</ele>
      </trkpt>
      <trkpt lat="50.991927282884717" lon="7.560006016865373">
        <ele>183.268</ele>
      </trkpt>
      <trkpt lat="50.991939771920443" lon="7.560267532244325">
        <ele>183.268</ele>
      </trkpt>
      <trkpt lat="50.991968773305416" lon="7.560766087844968">
        <ele>183.268</ele>
      </trkpt>
      <trkpt lat="50.991992577910423" lon="7.561027854681015">
        <ele>183.268</ele>
      </trkpt>
      <trkpt lat="50.992032056674361" lon="7.561657670885325">
        <ele>182.78800000000001</ele>
      </trkpt>
      <trkpt lat="50.992101961746812" lon="7.56205178797245">
        <ele>184.22999999999999</ele>
      </trkpt>
      <trkpt lat="50.992040522396564" lon="7.562255468219519">
        <ele>181.82599999999999</ele>
      </trkpt>
      <trkpt lat="50.992041528224945" lon="7.562324870377779">
        <ele>180.86500000000001</ele>
      </trkpt>
      <trkpt lat="50.992025854066014" lon="7.562659727409482">
        <ele>179.423</ele>
      </trkpt>
      <trkpt lat="50.992061393335462" lon="7.562909591943026">
        <ele>179.423</ele>
      </trkpt>
      <trkpt lat="50.992073630914092" lon="7.562973042950034">
        <ele>179.904</ele>
      </trkpt>
      <trkpt lat="50.992000875994563" lon="7.563246125355363">
        <ele>179.423</ele>
      </trkpt>
      <trkpt lat="50.991930216550827" lon="7.563558099791408">
        <ele>179.423</ele>
      </trkpt>
      <trkpt lat="50.991893084719777" lon="7.56362272426486">
        <ele>180.38499999999999</ele>
      </trkpt>
      <trkpt lat="50.991813791915774" lon="7.563760774210095">
        <ele>180.38499999999999</ele>
      </trkpt>
      <trkpt lat="50.991655541583896" lon="7.564132260158658">
        <ele>179.423</ele>
      </trkpt>
      <trkpt lat="50.991671634837985" lon="7.564680185168982">
        <ele>179.423</ele>
      </trkpt>
      <trkpt lat="50.991750257089734" lon="7.564784539863467">
        <ele>179.423</ele>
      </trkpt>
      <trkpt lat="50.991947818547487" lon="7.56513113155961">
        <ele>179.423</ele>
      </trkpt>
      <trkpt lat="50.992148984223604" lon="7.565773436799645">
        <ele>179.423</ele>
      </trkpt>
      <trkpt lat="50.99254553206265" lon="7.566544068977237">
        <ele>180.38499999999999</ele>
      </trkpt>
      <trkpt lat="50.992948617786169" lon="7.567798839882016">
        <ele>181.346</ele>
      </trkpt>
      <trkpt lat="50.993239134550095" lon="7.568731158971787">
        <ele>180.86500000000001</ele>
      </trkpt>
      <trkpt lat="50.993392523378134" lon="7.56912468932569">
        <ele>180.86500000000001</ele>
      </trkpt>
      <trkpt lat="50.993732158094645" lon="7.569669177755714">
        <ele>180.86500000000001</ele>
      </trkpt>
      <trkpt lat="50.993768787011504" lon="7.569679152220488">
        <ele>180.86500000000001</ele>
      </trkpt>
      <trkpt lat="50.993928965181112" lon="7.569688372313976">
        <ele>181.346</ele>
      </trkpt>
      <trkpt lat="50.994015131145716" lon="7.569582341238856">
        <ele>181.346</ele>
      </trkpt>
      <trkpt lat="50.99404907785356" lon="7.569630537182093">
        <ele>181.346</ele>
      </trkpt>
      <trkpt lat="50.994133986532688" lon="7.569758193567395">
        <ele>182.30699999999999</ele>
      </trkpt>
      <trkpt lat="50.994377732276917" lon="7.570137390866876">
        <ele>182.30699999999999</ele>
      </trkpt>
      <trkpt lat="50.994442524388433" lon="7.570217521861196">
        <ele>182.30699999999999</ele>
      </trkpt>
      <trkpt lat="50.99457236006856" lon="7.570338556542993">
        <ele>180.86500000000001</ele>
      </trkpt>
      <trkpt lat="50.994906546548009" lon="7.570730159059167">
        <ele>181.346</ele>
      </trkpt>
      <trkpt lat="50.995036549866199" lon="7.570860581472516">
        <ele>180.38499999999999</ele>
      </trkpt>
      <trkpt lat="50.995544660836458" lon="7.571415966376662">
        <ele>180.38499999999999</ele>
      </trkpt>
      <trkpt lat="50.996130555868149" lon="7.572063384577632">
        <ele>181.346</ele>
      </trkpt>
      <trkpt lat="50.996698597446084" lon="7.572388099506497">
        <ele>181.82599999999999</ele>
      </trkpt>
      <trkpt lat="50.997243337333202" lon="7.572543248534203">
        <ele>183.268</ele>
      </trkpt>
      <trkpt lat="50.997334448620677" lon="7.572551881894469">
        <ele>183.749</ele>
      </trkpt>
      <trkpt lat="50.997669557109475" lon="7.572508966550231">
        <ele>183.749</ele>
      </trkpt>
      <trkpt lat="50.998399537056684" lon="7.572200261056423">
        <ele>184.71100000000001</ele>
      </trkpt>
      <trkpt lat="50.998570946976542" lon="7.572117364034057">
        <ele>184.71100000000001</ele>
      </trkpt>
      <trkpt lat="50.99987056106329" lon="7.571192756295204">
        <ele>185.191</ele>
      </trkpt>
      <trkpt lat="51.000131824985147" lon="7.571045150980353">
        <ele>185.672</ele>
      </trkpt>
      <trkpt lat="51.000374397262931" lon="7.570887822657824">
        <ele>186.63300000000001</ele>
      </trkpt>
      <trkpt lat="51.000533318147063" lon="7.570850942283869">
        <ele>185.672</ele>
      </trkpt>
      <trkpt lat="51.000642366707325" lon="7.570899892598391">
        <ele>186.15199999999999</ele>
      </trkpt>
      <trkpt lat="51.000874545425177" lon="7.570958649739623">
        <ele>186.63300000000001</ele>
      </trkpt>
      <trkpt lat="51.000915449112654" lon="7.570964433252811">
        <ele>185.672</ele>
      </trkpt>
      <trkpt lat="51.00120454095304" lon="7.570823784917593">
        <ele>185.672</ele>
      </trkpt>
      <trkpt lat="51.001238068565726" lon="7.570834597572684">
        <ele>186.15199999999999</ele>
      </trkpt>
      <trkpt lat="51.001392882317305" lon="7.570920428261161">
        <ele>186.15199999999999</ele>
      </trkpt>
      <trkpt lat="51.001518694683909" lon="7.571002822369337">
        <ele>186.63300000000001</ele>
      </trkpt>
      <trkpt lat="51.001906441524625" lon="7.571336170658469">
        <ele>188.07499999999999</ele>
      </trkpt>
      <trkpt lat="51.002435255795717" lon="7.572532519698143">
        <ele>189.036</ele>
      </trkpt>
      <trkpt lat="51.002475321292877" lon="7.57270728237927">
        <ele>189.517</ele>
      </trkpt>
      <trkpt lat="51.00254044868052" lon="7.572960583493114">
        <ele>189.036</ele>
      </trkpt>
      <trkpt lat="51.002529636025429" lon="7.573041887953877">
        <ele>189.517</ele>
      </trkpt>
      <trkpt lat="51.002486553043127" lon="7.573384372517467">
        <ele>188.55600000000001</ele>
      </trkpt>
      <trkpt lat="51.00252527743578" lon="7.573969261720777">
        <ele>188.07499999999999</ele>
      </trkpt>
      <trkpt lat="51.002540197223425" lon="7.57415022701025">
        <ele>188.55600000000001</ele>
      </trkpt>
      <trkpt lat="51.002577999606729" lon="7.574377628043294">
        <ele>188.07499999999999</ele>
      </trkpt>
      <trkpt lat="51.002714540809393" lon="7.575028566643596">
        <ele>188.55600000000001</ele>
      </trkpt>
      <trkpt lat="51.002882095053792" lon="7.575810765847564">
        <ele>188.07499999999999</ele>
      </trkpt>
      <trkpt lat="51.003022827208042" lon="7.576583661139011">
        <ele>188.55600000000001</ele>
      </trkpt>
      <trkpt lat="51.003139168024063" lon="7.576816929504275">
        <ele>188.55600000000001</ele>
      </trkpt>
      <trkpt lat="51.003161631524563" lon="7.576991440728307">
        <ele>189.036</ele>
      </trkpt>
      <trkpt lat="51.003179987892509" lon="7.577224373817444">
        <ele>188.55600000000001</ele>
      </trkpt>
      <trkpt lat="51.003203541040421" lon="7.577835666015744">
        <ele>189.99799999999999</ele>
      </trkpt>
      <trkpt lat="51.003273278474808" lon="7.577984277158976">
        <ele>189.517</ele>
      </trkpt>
      <trkpt lat="51.003289120271802" lon="7.578187957406044">
        <ele>189.036</ele>
      </trkpt>
      <trkpt lat="51.003310745581985" lon="7.578466990962625">
        <ele>188.55600000000001</ele>
      </trkpt>
      <trkpt lat="51.003433875739574" lon="7.579429568722844">
        <ele>189.036</ele>
      </trkpt>
      <trkpt lat="51.00346639752388" lon="7.579698292538524">
        <ele>188.55600000000001</ele>
      </trkpt>
      <trkpt lat="51.003537140786648" lon="7.580528436228633">
        <ele>189.99799999999999</ele>
      </trkpt>
      <trkpt lat="51.003538481891155" lon="7.58097879588604">
        <ele>190.47800000000001</ele>
      </trkpt>
      <trkpt lat="51.003525489941239" lon="7.581465030089021">
        <ele>190.959</ele>
      </trkpt>
      <trkpt lat="51.003475533798337" lon="7.581970123574138">
        <ele>191.44</ele>
      </trkpt>
      <trkpt lat="51.003478886559606" lon="7.582012452185154">
        <ele>191.44</ele>
      </trkpt>
      <trkpt lat="51.003425661474466" lon="7.582246894016862">
        <ele>190.959</ele>
      </trkpt>
      <trkpt lat="51.003241091966629" lon="7.582789286971092">
        <ele>191.44</ele>
      </trkpt>
      <trkpt lat="51.003056271001697" lon="7.583379959687591">
        <ele>192.40100000000001</ele>
      </trkpt>
      <trkpt lat="51.002653269097209" lon="7.584596760571003">
        <ele>193.36199999999999</ele>
      </trkpt>
      <trkpt lat="51.002382030710578" lon="7.585672494024038">
        <ele>194.32400000000001</ele>
      </trkpt>
      <trkpt lat="51.00235914811492" lon="7.586222430691123">
        <ele>194.32400000000001</ele>
      </trkpt>
      <trkpt lat="51.002441961318254" lon="7.588270548731089">
        <ele>195.76599999999999</ele>
      </trkpt>
      <trkpt lat="51.002486888319254" lon="7.588899694383144">
        <ele>196.24600000000001</ele>
      </trkpt>
      <trkpt lat="51.002533156424761" lon="7.589692454785109">
        <ele>196.727</ele>
      </trkpt>
      <trkpt lat="51.002529552206397" lon="7.590136863291264">
        <ele>196.727</ele>
      </trkpt>
      <trkpt lat="51.00249158218503" lon="7.590512540191412">
        <ele>197.208</ele>
      </trkpt>
      <trkpt lat="51.002425868064165" lon="7.590950829908252">
        <ele>197.208</ele>
      </trkpt>
      <trkpt lat="51.002406589686871" lon="7.591065661981702">
        <ele>197.68799999999999</ele>
      </trkpt>
      <trkpt lat="51.00235034711659" lon="7.591452738270164">
        <ele>198.16900000000001</ele>
      </trkpt>
      <trkpt lat="51.00219058804214" lon="7.592409951612353">
        <ele>198.16900000000001</ele>
      </trkpt>
      <trkpt lat="51.002138117328286" lon="7.592834243550897">
        <ele>198.16900000000001</ele>
      </trkpt>
      <trkpt lat="51.002121940255165" lon="7.59316616691649">
        <ele>198.65000000000001</ele>
      </trkpt>
      <trkpt lat="51.002102075144649" lon="7.593402620404959">
        <ele>198.65000000000001</ele>
      </trkpt>
      <trkpt lat="51.002105847001076" lon="7.593824565410614">
        <ele>198.65000000000001</ele>
      </trkpt>
      <trkpt lat="51.002122443169355" lon="7.594335190951824">
        <ele>199.61099999999999</ele>
      </trkpt>
      <trkpt lat="51.002184385433793" lon="7.595318555831909">
        <ele>199.61099999999999</ele>
      </trkpt>
      <trkpt lat="51.002453276887536" lon="7.598149795085192">
        <ele>199.61099999999999</ele>
      </trkpt>
      <trkpt lat="51.002482529729605" lon="7.598417680710554">
        <ele>199.61099999999999</ele>
      </trkpt>
      <trkpt lat="51.002509687095881" lon="7.598901651799679">
        <ele>199.13</ele>
      </trkpt>
      <trkpt lat="51.002522092312574" lon="7.599086137488484">
        <ele>199.61099999999999</ele>
      </trkpt>
      <trkpt lat="51.002539023756981" lon="7.59935025125742">
        <ele>199.61099999999999</ele>
      </trkpt>
      <trkpt lat="51.00256685167551" lon="7.599679743871093">
        <ele>200.09200000000001</ele>
      </trkpt>
      <trkpt lat="51.0025829449296" lon="7.599889962002635">
        <ele>199.61099999999999</ele>
      </trkpt>
      <trkpt lat="51.002634577453136" lon="7.600539140403271">
        <ele>200.09200000000001</ele>
      </trkpt>
      <trkpt lat="51.002698950469494" lon="7.601152863353491">
        <ele>200.09200000000001</ele>
      </trkpt>
      <trkpt lat="51.002797018736601" lon="7.602090630680323">
        <ele>200.09200000000001</ele>
      </trkpt>
      <trkpt lat="51.002898188307881" lon="7.603227132931352">
        <ele>200.09200000000001</ele>
      </trkpt>
      <trkpt lat="51.002933727577329" lon="7.603587973862886">
        <ele>201.053</ele>
      </trkpt>
      <trkpt lat="51.002958957105875" lon="7.603808585554361">
        <ele>200.572</ele>
      </trkpt>
      <trkpt lat="51.003010338172317" lon="7.604386433959007">
        <ele>201.053</ele>
      </trkpt>
      <trkpt lat="51.003013523295522" lon="7.604622887447476">
        <ele>201.053</ele>
      </trkpt>
      <trkpt lat="51.002970188856125" lon="7.605565683916211">
        <ele>200.572</ele>
      </trkpt>
      <trkpt lat="51.002956358715892" lon="7.605841448530555">
        <ele>201.053</ele>
      </trkpt>
      <trkpt lat="51.002929955720901" lon="7.606812492012978">
        <ele>202.01400000000001</ele>
      </trkpt>
      <trkpt lat="51.002944791689515" lon="7.607875568792224">
        <ele>202.01400000000001</ele>
      </trkpt>
      <trkpt lat="51.002956442534924" lon="7.608077237382531">
        <ele>202.97499999999999</ele>
      </trkpt>
      <trkpt lat="51.002981336787343" lon="7.608324754983187">
        <ele>202.97499999999999</ele>
      </trkpt>
      <trkpt lat="51.003066580742598" lon="7.60879497975111">
        <ele>202.97499999999999</ele>
      </trkpt>
      <trkpt lat="51.003174455836415" lon="7.609197897836566">
        <ele>202.97499999999999</ele>
      </trkpt>
      <trkpt lat="51.003287192434072" lon="7.609529150649905">
        <ele>203.45599999999999</ele>
      </trkpt>
      <trkpt lat="51.003502020612359" lon="7.609906420111656">
        <ele>203.93700000000001</ele>
      </trkpt>
      <trkpt lat="51.003771331161261" lon="7.61029944755137">
        <ele>203.93700000000001</ele>
      </trkpt>
      <trkpt lat="51.003915332257748" lon="7.610488459467888">
        <ele>203.93700000000001</ele>
      </trkpt>
      <trkpt lat="51.004170477390289" lon="7.610862543806434">
        <ele>203.93700000000001</ele>
      </trkpt>
      <trkpt lat="51.004513716325164" lon="7.611318854615092">
        <ele>203.45599999999999</ele>
      </trkpt>
      <trkpt lat="51.004788978025317" lon="7.611733675003052">
        <ele>203.93700000000001</ele>
      </trkpt>
      <trkpt lat="51.005018390715122" lon="7.612160481512547">
        <ele>204.417</ele>
      </trkpt>
      <trkpt lat="51.005212347954512" lon="7.612575637176633">
        <ele>204.898</ele>
      </trkpt>
      <trkpt lat="51.005296837538481" lon="7.612795745953918">
        <ele>204.417</ele>
      </trkpt>
      <trkpt lat="51.005443017929792" lon="7.613215176388621">
        <ele>204.898</ele>
      </trkpt>
      <trkpt lat="51.00551082752645" lon="7.613590098917484">
        <ele>204.898</ele>
      </trkpt>
      <trkpt lat="51.005568578839302" lon="7.613920848816633">
        <ele>204.898</ele>
      </trkpt>
      <trkpt lat="51.005615433678031" lon="7.614372046664357">
        <ele>204.898</ele>
      </trkpt>
      <trkpt lat="51.005631443113089" lon="7.614461733028293">
        <ele>204.898</ele>
      </trkpt>
      <trkpt lat="51.00575759075582" lon="7.614567428827286">
        <ele>204.898</ele>
      </trkpt>
      <trkpt lat="51.005951883271337" lon="7.614579079672694">
        <ele>204.898</ele>
      </trkpt>
      <trkpt lat="51.005985243245959" lon="7.614653594791889">
        <ele>204.898</ele>
      </trkpt>
      <trkpt lat="51.006003767251968" lon="7.615313334390521">
        <ele>204.417</ele>
      </trkpt>
      <trkpt lat="51.006023632362485" lon="7.616184130311012">
        <ele>204.417</ele>
      </trkpt>
      <trkpt lat="51.006056154146791" lon="7.616834985092282">
        <ele>204.417</ele>
      </trkpt>
      <trkpt lat="51.006057327613235" lon="7.617243938148022">
        <ele>205.85900000000001</ele>
      </trkpt>
      <trkpt lat="51.006067553535104" lon="7.617488857358694">
        <ele>206.821</ele>
      </trkpt>
      <trkpt lat="51.006089178845286" lon="7.618307685479522">
        <ele>205.85900000000001</ele>
      </trkpt>
      <trkpt lat="51.006110636517406" lon="7.618698785081506">
        <ele>205.37899999999999</ele>
      </trkpt>
      <trkpt lat="51.006132178008556" lon="7.619726490229368">
        <ele>206.821</ele>
      </trkpt>
      <trkpt lat="51.006128238514066" lon="7.61995573528111">
        <ele>207.78200000000001</ele>
      </trkpt>
      <trkpt lat="51.00613184273243" lon="7.620160672813654">
        <ele>206.821</ele>
      </trkpt>
      <trkpt lat="51.005902849137783" lon="7.620233427733183">
        <ele>206.34</ele>
      </trkpt>
      <trkpt lat="51.005751471966505" lon="7.620272152125835">
        <ele>206.34</ele>
      </trkpt>
      <trkpt lat="51.005705622956157" lon="7.620444819331169">
        <ele>206.821</ele>
      </trkpt>
      <trkpt lat="51.005656672641635" lon="7.621398344635963">
        <ele>206.34</ele>
      </trkpt>
      <trkpt lat="51.005649045109749" lon="7.622153721749783">
        <ele>206.821</ele>
      </trkpt>
      <trkpt lat="51.005640998482704" lon="7.622204683721066">
        <ele>206.34</ele>
      </trkpt>
      <trkpt lat="51.005561370402575" lon="7.622211473062635">
        <ele>206.34</ele>
      </trkpt>
      <trkpt lat="51.005293568596244" lon="7.622135449200869">
        <ele>205.37899999999999</ele>
      </trkpt>
      <trkpt lat="51.005018725991249" lon="7.622090270742774">
        <ele>205.37899999999999</ele>
      </trkpt>
      <trkpt lat="51.004968099296093" lon="7.622207449749112">
        <ele>205.37899999999999</ele>
      </trkpt>
      <trkpt lat="51.005026521161199" lon="7.622541468590498">
        <ele>204.898</ele>
      </trkpt>
      <trkpt lat="51.005154764279723" lon="7.623074222356081">
        <ele>205.37899999999999</ele>
      </trkpt>
      <trkpt lat="51.005372945219278" lon="7.623762544244528">
        <ele>205.37899999999999</ele>
      </trkpt>
      <trkpt lat="51.005534548312426" lon="7.624188177287579">
        <ele>205.37899999999999</ele>
      </trkpt>
      <trkpt lat="51.005662875249982" lon="7.624420775100589">
        <ele>206.34</ele>
      </trkpt>
      <trkpt lat="51.00577175617218" lon="7.624581288546324">
        <ele>206.821</ele>
      </trkpt>
      <trkpt lat="51.006011562421918" lon="7.624953193590045">
        <ele>206.34</ele>
      </trkpt>
      <trkpt lat="51.006311299279332" lon="7.625302718952298">
        <ele>206.821</ele>
      </trkpt>
      <trkpt lat="51.006465274840593" lon="7.625431045889854">
        <ele>206.821</ele>
      </trkpt>
      <trkpt lat="51.006929464638233" lon="7.625751486048102">
        <ele>206.821</ele>
      </trkpt>
      <trkpt lat="51.007544947788119" lon="7.626197654753923">
        <ele>207.30099999999999</ele>
      </trkpt>
      <trkpt lat="51.007880140095949" lon="7.626462522894144">
        <ele>207.78200000000001</ele>
      </trkpt>
      <trkpt lat="51.008113659918308" lon="7.626664945855737">
        <ele>208.74299999999999</ele>
      </trkpt>
      <trkpt lat="51.008385987952352" lon="7.626972477883101">
        <ele>208.26300000000001</ele>
      </trkpt>
      <trkpt lat="51.008409792557359" lon="7.62699443846941">
        <ele>208.74299999999999</ele>
      </trkpt>
      <trkpt lat="51.008527474477887" lon="7.627136763185263">
        <ele>208.74299999999999</ele>
      </trkpt>
      <trkpt lat="51.008832827210426" lon="7.627453934401274">
        <ele>209.70500000000001</ele>
      </trkpt>
      <trkpt lat="51.009150585159659" lon="7.627955339848995">
        <ele>209.22399999999999</ele>
      </trkpt>
      <trkpt lat="51.009463565424085" lon="7.628497229889035">
        <ele>209.70500000000001</ele>
      </trkpt>
      <trkpt lat="51.009635981172323" lon="7.62882437556982">
        <ele>211.14699999999999</ele>
      </trkpt>
      <trkpt lat="51.009734552353621" lon="7.629016321152449">
        <ele>210.185</ele>
      </trkpt>
      <trkpt lat="51.009946027770638" lon="7.629683269187808">
        <ele>210.185</ele>
      </trkpt>
      <trkpt lat="51.010100757703185" lon="7.630425738170743">
        <ele>209.70500000000001</ele>
      </trkpt>
      <trkpt lat="51.010138895362616" lon="7.630718098953366">
        <ele>210.185</ele>
      </trkpt>
      <trkpt lat="51.010288428515196" lon="7.631456293165684">
        <ele>210.666</ele>
      </trkpt>
      <trkpt lat="51.010415749624372" lon="7.631881842389703">
        <ele>212.108</ele>
      </trkpt>
      <trkpt lat="51.010652286931872" lon="7.632624730467796">
        <ele>212.108</ele>
      </trkpt>
      <trkpt lat="51.010736022144556" lon="7.632874930277467">
        <ele>212.108</ele>
      </trkpt>
      <trkpt lat="51.010892344638705" lon="7.633322859182954">
        <ele>212.108</ele>
      </trkpt>
      <trkpt lat="51.011042129248381" lon="7.633795766159892">
        <ele>212.108</ele>
      </trkpt>
      <trkpt lat="51.01118428632617" lon="7.634193571284413">
        <ele>212.108</ele>
      </trkpt>
      <trkpt lat="51.011252598837018" lon="7.634393144398928">
        <ele>212.589</ele>
      </trkpt>
      <trkpt lat="51.011529788374901" lon="7.635192023590207">
        <ele>213.06899999999999</ele>
      </trkpt>
      <trkpt lat="51.011584270745516" lon="7.635359494015575">
        <ele>213.55000000000001</ele>
      </trkpt>
      <trkpt lat="51.011637579649687" lon="7.635536855086684">
        <ele>214.99199999999999</ele>
      </trkpt>
      <trkpt lat="51.011686949059367" lon="7.635694853961468">
        <ele>213.55000000000001</ele>
      </trkpt>
      <trkpt lat="51.01188107393682" lon="7.636170359328389">
        <ele>214.511</ele>
      </trkpt>
      <trkpt lat="51.011956091970205" lon="7.636344032362104">
        <ele>214.03100000000001</ele>
      </trkpt>
      <trkpt lat="51.012252727523446" lon="7.636940237134695">
        <ele>214.03100000000001</ele>
      </trkpt>
      <trkpt lat="51.0126350261271" lon="7.637715395539999">
        <ele>215.47300000000001</ele>
      </trkpt>
      <trkpt lat="51.012855134904385" lon="7.638170784339309">
        <ele>215.47300000000001</ele>
      </trkpt>
      <trkpt lat="51.012937193736434" lon="7.638344038277865">
        <ele>215.47300000000001</ele>
      </trkpt>
      <trkpt lat="51.013213796541095" lon="7.638955498114228">
        <ele>215.47300000000001</ele>
      </trkpt>
      <trkpt lat="51.013571117073298" lon="7.639727471396327">
        <ele>215.953</ele>
      </trkpt>
      <trkpt lat="51.013870351016521" lon="7.640370279550552">
        <ele>216.91499999999999</ele>
      </trkpt>
      <trkpt lat="51.014169249683619" lon="7.640946954488754">
        <ele>217.39500000000001</ele>
      </trkpt>
      <trkpt lat="51.014414923265576" lon="7.641348447650671">
        <ele>217.39500000000001</ele>
      </trkpt>
      <trkpt lat="51.014589350670576" lon="7.64160786755383">
        <ele>217.39500000000001</ele>
      </trkpt>
      <trkpt lat="51.014688089489937" lon="7.641746252775192">
        <ele>217.876</ele>
      </trkpt>
      <trkpt lat="51.014983048662543" lon="7.642151936888695">
        <ele>217.876</ele>
      </trkpt>
      <trkpt lat="51.015387056395411" lon="7.642704891040921">
        <ele>218.357</ele>
      </trkpt>
      <trkpt lat="51.015586461871862" lon="7.642994653433561">
        <ele>217.876</ele>
      </trkpt>
      <trkpt lat="51.015913272276521" lon="7.643512990325689">
        <ele>218.357</ele>
      </trkpt>
      <trkpt lat="51.016301857307553" lon="7.644076086580753">
        <ele>218.83699999999999</ele>
      </trkpt>
      <trkpt lat="51.016657166182995" lon="7.644559219479561">
        <ele>219.79900000000001</ele>
      </trkpt>
      <trkpt lat="51.016841735690832" lon="7.644756780937314">
        <ele>219.79900000000001</ele>
      </trkpt>
      <trkpt lat="51.016982384026051" lon="7.644919641315937">
        <ele>218.83699999999999</ele>
      </trkpt>
      <trkpt lat="51.017252616584301" lon="7.645241841673851">
        <ele>219.31800000000001</ele>
      </trkpt>
      <trkpt lat="51.018539993092418" lon="7.646465850993991">
        <ele>221.24100000000001</ele>
      </trkpt>
      <trkpt lat="51.018870575353503" lon="7.646867092698813">
        <ele>221.721</ele>
      </trkpt>
      <trkpt lat="51.019208282232285" lon="7.647492047399283">
        <ele>221.24100000000001</ele>
      </trkpt>
      <trkpt lat="51.019380278885365" lon="7.647974761202931">
        <ele>221.721</ele>
      </trkpt>
      <trkpt lat="51.019451776519418" lon="7.648251950740814">
        <ele>222.202</ele>
      </trkpt>
      <trkpt lat="51.019504247233272" lon="7.648497791960836">
        <ele>222.202</ele>
      </trkpt>
      <trkpt lat="51.019545821473002" lon="7.64875503256917">
        <ele>222.202</ele>
      </trkpt>
      <trkpt lat="51.019552191719413" lon="7.648816471919417">
        <ele>218.83699999999999</ele>
      </trkpt>
      <trkpt lat="51.019445825368166" lon="7.648933986201882">
        <ele>219.31800000000001</ele>
      </trkpt>
      <trkpt lat="51.0192178376019" lon="7.648990144953132">
        <ele>219.31800000000001</ele>
      </trkpt>
      <trkpt lat="51.019163774326444" lon="7.649247637018561">
        <ele>219.79900000000001</ele>
      </trkpt>
      <trkpt lat="51.019192356616259" lon="7.649295665323734">
        <ele>220.279</ele>
      </trkpt>
      <trkpt lat="51.019258992746472" lon="7.649396667256951">
        <ele>219.31800000000001</ele>
      </trkpt>
      <trkpt lat="51.019378518685699" lon="7.649497333914042">
        <ele>219.79900000000001</ele>
      </trkpt>
      <trkpt lat="51.019548922777176" lon="7.649880889803171">
        <ele>220.279</ele>
      </trkpt>
      <trkpt lat="51.019648164510727" lon="7.650540629401803">
        <ele>221.24100000000001</ele>
      </trkpt>
      <trkpt lat="51.019666772335768" lon="7.650700891390443">
        <ele>220.279</ele>
      </trkpt>
      <trkpt lat="51.019703317433596" lon="7.651056786999106">
        <ele>220.279</ele>
      </trkpt>
      <trkpt lat="51.019716393202543" lon="7.651316793635488">
        <ele>220.279</ele>
      </trkpt>
      <trkpt lat="51.019667945802212" lon="7.652326645329595">
        <ele>220.75999999999999</ele>
      </trkpt>
      <trkpt lat="51.019625784829259" lon="7.652546921744943">
        <ele>220.279</ele>
      </trkpt>
      <trkpt lat="51.019649170339108" lon="7.652929052710533">
        <ele>220.279</ele>
      </trkpt>
      <trkpt lat="51.019618827849627" lon="7.654105871915817">
        <ele>220.279</ele>
      </trkpt>
      <trkpt lat="51.019510785117745" lon="7.654445255175233">
        <ele>221.24100000000001</ele>
      </trkpt>
      <trkpt lat="51.019458398222923" lon="7.654528152197599">
        <ele>220.75999999999999</ele>
      </trkpt>
      <trkpt lat="51.019351948052645" lon="7.65468162484467">
        <ele>221.721</ele>
      </trkpt>
      <trkpt lat="51.019363766536117" lon="7.654902655631304">
        <ele>221.721</ele>
      </trkpt>
      <trkpt lat="51.019396036863327" lon="7.655101893469691">
        <ele>222.202</ele>
      </trkpt>
      <trkpt lat="51.019534086808562" lon="7.655426692217588">
        <ele>221.721</ele>
      </trkpt>
      <trkpt lat="51.019639363512397" lon="7.656222134828568">
        <ele>222.202</ele>
      </trkpt>
      <trkpt lat="51.019655372947454" lon="7.656811634078622">
        <ele>222.202</ele>
      </trkpt>
      <trkpt lat="51.019750591367483" lon="7.657419238239527">
        <ele>222.68199999999999</ele>
      </trkpt>
      <trkpt lat="51.019969275221229" lon="7.658434789627791">
        <ele>223.64400000000001</ele>
      </trkpt>
      <trkpt lat="51.020321566611528" lon="7.659679166972637">
        <ele>225.08600000000001</ele>
      </trkpt>
      <trkpt lat="51.02061728015542" lon="7.660757917910814">
        <ele>227.489</ele>
      </trkpt>
      <trkpt lat="51.020828085020185" lon="7.662066081538796">
        <ele>229.41200000000001</ele>
      </trkpt>
      <trkpt lat="51.020842250436544" lon="7.662187283858657">
        <ele>229.892</ele>
      </trkpt>
      <trkpt lat="51.021108124405146" lon="7.663794849067926">
        <ele>231.815</ele>
      </trkpt>
      <trkpt lat="51.021251957863569" lon="7.66446397639811">
        <ele>232.77600000000001</ele>
      </trkpt>
      <trkpt lat="51.021466953679919" lon="7.665421357378364">
        <ele>234.21799999999999</ele>
      </trkpt>
      <trkpt lat="51.021598633378744" lon="7.666089059785008">
        <ele>234.21799999999999</ele>
      </trkpt>
      <trkpt lat="51.021714638918638" lon="7.66699455678463">
        <ele>235.18000000000001</ele>
      </trkpt>
      <trkpt lat="51.021768450737" lon="7.667698385193944">
        <ele>236.14099999999999</ele>
      </trkpt>
      <trkpt lat="51.021776329725981" lon="7.668365836143494">
        <ele>237.583</ele>
      </trkpt>
      <trkpt lat="51.021776581183076" lon="7.669447688385844">
        <ele>238.06399999999999</ele>
      </trkpt>
      <trkpt lat="51.021824860945344" lon="7.670424683019519">
        <ele>239.505</ele>
      </trkpt>
      <trkpt lat="51.02196441963315" lon="7.671759082004428">
        <ele>240.46700000000001</ele>
      </trkpt>
      <trkpt lat="51.022089645266533" lon="7.672899523749948">
        <ele>242.38999999999999</ele>
      </trkpt>
      <trkpt lat="51.022171536460519" lon="7.67376353032887">
        <ele>243.351</ele>
      </trkpt>
      <trkpt lat="51.022170446813107" lon="7.67457858659327">
        <ele>243.83199999999999</ele>
      </trkpt>
      <trkpt lat="51.022112444043159" lon="7.675035484135151">
        <ele>244.31200000000001</ele>
      </trkpt>
      <trkpt lat="51.022070283070207" lon="7.67532859928906">
        <ele>243.83199999999999</ele>
      </trkpt>
      <trkpt lat="51.02192779071629" lon="7.675933772698045">
        <ele>245.75399999999999</ele>
      </trkpt>
      <trkpt lat="51.021710280328989" lon="7.67653408460319">
        <ele>246.23500000000001</ele>
      </trkpt>
      <trkpt lat="51.021333681419492" lon="7.67733003012836">
        <ele>247.196</ele>
      </trkpt>
      <trkpt lat="51.021050121635199" lon="7.6779202837497">
        <ele>248.63800000000001</ele>
      </trkpt>
      <trkpt lat="51.020727837458253" lon="7.678601145744324">
        <ele>249.59899999999999</ele>
      </trkpt>
      <trkpt lat="51.02047017775476" lon="7.679229537025094">
        <ele>250.08000000000001</ele>
      </trkpt>
      <trkpt lat="51.0203074850142" lon="7.680010478943586">
        <ele>251.52199999999999</ele>
      </trkpt>
      <trkpt lat="51.020268341526389" lon="7.680391268804669">
        <ele>251.52199999999999</ele>
      </trkpt>
      <trkpt lat="51.020259959623218" lon="7.681136755272746">
        <ele>252.00299999999999</ele>
      </trkpt>
      <trkpt lat="51.020376048982143" lon="7.682036636397243">
        <ele>252.964</ele>
      </trkpt>
      <trkpt lat="51.020610239356756" lon="7.682789247483015">
        <ele>252.964</ele>
      </trkpt>
      <trkpt lat="51.020870162174106" lon="7.683295598253608">
        <ele>253.92500000000001</ele>
      </trkpt>
      <trkpt lat="51.021019443869591" lon="7.683509588241577">
        <ele>253.92500000000001</ele>
      </trkpt>
      <trkpt lat="51.021125726401806" lon="7.683653924614191">
        <ele>254.40600000000001</ele>
      </trkpt>
      <trkpt lat="51.021427642554045" lon="7.68397394567728">
        <ele>254.887</ele>
      </trkpt>
      <trkpt lat="51.021929383277893" lon="7.684275861829519">
        <ele>255.36699999999999</ele>
      </trkpt>
      <trkpt lat="51.022366331890225" lon="7.684383988380432">
        <ele>255.84800000000001</ele>
      </trkpt>
      <trkpt lat="51.022850135341287" lon="7.684424389153719">
        <ele>257.29000000000002</ele>
      </trkpt>
      <trkpt lat="51.023189686238766" lon="7.68445523455739">
        <ele>257.77100000000002</ele>
      </trkpt>
      <trkpt lat="51.023695450276136" lon="7.684515584260225">
        <ele>259.21300000000002</ele>
      </trkpt>
      <trkpt lat="51.024030223488808" lon="7.684652963653207">
        <ele>259.69299999999998</ele>
      </trkpt>
      <trkpt lat="51.024412019178271" lon="7.684906516224146">
        <ele>260.65499999999997</ele>
      </trkpt>
      <trkpt lat="51.024975618347526" lon="7.68555074930191">
        <ele>262.09699999999998</ele>
      </trkpt>
      <trkpt lat="51.025555981323123" lon="7.686383491382003">
        <ele>263.53899999999999</ele>
      </trkpt>
      <trkpt lat="51.025935932993889" lon="7.686952287331224">
        <ele>264.98099999999999</ele>
      </trkpt>
      <trkpt lat="51.026247655972838" lon="7.687471462413669">
        <ele>265.46100000000001</ele>
      </trkpt>
      <trkpt lat="51.026562564074993" lon="7.688117288053036">
        <ele>266.90300000000002</ele>
      </trkpt>
      <trkpt lat="51.026933379471302" lon="7.688868390396237">
        <ele>267.86500000000001</ele>
      </trkpt>
      <trkpt lat="51.027444172650576" lon="7.689669281244278">
        <ele>268.82600000000002</ele>
      </trkpt>
      <trkpt lat="51.027731085196137" lon="7.690091729164124">
        <ele>269.30700000000002</ele>
      </trkpt>
      <trkpt lat="51.028201477602124" lon="7.690722718834877">
        <ele>268.82600000000002</ele>
      </trkpt>
      <trkpt lat="51.028392920270562" lon="7.691188668832183">
        <ele>268.82600000000002</ele>
      </trkpt>
      <trkpt lat="51.028652926906943" lon="7.69151983782649">
        <ele>269.30700000000002</ele>
      </trkpt>
      <trkpt lat="51.029260363429785" lon="7.692220481112599">
        <ele>269.30700000000002</ele>
      </trkpt>
      <trkpt lat="51.029771491885185" lon="7.69286647439003">
        <ele>268.82600000000002</ele>
      </trkpt>
      <trkpt lat="51.029916498810053" lon="7.692912239581347">
        <ele>269.30700000000002</ele>
      </trkpt>
      <trkpt lat="51.030305167660117" lon="7.693308619782329">
        <ele>269.30700000000002</ele>
      </trkpt>
      <trkpt lat="51.030645221471786" lon="7.693744981661439">
        <ele>270.26799999999997</ele>
      </trkpt>
      <trkpt lat="51.030992148444057" lon="7.694308832287788">
        <ele>271.22899999999998</ele>
      </trkpt>
      <trkpt lat="51.031299429014325" lon="7.695058174431324">
        <ele>272.67099999999999</ele>
      </trkpt>
      <trkpt lat="51.031560860574245" lon="7.695871219038963">
        <ele>274.113</ele>
      </trkpt>
      <trkpt lat="51.031812652945518" lon="7.696680659428239">
        <ele>276.036</ele>
      </trkpt>
      <trkpt lat="51.032025637105107" lon="7.697159936651588">
        <ele>276.99700000000001</ele>
      </trkpt>
      <trkpt lat="51.032189419493079" lon="7.697579870000482">
        <ele>277.95800000000003</ele>
      </trkpt>
      <trkpt lat="51.0323765873909" lon="7.698006592690945">
        <ele>279.39999999999998</ele>
      </trkpt>
      <trkpt lat="51.032762825489044" lon="7.698435075581074">
        <ele>280.84199999999998</ele>
      </trkpt>
      <trkpt lat="51.032905234023929" lon="7.698509339243174">
        <ele>280.84199999999998</ele>
      </trkpt>
      <trkpt lat="51.033371770754457" lon="7.698740093037486">
        <ele>282.28399999999999</ele>
      </trkpt>
      <trkpt lat="51.033692630007863" lon="7.698868336156011">
        <ele>282.76499999999999</ele>
      </trkpt>
      <trkpt lat="51.034135445952415" lon="7.698934385553002">
        <ele>283.726</ele>
      </trkpt>
      <trkpt lat="51.034622518345714" lon="7.698892643675208">
        <ele>284.68799999999999</ele>
      </trkpt>
      <trkpt lat="51.035191230475903" lon="7.69866943359375">
        <ele>287.09100000000001</ele>
      </trkpt>
      <trkpt lat="51.035325843840837" lon="7.698592152446508">
        <ele>288.05200000000002</ele>
      </trkpt>
      <trkpt lat="51.035745358094573" lon="7.698388639837503">
        <ele>289.01400000000001</ele>
      </trkpt>
      <trkpt lat="51.035950379446149" lon="7.69831026904285">
        <ele>288.53300000000002</ele>
      </trkpt>
      <trkpt lat="51.036261934787035" lon="7.698179762810469">
        <ele>289.49400000000003</ele>
      </trkpt>
      <trkpt lat="51.036547338590026" lon="7.698109187185764">
        <ele>290.45600000000002</ele>
      </trkpt>
      <trkpt lat="51.036779433488846" lon="7.69810407422483">
        <ele>290.93599999999998</ele>
      </trkpt>
      <trkpt lat="51.037108087912202" lon="7.698117988184094">
        <ele>291.89699999999999</ele>
      </trkpt>
      <trkpt lat="51.037526931613684" lon="7.698260145261884">
        <ele>292.85899999999998</ele>
      </trkpt>
      <trkpt lat="51.037798337638378" lon="7.698408588767052">
        <ele>293.81999999999999</ele>
      </trkpt>
      <trkpt lat="51.038176193833351" lon="7.698705643415451">
        <ele>295.262</ele>
      </trkpt>
      <trkpt lat="51.038597384467721" lon="7.699232278391719">
        <ele>296.22399999999999</ele>
      </trkpt>
      <trkpt lat="51.03883383795619" lon="7.699639219790697">
        <ele>298.14600000000002</ele>
      </trkpt>
      <trkpt lat="51.039108261466026" lon="7.700283955782652">
        <ele>299.10700000000003</ele>
      </trkpt>
      <trkpt lat="51.039287466555834" lon="7.700931876897812">
        <ele>301.51100000000002</ele>
      </trkpt>
      <trkpt lat="51.039428617805243" lon="7.701549287885428">
        <ele>302.47199999999998</ele>
      </trkpt>
      <trkpt lat="51.039581336081028" lon="7.702282285317779">
        <ele>303.43299999999999</ele>
      </trkpt>
      <trkpt lat="51.03971041738987" lon="7.703388780355454">
        <ele>304.875</ele>
      </trkpt>
      <trkpt lat="51.039787195622921" lon="7.704125130549073">
        <ele>305.83699999999999</ele>
      </trkpt>
      <trkpt lat="51.03982918895781" lon="7.704411372542381">
        <ele>306.31700000000001</ele>
      </trkpt>
      <trkpt lat="51.039856346324086" lon="7.704664673656225">
        <ele>306.798</ele>
      </trkpt>
      <trkpt lat="51.039896328002214" lon="7.705118888989091">
        <ele>306.798</ele>
      </trkpt>
      <trkpt lat="51.039958773180842" lon="7.705619791522622">
        <ele>308.24000000000001</ele>
      </trkpt>
      <trkpt lat="51.040065558627248" lon="7.706366032361984">
        <ele>309.68200000000002</ele>
      </trkpt>
      <trkpt lat="51.040158597752452" lon="7.707067178562284">
        <ele>311.12400000000002</ele>
      </trkpt>
      <trkpt lat="51.040209894999862" lon="7.707764888182282">
        <ele>313.04700000000003</ele>
      </trkpt>
      <trkpt lat="51.040201680734754" lon="7.708254558965564">
        <ele>314.00799999999998</ele>
      </trkpt>
      <trkpt lat="51.040189191699028" lon="7.708392022177577">
        <ele>314.488</ele>
      </trkpt>
      <trkpt lat="51.040112245827913" lon="7.709042457863689">
        <ele>315.44999999999999</ele>
      </trkpt>
      <trkpt lat="51.040028342977166" lon="7.709483429789543">
        <ele>315.93000000000001</ele>
      </trkpt>
      <trkpt lat="51.039832374081016" lon="7.710137469694018">
        <ele>316.892</ele>
      </trkpt>
      <trkpt lat="51.039649229496717" lon="7.710586739704013">
        <ele>317.85300000000001</ele>
      </trkpt>
      <trkpt lat="51.039539929479361" lon="7.710844734683633">
        <ele>318.334</ele>
      </trkpt>
      <trkpt lat="51.039468264207244" lon="7.71102343685925">
        <ele>318.334</ele>
      </trkpt>
      <trkpt lat="51.039435658603907" lon="7.711106166243553">
        <ele>317.85300000000001</ele>
      </trkpt>
      <trkpt lat="51.03938109241426" lon="7.711242875084281">
        <ele>317.85300000000001</ele>
      </trkpt>
      <trkpt lat="51.039208844304085" lon="7.711614696308971">
        <ele>318.334</ele>
      </trkpt>
      <trkpt lat="51.039140280336142" lon="7.711792895570397">
        <ele>318.334</ele>
      </trkpt>
      <trkpt lat="51.03906249627471" lon="7.711984338238835">
        <ele>318.81400000000002</ele>
      </trkpt>
      <trkpt lat="51.038998458534479" lon="7.712153736501932">
        <ele>319.29500000000002</ele>
      </trkpt>
      <trkpt lat="51.038886224851012" lon="7.712564030662179">
        <ele>320.25599999999997</ele>
      </trkpt>
      <trkpt lat="51.038769297301769" lon="7.713146572932601">
        <ele>323.13999999999999</ele>
      </trkpt>
      <trkpt lat="51.038708863779902" lon="7.713653426617384">
        <ele>324.10199999999998</ele>
      </trkpt>
      <trkpt lat="51.038694866001606" lon="7.7140480466187">
        <ele>325.06299999999999</ele>
      </trkpt>
      <trkpt lat="51.038751443848014" lon="7.715056054294109">
        <ele>326.505</ele>
      </trkpt>
      <trkpt lat="51.038843225687742" lon="7.715561483055353">
        <ele>327.46600000000001</ele>
      </trkpt>
      <trkpt lat="51.038973480463028" lon="7.716132961213589">
        <ele>328.90800000000002</ele>
      </trkpt>
      <trkpt lat="51.039122343063354" lon="7.716507548466325">
        <ele>329.38900000000001</ele>
      </trkpt>
      <trkpt lat="51.039255950599909" lon="7.716834358870983">
        <ele>329.87</ele>
      </trkpt>
      <trkpt lat="51.03950371965766" lon="7.717227637767792">
        <ele>330.35000000000002</ele>
      </trkpt>
      <trkpt lat="51.039738748222589" lon="7.717573642730713">
        <ele>331.31200000000001</ele>
      </trkpt>
      <trkpt lat="51.040168739855289" lon="7.718066917732358">
        <ele>333.23399999999998</ele>
      </trkpt>
      <trkpt lat="51.040653884410858" lon="7.718641748651862">
        <ele>334.67599999999999</ele>
      </trkpt>
      <trkpt lat="51.0408831294626" lon="7.718909466639161">
        <ele>335.637</ele>
      </trkpt>
      <trkpt lat="51.041158642619848" lon="7.71925094537437">
        <ele>336.11799999999999</ele>
      </trkpt>
      <trkpt lat="51.041416972875595" lon="7.719617066904903">
        <ele>338.041</ele>
      </trkpt>
      <trkpt lat="51.041719559580088" lon="7.720189383253455">
        <ele>338.52100000000002</ele>
      </trkpt>
      <trkpt lat="51.04195274412632" lon="7.720795897766948">
        <ele>339.483</ele>
      </trkpt>
      <trkpt lat="51.042131278663874" lon="7.721299398690462">
        <ele>340.92500000000001</ele>
      </trkpt>
      <trkpt lat="51.042306963354349" lon="7.721854783594608">
        <ele>341.88600000000002</ele>
      </trkpt>
      <trkpt lat="51.042519276961684" lon="7.72250765003264">
        <ele>344.28899999999999</ele>
      </trkpt>
      <trkpt lat="51.042741648852825" lon="7.723188679665327">
        <ele>345.25099999999998</ele>
      </trkpt>
      <trkpt lat="51.042840555310249" lon="7.723564691841602">
        <ele>346.69299999999998</ele>
      </trkpt>
      <trkpt lat="51.042950274422765" lon="7.724133571609855">
        <ele>347.173</ele>
      </trkpt>
      <trkpt lat="51.043020766228437" lon="7.724642353132367">
        <ele>347.654</ele>
      </trkpt>
      <trkpt lat="51.043058820068836" lon="7.725350791588426">
        <ele>349.096</ele>
      </trkpt>
      <trkpt lat="51.04307072237134" lon="7.726167188957334">
        <ele>350.05700000000002</ele>
      </trkpt>
      <trkpt lat="51.043085055425763" lon="7.726866574957967">
        <ele>351.49900000000002</ele>
      </trkpt>
      <trkpt lat="51.043090084567666" lon="7.727124989032745">
        <ele>351.49900000000002</ele>
      </trkpt>
      <trkpt lat="51.04318555444479" lon="7.727838372811675">
        <ele>351.01799999999997</ele>
      </trkpt>
      <trkpt lat="51.043318323791027" lon="7.728472631424666">
        <ele>353.42200000000003</ele>
      </trkpt>
      <trkpt lat="51.04341178201139" lon="7.728817798197269">
        <ele>354.86399999999998</ele>
      </trkpt>
      <trkpt lat="51.043483698740602" lon="7.72905039601028">
        <ele>355.34399999999999</ele>
      </trkpt>
      <trkpt lat="51.043577743694186" lon="7.729383073747158">
        <ele>356.30599999999998</ele>
      </trkpt>
      <trkpt lat="51.043737418949604" lon="7.729773921892047">
        <ele>357.267</ele>
      </trkpt>
      <trkpt lat="51.043918551877141" lon="7.730211457237601">
        <ele>358.709</ele>
      </trkpt>
      <trkpt lat="51.044039586558938" lon="7.730549667030573">
        <ele>358.709</ele>
      </trkpt>
      <trkpt lat="51.044343765825033" lon="7.731422642245889">
        <ele>361.59300000000002</ele>
      </trkpt>
      <trkpt lat="51.044466393068433" lon="7.73182975128293">
        <ele>363.03500000000003</ele>
      </trkpt>
      <trkpt lat="51.044570999220014" lon="7.732196291908622">
        <ele>363.03500000000003</ele>
      </trkpt>
      <trkpt lat="51.044701673090458" lon="7.732610022649169">
        <ele>363.51600000000002</ele>
      </trkpt>
      <trkpt lat="51.044872496277094" lon="7.73325702175498">
        <ele>364.95800000000003</ele>
      </trkpt>
      <trkpt lat="51.044996967539191" lon="7.733894465491176">
        <ele>366.88</ele>
      </trkpt>
      <trkpt lat="51.045102160423994" lon="7.734430739656091">
        <ele>367.36099999999999</ele>
      </trkpt>
      <trkpt lat="51.04521774686873" lon="7.734977826476097">
        <ele>368.322</ele>
      </trkpt>
      <trkpt lat="51.04534825310111" lon="7.735643349587917">
        <ele>368.803</ele>
      </trkpt>
      <trkpt lat="51.04542151093483" lon="7.73697012104094">
        <ele>376.91000000000003</ele>
      </trkpt>
      <trkpt lat="51.045381110161543" lon="7.737808227539063">
        <ele>378.238</ele>
      </trkpt>
      <trkpt lat="51.045232834294438" lon="7.738474421203136">
        <ele>380.77300000000002</ele>
      </trkpt>
      <trkpt lat="51.045246329158545" lon="7.738474421203136">
        <ele>382.28899999999999</ele>
      </trkpt>
      <trkpt lat="51.044922955334187" lon="7.739656437188387">
        <ele>384.83999999999997</ele>
      </trkpt>
      <trkpt lat="51.044612992554903" lon="7.740559000521898">
        <ele>386.69099999999997</ele>
      </trkpt>
      <trkpt lat="51.044612992554903" lon="7.740580542013049">
        <ele>388.58199999999999</ele>
      </trkpt>
      <trkpt lat="51.044127931818366" lon="7.74167655967176">
        <ele>390.22699999999998</ele>
      </trkpt>
      <trkpt lat="51.043548490852118" lon="7.742944490164518">
        <ele>392.12099999999998</ele>
      </trkpt>
      <trkpt lat="51.042996039614081" lon="7.744212420657277">
        <ele>393.41800000000001</ele>
      </trkpt>
      <trkpt lat="51.042521959170699" lon="7.745298966765404">
        <ele>394.517</ele>
      </trkpt>
      <trkpt lat="51.042489018291235" lon="7.74535596370697">
        <ele>395.54599999999999</ele>
      </trkpt>
      <trkpt lat="51.042384998872876" lon="7.745463000610471">
        <ele>397.798</ele>
      </trkpt>
      <trkpt lat="51.04213697835803" lon="7.745814034715295">
        <ele>400.28199999999998</ele>
      </trkpt>
      <trkpt lat="51.041976967826486" lon="7.745823003351688">
        <ele>401.13999999999999</ele>
      </trkpt>
      <trkpt lat="51.041992977261543" lon="7.745897015556693">
        <ele>402.69900000000001</ele>
      </trkpt>
      <trkpt lat="51.042012004181743" lon="7.746013021096587">
        <ele>402.45400000000001</ele>
      </trkpt>
      <trkpt lat="51.041874038055539" lon="7.746065994724631">
        <ele>403.53399999999999</ele>
      </trkpt>
      <trkpt lat="51.041734982281923" lon="7.746022995561361">
        <ele>405.97399999999999</ele>
      </trkpt>
      <trkpt lat="51.041660970076919" lon="7.746193986386061">
        <ele>406.04500000000002</ele>
      </trkpt>
      <trkpt lat="51.041671028360724" lon="7.746242014691234">
        <ele>406.642</ele>
      </trkpt>
      <trkpt lat="51.041750991716981" lon="7.74651300162077">
        <ele>410.00999999999999</ele>
      </trkpt>
      <trkpt lat="51.041690977290273" lon="7.74666597135365">
        <ele>409.505</ele>
      </trkpt>
      <trkpt lat="51.041645966470242" lon="7.74672799743712">
        <ele>409.428</ele>
      </trkpt>
      <trkpt lat="51.041471036151052" lon="7.746882978826761">
        <ele>411.82600000000002</ele>
      </trkpt>
      <trkpt lat="51.041302978992462" lon="7.747057992964983">
        <ele>413.42599999999999</ele>
      </trkpt>
      <trkpt lat="51.041064010933042" lon="7.747372984886169">
        <ele>412.65300000000002</ele>
      </trkpt>
      <trkpt lat="51.040949011221528" lon="7.747497037053108">
        <ele>410.89699999999999</ele>
      </trkpt>
      <trkpt lat="51.040683975443244" lon="7.747810017317534">
        <ele>408.036</ele>
      </trkpt>
      <trkpt lat="51.040263036265969" lon="7.748561035841703">
        <ele>403.69999999999999</ele>
      </trkpt>
      <trkpt lat="51.040176032111049" lon="7.748777959495783">
        <ele>402.255</ele>
      </trkpt>
      <trkpt lat="51.039904961362481" lon="7.749229995533824">
        <ele>400.279</ele>
      </trkpt>
      <trkpt lat="51.039714021608233" lon="7.749467035755515">
        <ele>398.99700000000001</ele>
      </trkpt>
      <trkpt lat="51.039512017741799" lon="7.749706003814936">
        <ele>395.58999999999997</ele>
      </trkpt>
      <trkpt lat="51.039306996390224" lon="7.749958969652653">
        <ele>393.35399999999998</ele>
      </trkpt>
      <trkpt lat="51.03919199667871" lon="7.750105988234282">
        <ele>393.17399999999998</ele>
      </trkpt>
      <trkpt lat="51.038995021954179" lon="7.7500169724226">
        <ele>392.84800000000001</ele>
      </trkpt>
      <trkpt lat="51.038850015029311" lon="7.74999400600791">
        <ele>392.86000000000001</ele>
      </trkpt>
      <trkpt lat="51.038434021174908" lon="7.750632036477327">
        <ele>392.44299999999998</ele>
      </trkpt>
      <trkpt lat="51.038146018981934" lon="7.751204017549753">
        <ele>391.97699999999998</ele>
      </trkpt>
      <trkpt lat="51.037845024839044" lon="7.751684971153736">
        <ele>391.62599999999998</ele>
      </trkpt>
      <trkpt lat="51.037372034043074" lon="7.752416040748358">
        <ele>390.096</ele>
      </trkpt>
      <trkpt lat="51.036860989406705" lon="7.753230007365346">
        <ele>388.51799999999997</ele>
      </trkpt>
      <trkpt lat="51.036344999447465" lon="7.754126032814384">
        <ele>387.50099999999998</ele>
      </trkpt>
      <trkpt lat="51.0359269939363" lon="7.755074026063085">
        <ele>386.34100000000001</ele>
      </trkpt>
      <trkpt lat="51.035471018403769" lon="7.75611899793148">
        <ele>385.55599999999998</ele>
      </trkpt>
      <trkpt lat="51.034904988482594" lon="7.757435040548444">
        <ele>383.678</ele>
      </trkpt>
      <trkpt lat="51.034743972122669" lon="7.757616005837917">
        <ele>383.31</ele>
      </trkpt>
      <trkpt lat="51.034635007381439" lon="7.757619023323059">
        <ele>382.94999999999999</ele>
      </trkpt>
      <trkpt lat="51.034532999619842" lon="7.75805002078414">
        <ele>382.82499999999999</ele>
      </trkpt>
      <trkpt lat="51.034520007669926" lon="7.758230986073613">
        <ele>382.13499999999999</ele>
      </trkpt>
      <trkpt lat="51.034299982711673" lon="7.758980998769403">
        <ele>381.15100000000001</ele>
      </trkpt>
      <trkpt lat="51.034123040735722" lon="7.759875012561679">
        <ele>380.02999999999997</ele>
      </trkpt>
      <trkpt lat="51.034036036580801" lon="7.760409023612738">
        <ele>379.56999999999999</ele>
      </trkpt>
      <trkpt lat="51.033866973593831" lon="7.761390041559935">
        <ele>378.11599999999999</ele>
      </trkpt>
      <trkpt lat="51.03360696695745" lon="7.762265028432012">
        <ele>377.178</ele>
      </trkpt>
      <trkpt lat="51.033275965601206" lon="7.762919990345836">
        <ele>376.18299999999999</ele>
      </trkpt>
      <trkpt lat="51.032770033925772" lon="7.763729011639953">
        <ele>375.71300000000002</ele>
      </trkpt>
      <trkpt lat="51.032353034242988" lon="7.764376010745764">
        <ele>375.06999999999999</ele>
      </trkpt>
      <trkpt lat="51.032168967649341" lon="7.764674993231893">
        <ele>373.98700000000002</ele>
      </trkpt>
      <trkpt lat="51.031989008188248" lon="7.764950003474951">
        <ele>373.14600000000002</ele>
      </trkpt>
      <trkpt lat="51.031447034329176" lon="7.765793977305293">
        <ele>370.87299999999999</ele>
      </trkpt>
      <trkpt lat="51.030908999964595" lon="7.766468971967697">
        <ele>370.423</ele>
      </trkpt>
      <trkpt lat="51.030323021113873" lon="7.766910027712584">
        <ele>367.08999999999997</ele>
      </trkpt>
      <trkpt lat="51.030269963666797" lon="7.766943974420428">
        <ele>367.45999999999998</ele>
      </trkpt>
      <trkpt lat="51.030111964792013" lon="7.767058974131942">
        <ele>367.43799999999999</ele>
      </trkpt>
      <trkpt lat="51.029570996761322" lon="7.767714019864798">
        <ele>365.05700000000002</ele>
      </trkpt>
      <trkpt lat="51.029377039521933" lon="7.768013002350926">
        <ele>361.84100000000001</ele>
      </trkpt>
      <trkpt lat="51.029317025095224" lon="7.768116015940905">
        <ele>361.61599999999999</ele>
      </trkpt>
      <trkpt lat="51.029211999848485" lon="7.768351966515183">
        <ele>360.65600000000001</ele>
      </trkpt>
      <trkpt lat="51.028927015140653" lon="7.769257966428995">
        <ele>359.303</ele>
      </trkpt>
      <trkpt lat="51.028653010725975" lon="7.770123984664679">
        <ele>358.55599999999998</ele>
      </trkpt>
      <trkpt lat="51.028379006311297" lon="7.771065020933747">
        <ele>357.608</ele>
      </trkpt>
      <trkpt lat="51.028077006340027" lon="7.7720379922539">
        <ele>356.55000000000001</ele>
      </trkpt>
      <trkpt lat="51.027883971109986" lon="7.772588012740016">
        <ele>355.07100000000003</ele>
      </trkpt>
      <trkpt lat="51.027683978900313" lon="7.77302697300911">
        <ele>355.50700000000001</ele>
      </trkpt>
      <trkpt lat="51.027570990845561" lon="7.773143984377384">
        <ele>355.065</ele>
      </trkpt>
      <trkpt lat="51.027391031384468" lon="7.773499041795731">
        <ele>355.69299999999998</ele>
      </trkpt>
      <trkpt lat="51.027258010581136" lon="7.773666009306908">
        <ele>355.23099999999999</ele>
      </trkpt>
      <trkpt lat="51.02664596401155" lon="7.774137994274497">
        <ele>353.70600000000002</ele>
      </trkpt>
      <trkpt lat="51.026015980169177" lon="7.774333963170648">
        <ele>354.32999999999998</ele>
      </trkpt>
      <trkpt lat="51.025411980226636" lon="7.774779964238405">
        <ele>354.09199999999998</ele>
      </trkpt>
      <trkpt lat="51.025219028815627" lon="7.774952966719866">
        <ele>353.29500000000002</ele>
      </trkpt>
      <trkpt lat="51.025019958615303" lon="7.775092022493482">
        <ele>353.00900000000001</ele>
      </trkpt>
      <trkpt lat="51.024966984987259" lon="7.775243986397982">
        <ele>352.61200000000002</ele>
      </trkpt>
      <trkpt lat="51.02440900169313" lon="7.775910012423992">
        <ele>352.262</ele>
      </trkpt>
      <trkpt lat="51.023880019783974" lon="7.776605961844325">
        <ele>352.24099999999999</ele>
      </trkpt>
      <trkpt lat="51.02374498732388" lon="7.776822969317436">
        <ele>352.20800000000003</ele>
      </trkpt>
      <trkpt lat="51.023472994565964" lon="7.777139972895384">
        <ele>351.61099999999999</ele>
      </trkpt>
      <trkpt lat="51.023308960720897" lon="7.776845013722777">
        <ele>351.94799999999998</ele>
      </trkpt>
      <trkpt lat="51.023118020966649" lon="7.776438994333148">
        <ele>350.97300000000001</ele>
      </trkpt>
      <trkpt lat="51.023031016811728" lon="7.776262974366546">
        <ele>350.17099999999999</ele>
      </trkpt>
      <trkpt lat="51.022899001836777" lon="7.776107992976904">
        <ele>351.12200000000001</ele>
      </trkpt>
      <trkpt lat="51.022653998807073" lon="7.775870030745864">
        <ele>350.81299999999999</ele>
      </trkpt>
      <trkpt lat="51.022373959422112" lon="7.775845974683762">
        <ele>351.238</ele>
      </trkpt>
      <trkpt lat="51.022249991074204" lon="7.776211006566882">
        <ele>350.54500000000002</ele>
      </trkpt>
      <trkpt lat="51.022055028006434" lon="7.776654995977879">
        <ele>350.774</ele>
      </trkpt>
      <trkpt lat="51.021636016666889" lon="7.776887007057667">
        <ele>351.04500000000002</ele>
      </trkpt>
      <trkpt lat="51.021147016435862" lon="7.777018016204238">
        <ele>350.88799999999998</ele>
      </trkpt>
      <trkpt lat="51.020851973444223" lon="7.777293026447296">
        <ele>350.31099999999998</ele>
      </trkpt>
      <trkpt lat="51.020745020359755" lon="7.7772600017488">
        <ele>350.03100000000001</ele>
      </trkpt>
      <trkpt lat="51.020239004865289" lon="7.777222031727433">
        <ele>348.77699999999999</ele>
      </trkpt>
      <trkpt lat="51.020144959911704" lon="7.777296965941787">
        <ele>348.29899999999998</ele>
      </trkpt>
      <trkpt lat="51.019998025149107" lon="7.777477009221911">
        <ele>348.39299999999997</ele>
      </trkpt>
      <trkpt lat="51.019626036286354" lon="7.778255017474294">
        <ele>350.52699999999999</ele>
      </trkpt>
      <trkpt lat="51.019378015771508" lon="7.778673022985458">
        <ele>350.84199999999998</ele>
      </trkpt>
      <trkpt lat="51.019045002758503" lon="7.778947027400136">
        <ele>352.52800000000002</ele>
      </trkpt>
      <trkpt lat="51.018706038594246" lon="7.779251039028168">
        <ele>354.71600000000001</ele>
      </trkpt>
      <trkpt lat="51.018418036401272" lon="7.779703997075558">
        <ele>356.03199999999998</ele>
      </trkpt>
      <trkpt lat="51.018383000046015" lon="7.780036004260182">
        <ele>356.70499999999998</ele>
      </trkpt>
      <trkpt lat="51.018649963662028" lon="7.780450992286205">
        <ele>353.51600000000002</ele>
      </trkpt>
      <trkpt lat="51.018767980858684" lon="7.780672023072839">
        <ele>351.44499999999999</ele>
      </trkpt>
      <trkpt lat="51.018945006653666" lon="7.781654968857765">
        <ele>349.70999999999998</ele>
      </trkpt>
      <trkpt lat="51.019012983888388" lon="7.782196020707488">
        <ele>345.95699999999999</ele>
      </trkpt>
      <trkpt lat="51.01903703995049" lon="7.782337004318833">
        <ele>344.75200000000001</ele>
      </trkpt>
      <trkpt lat="51.019053971394897" lon="7.783422041684389">
        <ele>347.12099999999998</ele>
      </trkpt>
      <trkpt lat="51.019066041335464" lon="7.783792018890381">
        <ele>347.35899999999998</ele>
      </trkpt>
      <trkpt lat="51.019292017444968" lon="7.78441496193409">
        <ele>346.98599999999999</ele>
      </trkpt>
      <trkpt lat="51.019379021599889" lon="7.784646973013878">
        <ele>346.27300000000002</ele>
      </trkpt>
      <trkpt lat="51.019448004662991" lon="7.784788040444255">
        <ele>346.35000000000002</ele>
      </trkpt>
      <trkpt lat="51.019803984090686" lon="7.785588009282947">
        <ele>346.70999999999998</ele>
      </trkpt>
      <trkpt lat="51.019958965480328" lon="7.785807028412819">
        <ele>347</ele>
      </trkpt>
      <trkpt lat="51.020076982676983" lon="7.785956980660558">
        <ele>346.35000000000002</ele>
      </trkpt>
      <trkpt lat="51.020130040124059" lon="7.7860670350492">
        <ele>346.35899999999998</ele>
      </trkpt>
      <trkpt lat="51.020187037065625" lon="7.786172982305288">
        <ele>346.28300000000002</ele>
      </trkpt>
      <trkpt lat="51.020331960171461" lon="7.786384038627148">
        <ele>345.93900000000002</ele>
      </trkpt>
      <trkpt lat="51.020465986803174" lon="7.786530973389745">
        <ele>345.73200000000003</ele>
      </trkpt>
      <trkpt lat="51.020704032853246" lon="7.786795003339648">
        <ele>345.11000000000001</ele>
      </trkpt>
      <trkpt lat="51.020902013406157" lon="7.786997007206082">
        <ele>345.411</ele>
      </trkpt>
      <trkpt lat="51.021177023649216" lon="7.787306969985366">
        <ele>345.05900000000003</ele>
      </trkpt>
      <trkpt lat="51.021406017243862" lon="7.787444014102221">
        <ele>343.887</ele>
      </trkpt>
      <trkpt lat="51.021517999470234" lon="7.787519032135606">
        <ele>343.99700000000001</ele>
      </trkpt>
      <trkpt lat="51.02196098305285" lon="7.787947012111545">
        <ele>343.84100000000001</ele>
      </trkpt>
      <trkpt lat="51.02221897803247" lon="7.788298968225718">
        <ele>343.83100000000002</ele>
      </trkpt>
      <trkpt lat="51.022684006020427" lon="7.78873398900032">
        <ele>342.58999999999997</ele>
      </trkpt>
      <trkpt lat="51.022805040702224" lon="7.788909003138542">
        <ele>342.32999999999998</ele>
      </trkpt>
      <trkpt lat="51.022976031526923" lon="7.789121987298131">
        <ele>341.82900000000001</ele>
      </trkpt>
      <trkpt lat="51.023267973214388" lon="7.789537981152535">
        <ele>342.84800000000001</ele>
      </trkpt>
      <trkpt lat="51.023369980975986" lon="7.789692962542176">
        <ele>342.96899999999999</ele>
      </trkpt>
      <trkpt lat="51.023494033142924" lon="7.789907036349177">
        <ele>342.30399999999997</ele>
      </trkpt>
      <trkpt lat="51.023641973733902" lon="7.790069980546832">
        <ele>341.96300000000002</ele>
      </trkpt>
      <trkpt lat="51.02376401424408" lon="7.790259998291731">
        <ele>342.12900000000002</ele>
      </trkpt>
      <trkpt lat="51.024069031700492" lon="7.790999030694366">
        <ele>341.47000000000003</ele>
      </trkpt>
      <trkpt lat="51.024197023361921" lon="7.791363978758454">
        <ele>341.52600000000001</ele>
      </trkpt>
      <trkpt lat="51.02425703778863" lon="7.791486019268632">
        <ele>341.262</ele>
      </trkpt>
      <trkpt lat="51.024297019466758" lon="7.79167796485126">
        <ele>341.95499999999998</ele>
      </trkpt>
      <trkpt lat="51.024458035826683" lon="7.792168976739049">
        <ele>343.51499999999999</ele>
      </trkpt>
      <trkpt lat="51.02466800250113" lon="7.792466031387448">
        <ele>343.61599999999999</ele>
      </trkpt>
      <trkpt lat="51.02481996640563" lon="7.792667029425502">
        <ele>344.27600000000001</ele>
      </trkpt>
      <trkpt lat="51.025377027690411" lon="7.793580992147327">
        <ele>341.72000000000003</ele>
      </trkpt>
      <trkpt lat="51.025442993268371" lon="7.793732034042478">
        <ele>341.20800000000003</ele>
      </trkpt>
      <trkpt lat="51.025775000452995" lon="7.794366963207722">
        <ele>336.97399999999999</ele>
      </trkpt>
      <trkpt lat="51.025989996269345" lon="7.795344963669777">
        <ele>336.63</ele>
      </trkpt>
      <trkpt lat="51.026040036231279" lon="7.795880986377597">
        <ele>337.44999999999999</ele>
      </trkpt>
      <trkpt lat="51.026088986545801" lon="7.796153984963894">
        <ele>337.09100000000001</ele>
      </trkpt>
      <trkpt lat="51.026101978495717" lon="7.796302009373903">
        <ele>337.77199999999999</ele>
      </trkpt>
      <trkpt lat="51.026132991537452" lon="7.796523962169886">
        <ele>337.26400000000001</ele>
      </trkpt>
      <trkpt lat="51.026054034009576" lon="7.796792015433312">
        <ele>338.65699999999998</ele>
      </trkpt>
      <trkpt lat="51.026016985997558" lon="7.796836020424962">
        <ele>339.00299999999999</ele>
      </trkpt>
      <trkpt lat="51.025888994336128" lon="7.797289984300733">
        <ele>341.87400000000002</ele>
      </trkpt>
      <trkpt lat="51.025908021256328" lon="7.797427028417587">
        <ele>343.072</ele>
      </trkpt>
      <trkpt lat="51.025975998491049" lon="7.797657027840614">
        <ele>341.97699999999998</ele>
      </trkpt>
      <trkpt lat="51.026188982650638" lon="7.798392036929727">
        <ele>341.28100000000001</ele>
      </trkpt>
      <trkpt lat="51.026253020390868" lon="7.798613989725709">
        <ele>340.577</ele>
      </trkpt>
      <trkpt lat="51.026293002068996" lon="7.798734018579125">
        <ele>340.476</ele>
      </trkpt>
      <trkpt lat="51.026371959596872" lon="7.798922024667263">
        <ele>340.61599999999999</ele>
      </trkpt>
      <trkpt lat="51.026524007320404" lon="7.799408007413149">
        <ele>339.97899999999998</ele>
      </trkpt>
      <trkpt lat="51.026656022295356" lon="7.799659967422485">
        <ele>339.91899999999998</ele>
      </trkpt>
      <trkpt lat="51.027032034471631" lon="7.800135975703597">
        <ele>340.95800000000003</ele>
      </trkpt>
      <trkpt lat="51.027146028354764" lon="7.800318030640483">
        <ele>338.59800000000001</ele>
      </trkpt>
      <trkpt lat="51.027367981150746" lon="7.800990007817745">
        <ele>339.07100000000003</ele>
      </trkpt>
      <trkpt lat="51.027463031932712" lon="7.801378006115556">
        <ele>341.24799999999999</ele>
      </trkpt>
      <trkpt lat="51.027454985305667" lon="7.802060963585973">
        <ele>343.41699999999997</ele>
      </trkpt>
      <trkpt lat="51.027518017217517" lon="7.802510987967253">
        <ele>343.53300000000002</ele>
      </trkpt>
      <trkpt lat="51.027478035539389" lon="7.802950032055378">
        <ele>343.45600000000002</ele>
      </trkpt>
      <trkpt lat="51.027210988104343" lon="7.803640030324459">
        <ele>343.024</ele>
      </trkpt>
      <trkpt lat="51.026989035308361" lon="7.804099023342133">
        <ele>342.25200000000001</ele>
      </trkpt>
      <trkpt lat="51.026616040617228" lon="7.804634962230921">
        <ele>341.71600000000001</ele>
      </trkpt>
      <trkpt lat="51.025996031239629" lon="7.80516997911036">
        <ele>341.74700000000001</ele>
      </trkpt>
      <trkpt lat="51.025743987411261" lon="7.805355973541737">
        <ele>341.74799999999999</ele>
      </trkpt>
      <trkpt lat="51.025017024949193" lon="7.80589803121984">
        <ele>341.69</ele>
      </trkpt>
      <trkpt lat="51.024165004491806" lon="7.806572020053864">
        <ele>341.48399999999998</ele>
      </trkpt>
      <trkpt lat="51.023338967934251" lon="7.807184988632798">
        <ele>341.94099999999997</ele>
      </trkpt>
      <trkpt lat="51.02251997217536" lon="7.807770967483521">
        <ele>341.08300000000003</ele>
      </trkpt>
      <trkpt lat="51.021957965567708" lon="7.808196013793349">
        <ele>341.26400000000001</ele>
      </trkpt>
      <trkpt lat="51.021303674206138" lon="7.808559285476804">
        <ele>335.72265625</ele>
      </trkpt>
      <trkpt lat="51.020580483600497" lon="7.808990785852075">
        <ele>337.27734375</ele>
      </trkpt>
      <trkpt lat="51.020259791985154" lon="7.809231597930193">
        <ele>335.83984375</ele>
      </trkpt>
      <trkpt lat="51.019939100369811" lon="7.809703163802624">
        <ele>334.59375</ele>
      </trkpt>
      <trkpt lat="51.019712705165148" lon="7.8101447224617">
        <ele>330.37109375</ele>
      </trkpt>
      <trkpt lat="51.019536685198545" lon="7.810666495934129">
        <ele>322.97265625</ele>
      </trkpt>
      <trkpt lat="51.019392013549805" lon="7.81126856803894">
        <ele>325.54296875</ele>
      </trkpt>
      <trkpt lat="51.019348008558154" lon="7.811710126698017">
        <ele>322.59375</ele>
      </trkpt>
      <trkpt lat="51.019329149276018" lon="7.812352348119021">
        <ele>325.5625</ele>
      </trkpt>
      <trkpt lat="51.019404586404562" lon="7.81293430365622">
        <ele>329.8046875</ele>
      </trkpt>
      <trkpt lat="51.019517825916409" lon="7.81358658336103">
        <ele>332.9921875</ele>
      </trkpt>
      <trkpt lat="51.019800798967481" lon="7.814419493079186">
        <ele>333.953125</ele>
      </trkpt>
      <trkpt lat="51.01994538679719" lon="7.814590064808726">
        <ele>332.38671875</ele>
      </trkpt>
      <trkpt lat="51.020228359848261" lon="7.814911175519228">
        <ele>326.8046875</ele>
      </trkpt>
      <trkpt lat="51.02032802067697" lon="7.815023995935917">
        <ele>333.99400000000003</ele>
      </trkpt>
      <trkpt lat="51.020399015396833" lon="7.815157016739249">
        <ele>334.32799999999997</ele>
      </trkpt>
      <trkpt lat="51.02056497707963" lon="7.815666971728206">
        <ele>334.81700000000001</ele>
      </trkpt>
      <trkpt lat="51.020549973472953" lon="7.815756993368268">
        <ele>334.52600000000001</ele>
      </trkpt>
      <trkpt lat="51.020782990381122" lon="7.816128982231021">
        <ele>334.13099999999997</ele>
      </trkpt>
      <trkpt lat="51.021225973963737" lon="7.816570037975907">
        <ele>333.19499999999999</ele>
      </trkpt>
      <trkpt lat="51.021577008068562" lon="7.81681302934885">
        <ele>332.995</ele>
      </trkpt>
      <trkpt lat="51.021847994998097" lon="7.816924005746841">
        <ele>332.64600000000002</ele>
      </trkpt>
      <trkpt lat="51.022038012742996" lon="7.816970022395253">
        <ele>332.72199999999998</ele>
      </trkpt>
      <trkpt lat="51.02256397716701" lon="7.817001035436988">
        <ele>332.63499999999999</ele>
      </trkpt>
      <trkpt lat="51.022980976849794" lon="7.81694496050477">
        <ele>331.66399999999999</ele>
      </trkpt>
      <trkpt lat="51.023401999846101" lon="7.816758966073394">
        <ele>331.23399999999998</ele>
      </trkpt>
      <trkpt lat="51.023898962885141" lon="7.81642603687942">
        <ele>331.03199999999998</ele>
      </trkpt>
      <trkpt lat="51.024099038913846" lon="7.816254962235689">
        <ele>331.10500000000002</ele>
      </trkpt>
      <trkpt lat="51.024669008329511" lon="7.815944999456406">
        <ele>330.78800000000001</ele>
      </trkpt>
      <trkpt lat="51.025268984958529" lon="7.815910968929529">
        <ele>329.64699999999999</ele>
      </trkpt>
      <trkpt lat="51.025433018803596" lon="7.8159090410918">
        <ele>329.41399999999999</ele>
      </trkpt>
      <trkpt lat="51.025662012398243" lon="7.815971486270428">
        <ele>319.46899999999999</ele>
      </trkpt>
      <trkpt lat="51.026048334315419" lon="7.816114732995629">
        <ele>321.73399999999998</ele>
      </trkpt>
      <trkpt lat="51.026452509686351" lon="7.816429976373911">
        <ele>327.59800000000001</ele>
      </trkpt>
      <trkpt lat="51.026802873238921" lon="7.816788135096431">
        <ele>332.70299999999997</ele>
      </trkpt>
      <trkpt lat="51.027072351425886" lon="7.817146293818951">
        <ele>334.04700000000003</ele>
      </trkpt>
      <trkpt lat="51.027350882068276" lon="7.817561784759164">
        <ele>335.29700000000003</ele>
      </trkpt>
      <trkpt lat="51.027566464617848" lon="7.818063190206885">
        <ele>334.80099999999999</ele>
      </trkpt>
      <trkpt lat="51.027746088802814" lon="7.818607678636909">
        <ele>332.56200000000001</ele>
      </trkpt>
      <trkpt lat="51.027997629716992" lon="7.819610573351383">
        <ele>333.37900000000002</ele>
      </trkpt>
      <trkpt lat="51.028276076540351" lon="7.820642050355673">
        <ele>328.32799999999997</ele>
      </trkpt>
      <trkpt lat="51.028446732088923" lon="7.821100456640124">
        <ele>326.512</ele>
      </trkpt>
      <trkpt lat="51.028635408729315" lon="7.821587612852454">
        <ele>322.42599999999999</ele>
      </trkpt>
      <trkpt lat="51.02885995991528" lon="7.822046102955937">
        <ele>321.27300000000002</ele>
      </trkpt>
      <trkpt lat="51.029174365103245" lon="7.822690755128861">
        <ele>322.68799999999999</ele>
      </trkpt>
      <trkpt lat="51.029560687020421" lon="7.823364157229662">
        <ele>327.29700000000003</ele>
      </trkpt>
      <trkpt lat="51.030135517939925" lon="7.824366968125105">
        <ele>331.39499999999998</ele>
      </trkpt>
      <trkpt lat="51.030503818765283" lon="7.825255282223225">
        <ele>327.50400000000002</ele>
      </trkpt>
      <trkpt lat="51.030746391043067" lon="7.82581401988864">
        <ele>322.56599999999997</ele>
      </trkpt>
      <trkpt lat="51.030953004956245" lon="7.826301176100969">
        <ele>321.08600000000001</ele>
      </trkpt>
      <trkpt lat="51.031231284141541" lon="7.826831247657538">
        <ele>318.71100000000001</ele>
      </trkpt>
      <trkpt lat="51.031518783420324" lon="7.827218072488904">
        <ele>316.91800000000001</ele>
      </trkpt>
      <trkpt lat="51.031806198880076" lon="7.827533232048154">
        <ele>316.30099999999999</ele>
      </trkpt>
      <trkpt lat="51.03216553106904" lon="7.827948722988367">
        <ele>316.03899999999999</ele>
      </trkpt>
      <trkpt lat="51.032497957348824" lon="7.828378546983004">
        <ele>314.72699999999998</ele>
      </trkpt>
      <trkpt lat="51.032497957348824" lon="7.828392880037427">
        <ele>314.66399999999999</ele>
      </trkpt>
      <trkpt lat="51.032758466899395" lon="7.828636458143592">
        <ele>314.18000000000001</ele>
      </trkpt>
      <trkpt lat="51.032983018085361" lon="7.828837037086487">
        <ele>313.98399999999998</ele>
      </trkpt>
      <trkpt lat="51.033243359997869" lon="7.829023282974958">
        <ele>312.12099999999998</ele>
      </trkpt>
      <trkpt lat="51.033566733822227" lon="7.829152196645737">
        <ele>305.92200000000003</ele>
      </trkpt>
      <trkpt lat="51.033935034647584" lon="7.82920952886343">
        <ele>295.78899999999999</ele>
      </trkpt>
      <trkpt lat="51.034303335472941" lon="7.829195195809007">
        <ele>295.59800000000001</ele>
      </trkpt>
      <trkpt lat="51.035004062578082" lon="7.829238194972277">
        <ele>290.25</ele>
      </trkpt>
      <trkpt lat="51.035453248769045" lon="7.82920952886343">
        <ele>293.60500000000002</ele>
      </trkpt>
      <trkpt lat="51.035758685320616" lon="7.829295443370938">
        <ele>290.34399999999999</ele>
      </trkpt>
      <trkpt lat="51.036064038053155" lon="7.829410107806325">
        <ele>284.02300000000002</ele>
      </trkpt>
      <trkpt lat="51.036504087969661" lon="7.829753933474422">
        <ele>271.32799999999997</ele>
      </trkpt>
      <trkpt lat="51.036737691611052" lon="7.830011760815978">
        <ele>269.03100000000001</ele>
      </trkpt>
      <trkpt lat="51.03694430552423" lon="7.83028400503099">
        <ele>268.17200000000003</ele>
      </trkpt>
      <trkpt lat="51.037150919437408" lon="7.83064216375351">
        <ele>267.91399999999999</ele>
      </trkpt>
      <trkpt lat="51.037303637713194" lon="7.830971740186214">
        <ele>269.14800000000002</ele>
      </trkpt>
      <trkpt lat="51.037402376532555" lon="7.831215234473348">
        <ele>273.07799999999997</ele>
      </trkpt>
      <trkpt lat="51.037447303533554" lon="7.831415813416243">
        <ele>277</ele>
      </trkpt>
      <trkpt lat="51.037321574985981" lon="7.831473145633936">
        <ele>278.20299999999997</ele>
      </trkpt>
      <trkpt lat="51.037007169798017" lon="7.831473145633936">
        <ele>278.83999999999997</ele>
      </trkpt>
      <trkpt lat="51.036845482885838" lon="7.831487478688359">
        <ele>279.52699999999999</ele>
      </trkpt>
      <trkpt lat="51.03676300495863" lon="7.831581020727754">
        <ele>320.18000000000001</ele>
      </trkpt>
      <trkpt lat="51.037023011595011" lon="7.831743964925408">
        <ele>321.94200000000001</ele>
      </trkpt>
      <trkpt lat="51.037271032109857" lon="7.831903975456953">
        <ele>324.54199999999997</ele>
      </trkpt>
      <trkpt lat="51.037410004064441" lon="7.83217404037714">
        <ele>326.43599999999998</ele>
      </trkpt>
      <trkpt lat="51.037411009892821" lon="7.832402028143406">
        <ele>329.678</ele>
      </trkpt>
      <trkpt lat="51.037413021549582" lon="7.832758007571101">
        <ele>332.34300000000002</ele>
      </trkpt>
      <trkpt lat="51.037370022386312" lon="7.833145000040531">
        <ele>332.86399999999998</ele>
      </trkpt>
      <trkpt lat="51.03734202682972" lon="7.833218006417155">
        <ele>334.28699999999998</ele>
      </trkpt>
      <trkpt lat="51.03727899491787" lon="7.833338035270572">
        <ele>335.34500000000003</ele>
      </trkpt>
      <trkpt lat="51.0372169688344" lon="7.833415986970067">
        <ele>336.18700000000001</ele>
      </trkpt>
      <trkpt lat="51.037051007151604" lon="7.833535009995103">
        <ele>337.55900000000003</ele>
      </trkpt>
      <trkpt lat="51.036547003313899" lon="7.833956032991409">
        <ele>340.81099999999998</ele>
      </trkpt>
      <trkpt lat="51.036073006689548" lon="7.834337996318936">
        <ele>344.04300000000001</ele>
      </trkpt>
      <trkpt lat="51.035702023655176" lon="7.834465987980366">
        <ele>345.19400000000002</ele>
      </trkpt>
      <trkpt lat="51.035206988453865" lon="7.834604037925601">
        <ele>345.74299999999999</ele>
      </trkpt>
      <trkpt lat="51.034608017653227" lon="7.835050038993359">
        <ele>348.625</ele>
      </trkpt>
      <trkpt lat="51.034151036292315" lon="7.835389003157616">
        <ele>350.11900000000003</ele>
      </trkpt>
      <trkpt lat="51.034022038802505" lon="7.835470978170633">
        <ele>350.005</ele>
      </trkpt>
      <trkpt lat="51.0336509719491" lon="7.835654960945249">
        <ele>348.73000000000002</ele>
      </trkpt>
      <trkpt lat="51.033258028328419" lon="7.835837015882134">
        <ele>348.15100000000001</ele>
      </trkpt>
      <trkpt lat="51.032775985077024" lon="7.836060980334878">
        <ele>346.53199999999998</ele>
      </trkpt>
      <trkpt lat="51.032371977344155" lon="7.836285028606653">
        <ele>344.67700000000002</ele>
      </trkpt>
      <trkpt lat="51.032287990674376" lon="7.836370021104813">
        <ele>345.60000000000002</ele>
      </trkpt>
      <trkpt lat="51.032201992347836" lon="7.836464988067746">
        <ele>345.63200000000001</ele>
      </trkpt>
      <trkpt lat="51.031889012083411" lon="7.836892968043685">
        <ele>350.03500000000003</ele>
      </trkpt>
      <trkpt lat="51.031609978526831" lon="7.837274009361863">
        <ele>353.25700000000001</ele>
      </trkpt>
      <trkpt lat="51.031348966062069" lon="7.837510965764523">
        <ele>355.90300000000002</ele>
      </trkpt>
      <trkpt lat="51.031108992174268" lon="7.83771900460124">
        <ele>357.85899999999998</ele>
      </trkpt>
      <trkpt lat="51.030891984701157" lon="7.837971970438957">
        <ele>358.803</ele>
      </trkpt>
      <trkpt lat="51.030655028298497" lon="7.838299032300711">
        <ele>356.24799999999999</ele>
      </trkpt>
      <trkpt lat="51.030440032482147" lon="7.838443033397198">
        <ele>355.71499999999997</ele>
      </trkpt>
      <trkpt lat="51.030249008908868" lon="7.838498018682003">
        <ele>353.57299999999998</ele>
      </trkpt>
      <trkpt lat="51.030006017535925" lon="7.838501958176494">
        <ele>351.91000000000003</ele>
      </trkpt>
      <trkpt lat="51.029751962050796" lon="7.838486032560468">
        <ele>349.88900000000001</ele>
      </trkpt>
      <trkpt lat="51.029547024518251" lon="7.838485026732087">
        <ele>349.45400000000001</ele>
      </trkpt>
      <trkpt lat="51.029359018430114" lon="7.838482009246945">
        <ele>347.27300000000002</ele>
      </trkpt>
      <trkpt lat="51.029176963493228" lon="7.838483015075326">
        <ele>345.92500000000001</ele>
      </trkpt>
      <trkpt lat="51.029015025123954" lon="7.838485026732087">
        <ele>344.66300000000001</ele>
      </trkpt>
      <trkpt lat="51.028841016814113" lon="7.838484020903707">
        <ele>341.59699999999998</ele>
      </trkpt>
      <trkpt lat="51.02864395827055" lon="7.838484020903707">
        <ele>340.12</ele>
      </trkpt>
      <trkpt lat="51.028487971052527" lon="7.838504975661635">
        <ele>338.96899999999999</ele>
      </trkpt>
      <trkpt lat="51.028270041570067" lon="7.838538000360131">
        <ele>337.18700000000001</ele>
      </trkpt>
      <trkpt lat="51.027980027720332" lon="7.838613018393517">
        <ele>336.06900000000002</ele>
      </trkpt>
      <trkpt lat="51.027737958356738" lon="7.838722988963127">
        <ele>334.54399999999998</ele>
      </trkpt>
      <trkpt lat="51.027489015832543" lon="7.838865984231234">
        <ele>333.41399999999999</ele>
      </trkpt>
      <trkpt lat="51.027279971167445" lon="7.838991964235902">
        <ele>333.298</ele>
      </trkpt>
      <trkpt lat="51.027111997827888" lon="7.839145017787814">
        <ele>332.48700000000002</ele>
      </trkpt>
      <trkpt lat="51.026990041136742" lon="7.839312991127372">
        <ele>330.803</ele>
      </trkpt>
      <trkpt lat="51.026877975091338" lon="7.839469984173775">
        <ele>327.48599999999999</ele>
      </trkpt>
      <trkpt lat="51.026723999530077" lon="7.839733008295298">
        <ele>325.69799999999998</ele>
      </trkpt>
      <trkpt lat="51.0265570320189" lon="7.839992009103298">
        <ele>323.26299999999998</ele>
      </trkpt>
      <trkpt lat="51.026269029825926" lon="7.840636996552348">
        <ele>321.66399999999999</ele>
      </trkpt>
      <trkpt lat="51.026106001809239" lon="7.841024994850159">
        <ele>321.87200000000001</ele>
      </trkpt>
      <trkpt lat="51.026040958240628" lon="7.841290030628443">
        <ele>321.12200000000001</ele>
      </trkpt>
      <trkpt lat="51.026051016524434" lon="7.841785987839103">
        <ele>318.77300000000002</ele>
      </trkpt>
      <trkpt lat="51.026074988767505" lon="7.842001989483833">
        <ele>317.87599999999998</ele>
      </trkpt>
      <trkpt lat="51.026090998202562" lon="7.842154959216714">
        <ele>316.846</ele>
      </trkpt>
    </trkseg>
  </trk>

</gpx>
