<?xml version="1.0" encoding="UTF-8" standalone="no"?>
<gpx xmlns="http://www.topografix.com/GPX/1/1" creator="www.bahntrassenradeln.de" version="1.1">

  <trk>
    <name>NW 4.14</name>
    <trkseg>
 <trkpt lat="51.18647897" lon="7.50115198">
  <ele>421.707</ele>
 </trkpt>
 <trkpt lat="51.18633103" lon="7.50143202">
  <ele>419.174</ele>
 </trkpt>
 <trkpt lat="51.18623204" lon="7.50155398">
  <ele>418.178</ele>
 </trkpt>
 <trkpt lat="51.18597304" lon="7.50188900">
  <ele>413.555</ele>
 </trkpt>
 <trkpt lat="51.18580003" lon="7.50213602">
  <ele>411.605</ele>
 </trkpt>
 <trkpt lat="51.18561001" lon="7.50263197">
  <ele>409.057</ele>
 </trkpt>
 <trkpt lat="51.18544296" lon="7.50261303">
  <ele>408.798</ele>
 </trkpt>
 <trkpt lat="51.18481097" lon="7.50192697">
  <ele>406.331</ele>
 </trkpt>
 <trkpt lat="51.18456001" lon="7.50168398">
  <ele>403.911</ele>
 </trkpt>
 <trkpt lat="51.18447603" lon="7.50179596">
  <ele>403.165</ele>
 </trkpt>
 <trkpt lat="51.18426204" lon="7.50196201">
  <ele>403.400</ele>
 </trkpt>
 <trkpt lat="51.18373498" lon="7.50231204">
  <ele>402.883</ele>
 </trkpt>
 <trkpt lat="51.18332603" lon="7.50282803">
  <ele>404.652</ele>
 </trkpt>
 <trkpt lat="51.18308798" lon="7.50299701">
  <ele>406.805</ele>
 </trkpt>
 <trkpt lat="51.18293300" lon="7.50299701">
  <ele>412.170</ele>
 </trkpt>
 <trkpt lat="51.18252698" lon="7.50319197">
  <ele>413.710</ele>
 </trkpt>
 <trkpt lat="51.18238097" lon="7.50340504">
  <ele>414.067</ele>
 </trkpt>
 <trkpt lat="51.18213798" lon="7.50327000">
  <ele>416.209</ele>
 </trkpt>
 <trkpt lat="51.18178703" lon="7.50301100">
  <ele>418.713</ele>
 </trkpt>
 <trkpt lat="51.18159299" lon="7.50286801">
  <ele>420.008</ele>
 </trkpt>
 <trkpt lat="51.18144102" lon="7.50275603">
  <ele>419.513</ele>
 </trkpt>
 <trkpt lat="51.18105504" lon="7.50236300">
  <ele>418.013</ele>
 </trkpt>
 <trkpt lat="51.18070099" lon="7.50195497">
  <ele>417.520</ele>
 </trkpt>
 <trkpt lat="51.18042598" lon="7.50146999">
  <ele>415.569</ele>
 </trkpt>
 <trkpt lat="51.17990797" lon="7.50078502">
  <ele>414.139</ele>
 </trkpt>
 <trkpt lat="51.17980597" lon="7.50065804">
  <ele>413.668</ele>
 </trkpt>
 <trkpt lat="51.17967999" lon="7.50053499">
  <ele>413.884</ele>
 </trkpt>
 <trkpt lat="51.17953104" lon="7.50039602">
  <ele>412.785</ele>
 </trkpt>
 <trkpt lat="51.17932200" lon="7.50020499">
  <ele>412.725</ele>
 </trkpt>
 <trkpt lat="51.17894297" lon="7.49989796">
  <ele>411.707</ele>
 </trkpt>
 <trkpt lat="51.17873099" lon="7.49976201">
  <ele>411.211</ele>
 </trkpt>
 <trkpt lat="51.17858003" lon="7.49965397">
  <ele>410.606</ele>
 </trkpt>
 <trkpt lat="51.17823503" lon="7.49945800">
  <ele>409.212</ele>
 </trkpt>
 <trkpt lat="51.17767403" lon="7.49921601">
  <ele>407.192</ele>
 </trkpt>
 <trkpt lat="51.17739298" lon="7.49909498">
  <ele>407.516</ele>
 </trkpt>
 <trkpt lat="51.17697598" lon="7.49892298">
  <ele>405.193</ele>
 </trkpt>
 <trkpt lat="51.17665504" lon="7.49879197">
  <ele>404.731</ele>
 </trkpt>
 <trkpt lat="51.17636704" lon="7.49867404">
  <ele>402.500</ele>
 </trkpt>
 <trkpt lat="51.17587896" lon="7.49845996">
  <ele>401.653</ele>
 </trkpt>
 <trkpt lat="51.17547504" lon="7.49827598">
  <ele>401.762</ele>
 </trkpt>
 <trkpt lat="51.17524898" lon="7.49817297">
  <ele>402.470</ele>
 </trkpt>
 <trkpt lat="51.17500003" lon="7.49805998">
  <ele>403.499</ele>
 </trkpt>
 <trkpt lat="51.17477196" lon="7.49795697">
  <ele>404.642</ele>
 </trkpt>
 <trkpt lat="51.17464297" lon="7.49795403">
  <ele>405.418</ele>
 </trkpt>
 <trkpt lat="51.17448203" lon="7.49793903">
  <ele>406.117</ele>
 </trkpt>
 <trkpt lat="51.17421599" lon="7.49785898">
  <ele>407.278</ele>
 </trkpt>
 <trkpt lat="51.17399404" lon="7.49779201">
  <ele>409.745</ele>
 </trkpt>
 <trkpt lat="51.17390804" lon="7.49776502">
  <ele>409.310</ele>
 </trkpt>
 <trkpt lat="51.17375499" lon="7.49771900">
  <ele>408.206</ele>
 </trkpt>
 <trkpt lat="51.17353697" lon="7.49765396">
  <ele>406.375</ele>
 </trkpt>
 <trkpt lat="51.17310698" lon="7.49751700">
  <ele>403.830</ele>
 </trkpt>
 <trkpt lat="51.17299701" lon="7.49745296">
  <ele>403.492</ele>
 </trkpt>
 <trkpt lat="51.17284404" lon="7.49731801">
  <ele>402.178</ele>
 </trkpt>
 <trkpt lat="51.17267196" lon="7.49713504">
  <ele>400.457</ele>
 </trkpt>
 <trkpt lat="51.17246803" lon="7.49690998">
  <ele>397.272</ele>
 </trkpt>
 <trkpt lat="51.17240299" lon="7.49686296">
  <ele>395.435</ele>
 </trkpt>
 <trkpt lat="51.17227198" lon="7.49677001">
  <ele>394.758</ele>
 </trkpt>
 <trkpt lat="51.17220702" lon="7.49672298">
  <ele>394.999</ele>
 </trkpt>
 <trkpt lat="51.17178901" lon="7.49641503">
  <ele>393.644</ele>
 </trkpt>
 <trkpt lat="51.17138802" lon="7.49604497">
  <ele>392.667</ele>
 </trkpt>
 <trkpt lat="51.17132801" lon="7.49600097">
  <ele>391.678</ele>
 </trkpt>
 <trkpt lat="51.17100497" lon="7.49565203">
  <ele>391.437</ele>
 </trkpt>
 <trkpt lat="51.17065402" lon="7.49518700">
  <ele>390.757</ele>
 </trkpt>
 <trkpt lat="51.17031899" lon="7.49475399">
  <ele>390.859</ele>
 </trkpt>
 <trkpt lat="51.17009201" lon="7.49429097">
  <ele>390.569</ele>
 </trkpt>
 <trkpt lat="51.16992404" lon="7.49403097">
  <ele>390.655</ele>
 </trkpt>
 <trkpt lat="51.16977300" lon="7.49379904">
  <ele>390.334</ele>
 </trkpt>
 <trkpt lat="51.16958298" lon="7.49339897">
  <ele>389.852</ele>
 </trkpt>
 <trkpt lat="51.16939900" lon="7.49305498">
  <ele>390.799</ele>
 </trkpt>
 <trkpt lat="51.16924200" lon="7.49269598">
  <ele>391.014</ele>
 </trkpt>
 <trkpt lat="51.16913304" lon="7.49237303">
  <ele>391.890</ele>
 </trkpt>
 <trkpt lat="51.16894403" lon="7.49188101">
  <ele>391.534</ele>
 </trkpt>
 <trkpt lat="51.16875703" lon="7.49137600">
  <ele>391.091</ele>
 </trkpt>
 <trkpt lat="51.16861504" lon="7.49070201">
  <ele>390.458</ele>
 </trkpt>
 <trkpt lat="51.16846098" lon="7.49004001">
  <ele>391.640</ele>
 </trkpt>
 <trkpt lat="51.16836199" lon="7.48973901">
  <ele>390.983</ele>
 </trkpt>
 <trkpt lat="51.16829904" lon="7.48919000">
  <ele>391.516</ele>
 </trkpt>
 <trkpt lat="51.16817800" lon="7.48860997">
  <ele>392.172</ele>
 </trkpt>
 <trkpt lat="51.16813702" lon="7.48810404">
  <ele>392.141</ele>
 </trkpt>
 <trkpt lat="51.16812604" lon="7.48764304">
  <ele>391.565</ele>
 </trkpt>
 <trkpt lat="51.16809703" lon="7.48733299">
  <ele>391.568</ele>
 </trkpt>
 <trkpt lat="51.16806996" lon="7.48704599">
  <ele>390.283</ele>
 </trkpt>
 <trkpt lat="51.16803098" lon="7.48661902">
  <ele>389.730</ele>
 </trkpt>
 <trkpt lat="51.16799301" lon="7.48607000">
  <ele>389.435</ele>
 </trkpt>
 <trkpt lat="51.16793904" lon="7.48557497">
  <ele>392.377</ele>
 </trkpt>
 <trkpt lat="51.16790903" lon="7.48535000">
  <ele>394.033</ele>
 </trkpt>
 <trkpt lat="51.16787097" lon="7.48502503">
  <ele>395.610</ele>
 </trkpt>
 <trkpt lat="51.16772999" lon="7.48481900">
  <ele>396.251</ele>
 </trkpt>
 <trkpt lat="51.16762497" lon="7.48466603">
  <ele>397.267</ele>
 </trkpt>
 <trkpt lat="51.16753100" lon="7.48440896">
  <ele>396.492</ele>
 </trkpt>
 <trkpt lat="51.16717603" lon="7.48370597">
  <ele>396.773</ele>
 </trkpt>
 <trkpt lat="51.16688099" lon="7.48313701">
  <ele>399.212</ele>
 </trkpt>
 <trkpt lat="51.16654999" lon="7.48244902">
  <ele>402.213</ele>
 </trkpt>
 <trkpt lat="51.16634203" lon="7.48193798">
  <ele>402.616</ele>
 </trkpt>
 <trkpt lat="51.16607197" lon="7.48136097">
  <ele>404.225</ele>
 </trkpt>
 <trkpt lat="51.16582403" lon="7.48082503">
  <ele>405.132</ele>
 </trkpt>
 <trkpt lat="51.16562404" lon="7.48034097">
  <ele>406.244</ele>
 </trkpt>
 <trkpt lat="51.16538004" lon="7.47972197">
  <ele>409.221</ele>
 </trkpt>
 <trkpt lat="51.16525901" lon="7.47952097">
  <ele>409.156</ele>
 </trkpt>
 <trkpt lat="51.16517602" lon="7.47949398">
  <ele>409.133</ele>
 </trkpt>
 <trkpt lat="51.16514501" lon="7.47942701">
  <ele>409.699</ele>
 </trkpt>
 <trkpt lat="51.16524300" lon="7.47918603">
  <ele>410.427</ele>
 </trkpt>
 <trkpt lat="51.16508399" lon="7.47898797">
  <ele>409.421</ele>
 </trkpt>
 <trkpt lat="51.16488098" lon="7.47822002">
  <ele>409.555</ele>
 </trkpt>
 <trkpt lat="51.16450304" lon="7.47730899">
  <ele>409.700</ele>
 </trkpt>
 <trkpt lat="51.16414597" lon="7.47657096">
  <ele>409.716</ele>
 </trkpt>
 <trkpt lat="51.16380500" lon="7.47601097">
  <ele>408.160</ele>
 </trkpt>
 <trkpt lat="51.16336000" lon="7.47514696">
  <ele>404.297</ele>
 </trkpt>
 <trkpt lat="51.16322899" lon="7.47471303">
  <ele>402.557</ele>
 </trkpt>
 <trkpt lat="51.16307301" lon="7.47375900">
  <ele>400.260</ele>
 </trkpt>
 <trkpt lat="51.16286203" lon="7.47256500">
  <ele>399.461</ele>
 </trkpt>
 <trkpt lat="51.16251896" lon="7.47141198">
  <ele>398.399</ele>
 </trkpt>
 <trkpt lat="51.16219701" lon="7.47047304">
  <ele>395.098</ele>
 </trkpt>
 <trkpt lat="51.16201202" lon="7.46972596">
  <ele>392.049</ele>
 </trkpt>
 <trkpt lat="51.16165403" lon="7.46861000">
  <ele>388.301</ele>
 </trkpt>
 <trkpt lat="51.16163501" lon="7.46849500">
  <ele>388.431</ele>
 </trkpt>
 <trkpt lat="51.16138296" lon="7.46790902">
  <ele>385.885</ele>
 </trkpt>
 <trkpt lat="51.16097602" lon="7.46694996">
  <ele>382.984</ele>
 </trkpt>
 <trkpt lat="51.16079103" lon="7.46657998">
  <ele>379.774</ele>
 </trkpt>
 <trkpt lat="51.16061602" lon="7.46623901">
  <ele>376.645</ele>
 </trkpt>
 <trkpt lat="51.16045902" lon="7.46593500">
  <ele>373.637</ele>
 </trkpt>
 <trkpt lat="51.16040002" lon="7.46584900">
  <ele>372.228</ele>
 </trkpt>
 <trkpt lat="51.16036900" lon="7.46555597">
  <ele>369.936</ele>
 </trkpt>
 <trkpt lat="51.16036900" lon="7.46520904">
  <ele>367.370</ele>
 </trkpt>
 <trkpt lat="51.16042902" lon="7.46424504">
  <ele>365.790</ele>
 </trkpt>
 <trkpt lat="51.16037998" lon="7.46378596">
  <ele>365.567</ele>
 </trkpt>
 <trkpt lat="51.16018401" lon="7.46324399">
  <ele>368.011</ele>
 </trkpt>
 <trkpt lat="51.15968202" lon="7.46187598">
  <ele>382.150</ele>
 </trkpt>
 <trkpt lat="51.15942202" lon="7.46121598">
  <ele>386.080</ele>
 </trkpt>
 <trkpt lat="51.15928497" lon="7.46104198">
  <ele>387.466</ele>
 </trkpt>
 <trkpt lat="51.15913502" lon="7.46050604">
  <ele>391.608</ele>
 </trkpt>
 <trkpt lat="51.15921599" lon="7.45982098">
  <ele>392.523</ele>
 </trkpt>
 <trkpt lat="51.15918900" lon="7.45909897">
  <ele>392.766</ele>
 </trkpt>
 <trkpt lat="51.15914701" lon="7.45873301">
  <ele>392.638</ele>
 </trkpt>
 <trkpt lat="51.15899504" lon="7.45780396">
  <ele>391.289</ele>
 </trkpt>
 <trkpt lat="51.15895799" lon="7.45752602">
  <ele>389.889</ele>
 </trkpt>
 <trkpt lat="51.15861702" lon="7.45618198">
  <ele>389.647</ele>
 </trkpt>
 <trkpt lat="51.15806297" lon="7.45514296">
  <ele>389.177</ele>
 </trkpt>
 <trkpt lat="51.15738999" lon="7.45400202">
  <ele>386.549</ele>
 </trkpt>
 <trkpt lat="51.15687501" lon="7.45303801">
  <ele>386.374</ele>
 </trkpt>
 <trkpt lat="51.15636899" lon="7.45224802">
  <ele>386.170</ele>
 </trkpt>
 <trkpt lat="51.15588703" lon="7.45169104">
  <ele>385.951</ele>
 </trkpt>
 <trkpt lat="51.15541304" lon="7.45098202">
  <ele>386.029</ele>
 </trkpt>
 <trkpt lat="51.15515202" lon="7.45063098">
  <ele>383.562</ele>
 </trkpt>
 <trkpt lat="51.15482798" lon="7.45011801">
  <ele>384.005</ele>
 </trkpt>
 <trkpt lat="51.15431601" lon="7.44941703">
  <ele>383.281</ele>
 </trkpt>
 <trkpt lat="51.15378804" lon="7.44872401">
  <ele>381.520</ele>
 </trkpt>
 <trkpt lat="51.15331898" lon="7.44812404">
  <ele>381.905</ele>
 </trkpt>
 <trkpt lat="51.15298899" lon="7.44773000">
  <ele>380.407</ele>
 </trkpt>
 <trkpt lat="51.15251399" lon="7.44711896">
  <ele>379.160</ele>
 </trkpt>
 <trkpt lat="51.15197796" lon="7.44645000">
  <ele>378.788</ele>
 </trkpt>
 <trkpt lat="51.15144202" lon="7.44571500">
  <ele>378.430</ele>
 </trkpt>
 <trkpt lat="51.15142702" lon="7.44560201">
  <ele>378.573</ele>
 </trkpt>
 <trkpt lat="51.15144303" lon="7.44493204">
  <ele>379.090</ele>
 </trkpt>
 <trkpt lat="51.15119702" lon="7.44431002">
  <ele>378.008</ele>
 </trkpt>
 <trkpt lat="51.15103601" lon="7.44395002">
  <ele>375.993</ele>
 </trkpt>
 <trkpt lat="51.15092997" lon="7.44378900">
  <ele>374.110</ele>
 </trkpt>
 <trkpt lat="51.15066402" lon="7.44351198">
  <ele>371.072</ele>
 </trkpt>
 <trkpt lat="51.15040803" lon="7.44311099">
  <ele>368.327</ele>
 </trkpt>
 <trkpt lat="51.14993596" lon="7.44234597">
  <ele>368.249</ele>
 </trkpt>
 <trkpt lat="51.14948904" lon="7.44154198">
  <ele>367.228</ele>
 </trkpt>
 <trkpt lat="51.14922501" lon="7.44104401">
  <ele>363.911</ele>
 </trkpt>
 <trkpt lat="51.14903600" lon="7.44068996">
  <ele>360.483</ele>
 </trkpt>
 <trkpt lat="51.14878496" lon="7.44021697">
  <ele>357.121</ele>
 </trkpt>
 <trkpt lat="51.14862797" lon="7.43992100">
  <ele>354.014</ele>
 </trkpt>
 <trkpt lat="51.14839604" lon="7.43940602">
  <ele>350.906</ele>
 </trkpt>
 <trkpt lat="51.14835296" lon="7.43921097">
  <ele>350.056</ele>
 </trkpt>
 <trkpt lat="51.14827400" lon="7.43884703">
  <ele>346.924</ele>
 </trkpt>
 <trkpt lat="51.14815196" lon="7.43846599">
  <ele>342.758</ele>
 </trkpt>
 <trkpt lat="51.14810896" lon="7.43831604">
  <ele>342.571</ele>
 </trkpt>
 <trkpt lat="51.14772004" lon="7.43714198">
  <ele>343.715</ele>
 </trkpt>
 <trkpt lat="51.14762197" lon="7.43685599">
  <ele>346.647</ele>
 </trkpt>
 <trkpt lat="51.14747596" lon="7.43642701">
  <ele>348.734</ele>
 </trkpt>
 <trkpt lat="51.14739801" lon="7.43620003">
  <ele>350.253</ele>
 </trkpt>
 <trkpt lat="51.14734604" lon="7.43604798">
  <ele>350.900</ele>
 </trkpt>
 <trkpt lat="51.14719902" lon="7.43568898">
  <ele>352.999</ele>
 </trkpt>
 <trkpt lat="51.14705896" lon="7.43544599">
  <ele>354.322</ele>
 </trkpt>
 <trkpt lat="51.14693801" lon="7.43523602">
  <ele>354.981</ele>
 </trkpt>
 <trkpt lat="51.14678001" lon="7.43496101">
  <ele>357.769</ele>
 </trkpt>
 <trkpt lat="51.14660198" lon="7.43465298">
  <ele>358.731</ele>
 </trkpt>
 <trkpt lat="51.14646996" lon="7.43442801">
  <ele>358.806</ele>
 </trkpt>
 <trkpt lat="51.14621499" lon="7.43399299">
  <ele>359.117</ele>
 </trkpt>
 <trkpt lat="51.14587401" lon="7.43332302">
  <ele>359.173</ele>
 </trkpt>
 <trkpt lat="51.14554100" lon="7.43238601">
  <ele>359.255</ele>
 </trkpt>
 <trkpt lat="51.14524101" lon="7.43155000">
  <ele>359.249</ele>
 </trkpt>
 <trkpt lat="51.14502601" lon="7.43111196">
  <ele>357.239</ele>
 </trkpt>
 <trkpt lat="51.14456300" lon="7.43048701">
  <ele>354.790</ele>
 </trkpt>
 <trkpt lat="51.14430400" lon="7.43025902">
  <ele>354.422</ele>
 </trkpt>
 <trkpt lat="51.14377099" lon="7.43004100">
  <ele>355.807</ele>
 </trkpt>
 <trkpt lat="51.14330001" lon="7.42964798">
  <ele>355.391</ele>
 </trkpt>
 <trkpt lat="51.14254598" lon="7.42895496">
  <ele>353.177</ele>
 </trkpt>
 <trkpt lat="51.14176696" lon="7.42832196">
  <ele>352.272</ele>
 </trkpt>
 <trkpt lat="51.14115802" lon="7.42772500">
  <ele>352.677</ele>
 </trkpt>
 <trkpt lat="51.14078100" lon="7.42739098">
  <ele>353.788</ele>
 </trkpt>
 <trkpt lat="51.14037397" lon="7.42718202">
  <ele>355.349</ele>
 </trkpt>
 <trkpt lat="51.13988204" lon="7.42694397">
  <ele>354.351</ele>
 </trkpt>
 <trkpt lat="51.13930201" lon="7.42657400">
  <ele>352.708</ele>
 </trkpt>
 <trkpt lat="51.13884402" lon="7.42595902">
  <ele>352.879</ele>
 </trkpt>
 <trkpt lat="51.13858896" lon="7.42535703">
  <ele>351.169</ele>
 </trkpt>
 <trkpt lat="51.13839601" lon="7.42495604">
  <ele>351.229</ele>
 </trkpt>
 <trkpt lat="51.13810298" lon="7.42433301">
  <ele>348.111</ele>
 </trkpt>
 <trkpt lat="51.13805302" lon="7.42415196">
  <ele>347.149</ele>
 </trkpt>
 <trkpt lat="51.13760401" lon="7.42290700">
  <ele>344.500</ele>
 </trkpt>
 <trkpt lat="51.13724400" lon="7.42201902">
  <ele>342.938</ele>
 </trkpt>
 <trkpt lat="51.13720603" lon="7.42202899">
  <ele>342.123</ele>
 </trkpt>
 <trkpt lat="51.13696396" lon="7.42209597">
  <ele>339.890</ele>
 </trkpt>
 <trkpt lat="51.13690504" lon="7.42212304">
  <ele>339.701</ele>
 </trkpt>
 <trkpt lat="51.13659197" lon="7.42192296">
  <ele>336.912</ele>
 </trkpt>
 <trkpt lat="51.13639701" lon="7.42159699">
  <ele>334.238</ele>
 </trkpt>
 <trkpt lat="51.13618604" lon="7.42124202">
  <ele>330.240</ele>
 </trkpt>
 <trkpt lat="51.13598797" lon="7.42100196">
  <ele>327.645</ele>
 </trkpt>
 <trkpt lat="51.13577499" lon="7.42080096">
  <ele>325.813</ele>
 </trkpt>
 <trkpt lat="51.13553904" lon="7.42061698">
  <ele>321.654</ele>
 </trkpt>
 <trkpt lat="51.13546402" lon="7.42054196">
  <ele>321.382</ele>
 </trkpt>
 <trkpt lat="51.13514098" lon="7.42022001">
  <ele>318.633</ele>
 </trkpt>
 <trkpt lat="51.13453103" lon="7.41941602">
  <ele>316.082</ele>
 </trkpt>
 <trkpt lat="51.13403097" lon="7.41887396">
  <ele>316.303</ele>
 </trkpt>
 <trkpt lat="51.13365898" lon="7.41848798">
  <ele>318.509</ele>
 </trkpt>
 <trkpt lat="51.13328196" lon="7.41806201">
  <ele>315.967</ele>
 </trkpt>
 <trkpt lat="51.13271601" lon="7.41780996">
  <ele>312.449</ele>
 </trkpt>
 <trkpt lat="51.13255701" lon="7.41776596">
  <ele>311.524</ele>
 </trkpt>
 <trkpt lat="51.13166199" lon="7.41752104">
  <ele>309.791</ele>
 </trkpt>
 <trkpt lat="51.13104198" lon="7.41710404">
  <ele>306.694</ele>
 </trkpt>
 <trkpt lat="51.13086596" lon="7.41697102">
  <ele>304.561</ele>
 </trkpt>
 <trkpt lat="51.13033497" lon="7.41648504">
  <ele>301.407</ele>
 </trkpt>
 <trkpt lat="51.13003800" lon="7.41621899">
  <ele>299.534</ele>
 </trkpt>
 <trkpt lat="51.12936300" lon="7.41557300">
  <ele>296.412</ele>
 </trkpt>
 <trkpt lat="51.12893100" lon="7.41507302">
  <ele>292.457</ele>
 </trkpt>
 <trkpt lat="51.12857100" lon="7.41479600">
  <ele>290.527</ele>
 </trkpt>
 <trkpt lat="51.12810798" lon="7.41471997">
  <ele>289.566</ele>
 </trkpt>
 <trkpt lat="51.12761202" lon="7.41465300">
  <ele>285.899</ele>
 </trkpt>
 <trkpt lat="51.12721698" lon="7.41463398">
  <ele>282.575</ele>
 </trkpt>
 <trkpt lat="51.12682899" lon="7.41467698">
  <ele>280.031</ele>
 </trkpt>
 <trkpt lat="51.12658901" lon="7.41483003">
  <ele>280.067</ele>
 </trkpt>
 <trkpt lat="51.12604704" lon="7.41533797">
  <ele>280.120</ele>
 </trkpt>
 <trkpt lat="51.12589901" lon="7.41520696">
  <ele>279.822</ele>
 </trkpt>
 <trkpt lat="51.12581796" lon="7.41508802">
  <ele>279.647</ele>
 </trkpt>
 <trkpt lat="51.12496301" lon="7.41408002">
  <ele>279.230</ele>
 </trkpt>
 <trkpt lat="51.12433696" lon="7.41366000">
  <ele>279.214</ele>
 </trkpt>
 <trkpt lat="51.12348796" lon="7.41307100">
  <ele>277.849</ele>
 </trkpt>
 <trkpt lat="51.12284096" lon="7.41261402">
  <ele>277.695</ele>
 </trkpt>
 <trkpt lat="51.12218197" lon="7.41219199">
  <ele>278.072</ele>
 </trkpt>
 <trkpt lat="51.12191199" lon="7.41195302">
  <ele>278.002</ele>
 </trkpt>
 <trkpt lat="51.12178098" lon="7.41176100">
  <ele>277.499</ele>
 </trkpt>
 <trkpt lat="51.12167998" lon="7.41139001">
  <ele>277.262</ele>
 </trkpt>
 <trkpt lat="51.12153104" lon="7.41039298">
  <ele>277.274</ele>
 </trkpt>
 <trkpt lat="51.12150103" lon="7.40942001">
  <ele>278.680</ele>
 </trkpt>
 <trkpt lat="51.12141796" lon="7.40902497">
  <ele>280.165</ele>
 </trkpt>
 <trkpt lat="51.12138896" lon="7.40878802">
  <ele>281.282</ele>
 </trkpt>
 <trkpt lat="51.12131503" lon="7.40837303">
  <ele>281.615</ele>
 </trkpt>
 <trkpt lat="51.12121403" lon="7.40780901">
  <ele>283.453</ele>
 </trkpt>
 <trkpt lat="51.12118604" lon="7.40732898">
  <ele>283.573</ele>
 </trkpt>
    </trkseg>
  </trk>

</gpx>
