<?xml version="1.0" encoding="UTF-8" standalone="no"?>
<gpx xmlns="http://www.topografix.com/GPX/1/1" creator="MapSource 6.16.3" version="1.1">

<trk>
  <name>NW 5.05*</name>
<trkseg>
 <trkpt lat="51.94631000" lon="8.78220000">
 </trkpt>
 <trkpt lat="51.94663000" lon="8.78331000">
 </trkpt>
 <trkpt lat="51.94565000" lon="8.78417000">
 </trkpt>
 <trkpt lat="51.94546000" lon="8.78458000">
 </trkpt>
 <trkpt lat="51.94537000" lon="8.78497000">
 </trkpt>
 <trkpt lat="51.94532000" lon="8.78546000">
 </trkpt>
 <trkpt lat="51.94554000" lon="8.78892000">
 </trkpt>
 <trkpt lat="51.94546000" lon="8.79405000">
 </trkpt>
 <trkpt lat="51.94544000" lon="8.80218000">
 </trkpt>
 <trkpt lat="51.94540000" lon="8.80584000">
 </trkpt>
 <trkpt lat="51.94546000" lon="8.80659000">
 </trkpt>
 <trkpt lat="51.94562000" lon="8.80820000">
 </trkpt>
 <trkpt lat="51.94569000" lon="8.80910000">
 </trkpt>
 <trkpt lat="51.94573000" lon="8.81063000">
 </trkpt>
 <trkpt lat="51.94571000" lon="8.81210000">
 </trkpt>
 <trkpt lat="51.94556000" lon="8.81431000">
 </trkpt>
 <trkpt lat="51.94529000" lon="8.81706000">
 </trkpt>
 <trkpt lat="51.94519000" lon="8.81873000">
 </trkpt>
 <trkpt lat="51.94519000" lon="8.81969000">
 </trkpt>
 <trkpt lat="51.94527000" lon="8.82048000">
 </trkpt>
 <trkpt lat="51.94544000" lon="8.82148000">
 </trkpt>
 <trkpt lat="51.94583000" lon="8.82276000">
 </trkpt>
 <trkpt lat="51.94644000" lon="8.82422000">
 </trkpt>
 <trkpt lat="51.94672000" lon="8.82498000">
 </trkpt>
 <trkpt lat="51.94687000" lon="8.82569000">
 </trkpt>
 <trkpt lat="51.94699000" lon="8.82644000">
 </trkpt>
 <trkpt lat="51.94705000" lon="8.82723000">
 </trkpt>
 <trkpt lat="51.94700000" lon="8.82817000">
 </trkpt>
 <trkpt lat="51.94656000" lon="8.83324000">
 </trkpt>
 <trkpt lat="51.94625000" lon="8.83553000">
 </trkpt>
 <trkpt lat="51.94630000" lon="8.83586000">
 </trkpt>
 <trkpt lat="51.94619000" lon="8.83652000">
 </trkpt>
 <trkpt lat="51.94557000" lon="8.83899000">
 </trkpt>
 <trkpt lat="51.94544000" lon="8.83957000">
 </trkpt>
 <trkpt lat="51.94529000" lon="8.83980000">
 </trkpt>
 <trkpt lat="51.94505000" lon="8.83991000">
 </trkpt>
 <trkpt lat="51.94442000" lon="8.84009000">
 </trkpt>
 <trkpt lat="51.94409000" lon="8.84043000">
 </trkpt>
 <trkpt lat="51.94367000" lon="8.84094000">
 </trkpt>
 <trkpt lat="51.94282000" lon="8.84156000">
 </trkpt>
 <trkpt lat="51.94204000" lon="8.84209000">
 </trkpt>
 <trkpt lat="51.94194000" lon="8.84224000">
 </trkpt>
 <trkpt lat="51.94247000" lon="8.84453000">
 </trkpt>
 <trkpt lat="51.94255000" lon="8.84508000">
 </trkpt>
 <trkpt lat="51.94229000" lon="8.84924000">
 </trkpt>
 <trkpt lat="51.94215000" lon="8.85116000">
 </trkpt>
 <trkpt lat="51.94193000" lon="8.85321000">
 </trkpt>
 <trkpt lat="51.94160000" lon="8.85540000">
 </trkpt>
 <trkpt lat="51.94139000" lon="8.85734000">
 </trkpt>
 <trkpt lat="51.94143000" lon="8.85797000">
 </trkpt>
 <trkpt lat="51.94185000" lon="8.86079000">
 </trkpt>
 <trkpt lat="51.94212000" lon="8.86210000">
 </trkpt>
 <trkpt lat="51.93800000" lon="8.87228000">
 </trkpt>
</trkseg>
</trk>

</gpx>
