<?xml version="1.0" encoding="UTF-8" standalone="no"?>
<gpx xmlns="http://www.topografix.com/GPX/1/1" creator="www.bahntrassenradeln.de" version="1.1">

<trk>
  <name>NW 5.09*</name>
<trkseg>
 <trkpt lat="51.49961000" lon="9.14441000">
 </trkpt>
 <trkpt lat="51.49904000" lon="9.14401000">
 </trkpt>
 <trkpt lat="51.49893000" lon="9.14376000">
 </trkpt>
 <trkpt lat="51.49878000" lon="9.14317000">
 </trkpt>
 <trkpt lat="51.49857000" lon="9.14252000">
 </trkpt>
 <trkpt lat="51.49833000" lon="9.14199000">
 </trkpt>
 <trkpt lat="51.49805000" lon="9.14154000">
 </trkpt>
 <trkpt lat="51.49764000" lon="9.14110000">
 </trkpt>
 <trkpt lat="51.49720000" lon="9.14076000">
 </trkpt>
 <trkpt lat="51.49667000" lon="9.14057000">
 </trkpt>
 <trkpt lat="51.49612000" lon="9.14057000">
 </trkpt>
 <trkpt lat="51.49569000" lon="9.14071000">
 </trkpt>
 <trkpt lat="51.49527000" lon="9.14090000">
 </trkpt>
 <trkpt lat="51.49493000" lon="9.14117000">
 </trkpt>
 <trkpt lat="51.49462000" lon="9.14155000">
 </trkpt>
 <trkpt lat="51.49419000" lon="9.14227000">
 </trkpt>
 <trkpt lat="51.49349000" lon="9.14356000">
 </trkpt>
 <trkpt lat="51.49270000" lon="9.14512000">
 </trkpt>
 <trkpt lat="51.49213000" lon="9.14611000">
 </trkpt>
 <trkpt lat="51.49180000" lon="9.14685000">
 </trkpt>
 <trkpt lat="51.49173000" lon="9.14696000">
 </trkpt>
 <trkpt lat="51.49163000" lon="9.14675000">
 </trkpt>
 <trkpt lat="51.49153000" lon="9.14703000">
 </trkpt>
 <trkpt lat="51.49155000" lon="9.14731000">
 </trkpt>
 <trkpt lat="51.49044000" lon="9.15104000">
 </trkpt>
 <trkpt lat="51.49014000" lon="9.15227000">
 </trkpt>
 <trkpt lat="51.49008000" lon="9.15289000">
 </trkpt>
 <trkpt lat="51.49008000" lon="9.15363000">
 </trkpt>
 <trkpt lat="51.49015000" lon="9.15461000">
 </trkpt>
 <trkpt lat="51.49051000" lon="9.15643000">
 </trkpt>
 <trkpt lat="51.49064000" lon="9.15741000">
 </trkpt>
 <trkpt lat="51.49062000" lon="9.15842000">
 </trkpt>
 <trkpt lat="51.49050000" lon="9.15921000">
 </trkpt>
 <trkpt lat="51.49031000" lon="9.15981000">
 </trkpt>
 <trkpt lat="51.49010000" lon="9.16014000">
 </trkpt>
 <trkpt lat="51.48974000" lon="9.16060000">
 </trkpt>
 <trkpt lat="51.48948000" lon="9.16082000">
 </trkpt>
 <trkpt lat="51.48956000" lon="9.16140000">
 </trkpt>
 <trkpt lat="51.48905000" lon="9.16179000">
 </trkpt>
 <trkpt lat="51.48829000" lon="9.16208000">
 </trkpt>
 <trkpt lat="51.48770000" lon="9.16203000">
 </trkpt>
 <trkpt lat="51.48716000" lon="9.16187000">
 </trkpt>
 <trkpt lat="51.48671000" lon="9.16155000">
 </trkpt>
 <trkpt lat="51.48625000" lon="9.16110000">
 </trkpt>
 <trkpt lat="51.48587000" lon="9.16052000">
 </trkpt>
 <trkpt lat="51.48555000" lon="9.15955000">
 </trkpt>
 <trkpt lat="51.48497000" lon="9.15748000">
 </trkpt>
 <trkpt lat="51.48505000" lon="9.15732000">
 </trkpt>
 <trkpt lat="51.48502000" lon="9.15684000">
 </trkpt>
 <trkpt lat="51.48491000" lon="9.15631000">
 </trkpt>
 <trkpt lat="51.48421000" lon="9.15459000">
 </trkpt>
 <trkpt lat="51.48403000" lon="9.15380000">
 </trkpt>
 <trkpt lat="51.48366000" lon="9.15170000">
 </trkpt>
 <trkpt lat="51.48346000" lon="9.15102000">
 </trkpt>
 <trkpt lat="51.48322000" lon="9.15046000">
 </trkpt>
 <trkpt lat="51.48300000" lon="9.15060000">
 </trkpt>
 <trkpt lat="51.48236000" lon="9.14949000">
 </trkpt>
 <trkpt lat="51.48137000" lon="9.14765000">
 </trkpt>
 <trkpt lat="51.48078000" lon="9.14669000">
 </trkpt>
 <trkpt lat="51.48052000" lon="9.14631000">
 </trkpt>
 <trkpt lat="51.48049000" lon="9.14606000">
 </trkpt>
 <trkpt lat="51.47945000" lon="9.14406000">
 </trkpt>
 <trkpt lat="51.47853000" lon="9.14211000">
 </trkpt>
 <trkpt lat="51.47795000" lon="9.14052000">
 </trkpt>
 <trkpt lat="51.47740000" lon="9.13881000">
 </trkpt>
 <trkpt lat="51.47711000" lon="9.13784000">
 </trkpt>
 <trkpt lat="51.47690000" lon="9.13724000">
 </trkpt>
 <trkpt lat="51.47657000" lon="9.13649000">
 </trkpt>
 <trkpt lat="51.47615000" lon="9.13573000">
 </trkpt>
 <trkpt lat="51.47583000" lon="9.13506000">
 </trkpt>
 <trkpt lat="51.47556000" lon="9.13426000">
 </trkpt>
 <trkpt lat="51.47478000" lon="9.13134000">
 </trkpt>
 <trkpt lat="51.47379000" lon="9.12755000">
 </trkpt>
 <trkpt lat="51.47341000" lon="9.12626000">
 </trkpt>
 <trkpt lat="51.47270000" lon="9.12405000">
 </trkpt>
 <trkpt lat="51.47248000" lon="9.12359000">
 </trkpt>
 <trkpt lat="51.47222000" lon="9.12314000">
 </trkpt>
 <trkpt lat="51.47196000" lon="9.12280000">
 </trkpt>
 <trkpt lat="51.47154000" lon="9.12245000">
 </trkpt>
 <trkpt lat="51.47106000" lon="9.12218000">
 </trkpt>
 <trkpt lat="51.47044000" lon="9.12196000">
 </trkpt>
 <trkpt lat="51.46990000" lon="9.12189000">
 </trkpt>
 <trkpt lat="51.46923000" lon="9.12189000">
 </trkpt>
 <trkpt lat="51.46799000" lon="9.12206000">
 </trkpt>
 <trkpt lat="51.46747000" lon="9.12208000">
 </trkpt>
 <trkpt lat="51.46698000" lon="9.12208000">
 </trkpt>
 <trkpt lat="51.46661000" lon="9.12198000">
 </trkpt>
 <trkpt lat="51.46625000" lon="9.12183000">
 </trkpt>
 <trkpt lat="51.46578000" lon="9.12155000">
 </trkpt>
 <trkpt lat="51.46526000" lon="9.12104000">
 </trkpt>
 <trkpt lat="51.46414000" lon="9.11966000">
 </trkpt>
 <trkpt lat="51.46297000" lon="9.11818000">
 </trkpt>
 <trkpt lat="51.46234000" lon="9.11775000">
 </trkpt>
 <trkpt lat="51.46071000" lon="9.11690000">
 </trkpt>
 <trkpt lat="51.45991000" lon="9.11657000">
 </trkpt>
 <trkpt lat="51.45906000" lon="9.11637000">
 </trkpt>
 <trkpt lat="51.45858000" lon="9.11641000">
 </trkpt>
 <trkpt lat="51.45820000" lon="9.11650000">
 </trkpt>
 <trkpt lat="51.45769000" lon="9.11678000">
 </trkpt>
 <trkpt lat="51.45715000" lon="9.11702000">
 </trkpt>
 <trkpt lat="51.45526000" lon="9.11737000">
 </trkpt>
 <trkpt lat="51.45478000" lon="9.11736000">
 </trkpt>
 <trkpt lat="51.45437000" lon="9.11722000">
 </trkpt>
 <trkpt lat="51.45394000" lon="9.11704000">
 </trkpt>
 <trkpt lat="51.45357000" lon="9.11675000">
 </trkpt>
 <trkpt lat="51.45316000" lon="9.11634000">
 </trkpt>
 <trkpt lat="51.45301000" lon="9.11612000">
 </trkpt>
 <trkpt lat="51.45283000" lon="9.11551000">
 </trkpt>
 <trkpt lat="51.45235000" lon="9.11571000"/>
 <trkpt lat="51.45199000" lon="9.11592000"/>
 <trkpt lat="51.45165000" lon="9.11611000"/>
 <trkpt lat="51.45130000" lon="9.11631000"/>
 <trkpt lat="51.45098000" lon="9.11651000"/>
 <trkpt lat="51.45065000" lon="9.11671000"/>
 <trkpt lat="51.45031000" lon="9.11692000"/>
 <trkpt lat="51.44998000" lon="9.11712000"/>
 <trkpt lat="51.44966000" lon="9.11729000"/>
 <trkpt lat="51.44937000" lon="9.11745000"/>
 <trkpt lat="51.44918000" lon="9.11751000"/>
 <trkpt lat="51.44903000" lon="9.11751000"/>
 <trkpt lat="51.44889000" lon="9.11757000"/>
 <trkpt lat="51.44857000" lon="9.11766000"/>
 <trkpt lat="51.44825000" lon="9.11777000"/>
 <trkpt lat="51.44790000" lon="9.11788000"/>
 <trkpt lat="51.44757000" lon="9.11797000"/>
 <trkpt lat="51.44725000" lon="9.11805000"/>
 <trkpt lat="51.44692000" lon="9.11816000"/>
 <trkpt lat="51.44672000" lon="9.11824000"/>
 <trkpt lat="51.44654000" lon="9.11835000"/>
 <trkpt lat="51.44633000" lon="9.11848000"/>
 <trkpt lat="51.44614000" lon="9.11862000"/>
 <trkpt lat="51.44596000" lon="9.11881000"/>
 <trkpt lat="51.44575000" lon="9.11904000"/>
 <trkpt lat="51.44552000" lon="9.11935000"/>
 <trkpt lat="51.44526000" lon="9.11969000"/>
 <trkpt lat="51.44501000" lon="9.12004000"/>
 <trkpt lat="51.44480000" lon="9.12032000"/>
 <trkpt lat="51.44461000" lon="9.12053000"/>
 <trkpt lat="51.44442000" lon="9.12072000"/>
 <trkpt lat="51.44422000" lon="9.12086000"/>
 <trkpt lat="51.44401000" lon="9.12098000"/>
 <trkpt lat="51.44378000" lon="9.12109000"/>
 <trkpt lat="51.44351000" lon="9.12116000"/>
 <trkpt lat="51.44326000" lon="9.12120000"/>
 <trkpt lat="51.44299000" lon="9.12121000"/>
 <trkpt lat="51.44238000" lon="9.12122000"/>
 <trkpt lat="51.44173000" lon="9.12127000"/>
 <trkpt lat="51.44116000" lon="9.12127000"/>
 <trkpt lat="51.44104000" lon="9.12124000"/>
 <trkpt lat="51.44097000" lon="9.12115000"/>
 <trkpt lat="51.44066000" lon="9.12116000"/>
 <trkpt lat="51.44006000" lon="9.12119000"/>
 <trkpt lat="51.43928000" lon="9.12125000"/>
 <trkpt lat="51.43860000" lon="9.12128000"/>
 <trkpt lat="51.43815000" lon="9.12130000"/>
 <trkpt lat="51.43787000" lon="9.12131000"/>
 <trkpt lat="51.43777000" lon="9.12127000"/>
 <trkpt lat="51.43774000" lon="9.12115000"/>
 <trkpt lat="51.43773000" lon="9.12084000"/>
 <trkpt lat="51.43755000" lon="9.12100000"/>
 <trkpt lat="51.43732000" lon="9.12120000"/>
 <trkpt lat="51.43716000" lon="9.12125000"/>
 <trkpt lat="51.43692000" lon="9.12127000"/>
 <trkpt lat="51.43613000" lon="9.12130000"/>
 <trkpt lat="51.43563000" lon="9.12133000"/>
 <trkpt lat="51.43550000" lon="9.12128000"/>
 <trkpt lat="51.43531000" lon="9.12115000"/>
 <trkpt lat="51.43510000" lon="9.12104000"/>
 <trkpt lat="51.43490000" lon="9.12099000"/>
 <trkpt lat="51.43463000" lon="9.12097000"/>
 <trkpt lat="51.43366000" lon="9.12088000"/>
 <trkpt lat="51.43261000" lon="9.12078000"/>
 <trkpt lat="51.43235000" lon="9.12075000"/>
 <trkpt lat="51.43201000" lon="9.12078000"/>
 <trkpt lat="51.43137000" lon="9.12086000"/>
 <trkpt lat="51.43064000" lon="9.12095000"/>
 <trkpt lat="51.42987000" lon="9.12105000"/>
 <trkpt lat="51.42931000" lon="9.12111000"/>
 <trkpt lat="51.42917000" lon="9.12115000"/>
 <trkpt lat="51.42903000" lon="9.12121000"/>
 <trkpt lat="51.42887000" lon="9.12131000"/>
 <trkpt lat="51.42863000" lon="9.12146000"/>
 <trkpt lat="51.42805000" lon="9.12182000"/>
 <trkpt lat="51.42767000" lon="9.12208000"/>
 <trkpt lat="51.42743000" lon="9.12225000"/>
 <trkpt lat="51.42719000" lon="9.12239000"/>
 <trkpt lat="51.42691000" lon="9.12257000"/>
 <trkpt lat="51.42679000" lon="9.12264000"/>
 <trkpt lat="51.42664000" lon="9.12271000"/>
 <trkpt lat="51.42645000" lon="9.12278000"/>
 <trkpt lat="51.42586000" lon="9.12296000"/>
 <trkpt lat="51.42553000" lon="9.12307000"/>
 <trkpt lat="51.42496000" lon="9.12326000"/>
 <trkpt lat="51.42461000" lon="9.12336000"/>
 <trkpt lat="51.42402000" lon="9.12355000"/>
 <trkpt lat="51.42385000" lon="9.12360000"/>
 <trkpt lat="51.42375000" lon="9.12362000"/>
 <trkpt lat="51.42360000" lon="9.12359000"/>
 <trkpt lat="51.42295000" lon="9.12350000"/>
 <trkpt lat="51.42284000" lon="9.12350000"/>
 <trkpt lat="51.42267000" lon="9.12349000"/>
 <trkpt lat="51.42241000" lon="9.12351000"/>
 <trkpt lat="51.42210000" lon="9.12352000"/>
 <trkpt lat="51.42152000" lon="9.12357000"/>
 <trkpt lat="51.42120000" lon="9.12359000"/>
 <trkpt lat="51.42100000" lon="9.12359000"/>
 <trkpt lat="51.42074000" lon="9.12356000"/>
 <trkpt lat="51.42050000" lon="9.12352000"/>
 <trkpt lat="51.42030000" lon="9.12349000"/>
 <trkpt lat="51.42011000" lon="9.12343000"/>
 <trkpt lat="51.41990000" lon="9.12336000"/>
 <trkpt lat="51.41943000" lon="9.12317000"/>
 <trkpt lat="51.41871000" lon="9.12289000"/>
 <trkpt lat="51.41852000" lon="9.12278000"/>
 <trkpt lat="51.41823000" lon="9.12262000"/>
 <trkpt lat="51.41792000" lon="9.12241000"/>
 <trkpt lat="51.41756000" lon="9.12218000"/>
 <trkpt lat="51.41710000" lon="9.12193000"/>
 <trkpt lat="51.41690000" lon="9.12180000"/>
 <trkpt lat="51.41665000" lon="9.12161000"/>
 <trkpt lat="51.41658000" lon="9.12175000"/>
 <trkpt lat="51.41648000" lon="9.12223000"/>
 <trkpt lat="51.41641000" lon="9.12253000"/>
 <trkpt lat="51.41631000" lon="9.12267000"/>
 <trkpt lat="51.41612000" lon="9.12281000"/>
 <trkpt lat="51.41596000" lon="9.12288000"/>
 <trkpt lat="51.41579000" lon="9.12286000"/>
 <trkpt lat="51.41550000" lon="9.12276000"/>
 <trkpt lat="51.41488000" lon="9.12257000"/>
 <trkpt lat="51.41464000" lon="9.12242000"/>
 <trkpt lat="51.41431000" lon="9.12226000"/>
 <trkpt lat="51.41374000" lon="9.12190000"/>
 <trkpt lat="51.41345000" lon="9.12171000"/>
 <trkpt lat="51.41337000" lon="9.12170000"/>
 <trkpt lat="51.41325000" lon="9.12186000"/>
 <trkpt lat="51.41308000" lon="9.12199000"/>
 <trkpt lat="51.41300000" lon="9.12205000"/>
 <trkpt lat="51.41295000" lon="9.12196000"/>
 <trkpt lat="51.41280000" lon="9.12184000"/>
 <trkpt lat="51.41249000" lon="9.12159000"/>
 <trkpt lat="51.41225000" lon="9.12138000"/>
 <trkpt lat="51.41203000" lon="9.12118000"/>
 <trkpt lat="51.41177000" lon="9.12097000"/>
 <trkpt lat="51.41153000" lon="9.12079000"/>
 <trkpt lat="51.41127000" lon="9.12057000"/>
 <trkpt lat="51.41115000" lon="9.12045000"/>
 <trkpt lat="51.41094000" lon="9.12038000"/>
 <trkpt lat="51.41082000" lon="9.12028000"/>
 <trkpt lat="51.41049000" lon="9.11993000"/>
 <trkpt lat="51.41035000" lon="9.11979000"/>
 <trkpt lat="51.41018000" lon="9.11955000"/>
 <trkpt lat="51.41000000" lon="9.11930000"/>
 <trkpt lat="51.40983000" lon="9.11904000"/>
 <trkpt lat="51.40967000" lon="9.11885000"/>
 <trkpt lat="51.40942000" lon="9.11858000"/>
  </trkseg>
</trk>

</gpx>
