<?xml version="1.0" encoding="UTF-8" standalone="no"?>
<gpx xmlns="http://www.topografix.com/GPX/1/1" creator="MapSource 6.16.3" version="1.1">

  <trk>
    <name>NW 5.07</name>
    <trkseg>
 <trkpt lat="51.85629504" lon="8.28684803">
  <ele>78.462</ele>
 </trkpt>
 <trkpt lat="51.85639998" lon="8.28775202">
  <ele>77.335</ele>
 </trkpt>
 <trkpt lat="51.85635002" lon="8.28850002">
  <ele>77.404</ele>
 </trkpt>
 <trkpt lat="51.85626897" lon="8.28960501">
  <ele>77.372</ele>
 </trkpt>
 <trkpt lat="51.85626000" lon="8.29086103">
  <ele>77.773</ele>
 </trkpt>
 <trkpt lat="51.85623502" lon="8.29247204">
  <ele>76.953</ele>
 </trkpt>
 <trkpt lat="51.85616604" lon="8.29340897">
  <ele>76.949</ele>
 </trkpt>
 <trkpt lat="51.85612799" lon="8.29372404">
  <ele>76.475</ele>
 </trkpt>
 <trkpt lat="51.85607904" lon="8.29428202">
  <ele>76.721</ele>
 </trkpt>
 <trkpt lat="51.85625598" lon="8.29441102">
  <ele>76.209</ele>
 </trkpt>
 <trkpt lat="51.85644700" lon="8.29449702">
  <ele>76.811</ele>
 </trkpt>
 <trkpt lat="51.85647399" lon="8.29461303">
  <ele>75.974</ele>
 </trkpt>
 <trkpt lat="51.85648497" lon="8.29481000">
  <ele>75.640</ele>
 </trkpt>
 <trkpt lat="51.85643904" lon="8.29549296">
  <ele>75.407</ele>
 </trkpt>
 <trkpt lat="51.85640601" lon="8.29611699">
  <ele>74.647</ele>
 </trkpt>
 <trkpt lat="51.85630099" lon="8.29744997">
  <ele>74.536</ele>
 </trkpt>
 <trkpt lat="51.85608700" lon="8.29791700">
  <ele>74.845</ele>
 </trkpt>
 <trkpt lat="51.85589598" lon="8.29811800">
  <ele>74.557</ele>
 </trkpt>
 <trkpt lat="51.85591400" lon="8.29830903">
  <ele>74.637</ele>
 </trkpt>
 <trkpt lat="51.85600603" lon="8.29841003">
  <ele>73.717</ele>
 </trkpt>
 <trkpt lat="51.85613704" lon="8.29857297">
  <ele>74.070</ele>
 </trkpt>
 <trkpt lat="51.85643401" lon="8.29894496">
  <ele>74.124</ele>
 </trkpt>
 <trkpt lat="51.85651397" lon="8.29903498">
  <ele>74.469</ele>
 </trkpt>
 <trkpt lat="51.85687004" lon="8.29951803">
  <ele>74.524</ele>
 </trkpt>
 <trkpt lat="51.85730799" lon="8.30006001">
  <ele>74.201</ele>
 </trkpt>
 <trkpt lat="51.85766498" lon="8.30031197">
  <ele>74.207</ele>
 </trkpt>
 <trkpt lat="51.85809002" lon="8.30059100">
  <ele>74.170</ele>
 </trkpt>
 <trkpt lat="51.85861800" lon="8.30090700">
  <ele>74.450</ele>
 </trkpt>
 <trkpt lat="51.85894196" lon="8.30104203">
  <ele>74.731</ele>
 </trkpt>
 <trkpt lat="51.85907699" lon="8.30107396">
  <ele>74.728</ele>
 </trkpt>
 <trkpt lat="51.85918302" lon="8.30129902">
  <ele>74.667</ele>
 </trkpt>
 <trkpt lat="51.85942199" lon="8.30243301">
  <ele>74.152</ele>
 </trkpt>
 <trkpt lat="51.85958301" lon="8.30315896">
  <ele>75.239</ele>
 </trkpt>
 <trkpt lat="51.85952098" lon="8.30382197">
  <ele>75.227</ele>
 </trkpt>
 <trkpt lat="51.85934697" lon="8.30468799">
  <ele>75.332</ele>
 </trkpt>
 <trkpt lat="51.85899401" lon="8.30547396">
  <ele>75.445</ele>
 </trkpt>
 <trkpt lat="51.85842999" lon="8.30627100">
  <ele>76.329</ele>
 </trkpt>
 <trkpt lat="51.85823302" lon="8.30652002">
  <ele>76.553</ele>
 </trkpt>
 <trkpt lat="51.85792901" lon="8.30674097">
  <ele>76.975</ele>
 </trkpt>
 <trkpt lat="51.85737798" lon="8.30692202">
  <ele>78.752</ele>
 </trkpt>
 <trkpt lat="51.85697397" lon="8.30692504">
  <ele>78.693</ele>
 </trkpt>
 <trkpt lat="51.85680298" lon="8.30691297">
  <ele>78.243</ele>
 </trkpt>
 <trkpt lat="51.85576203" lon="8.30673502">
  <ele>77.922</ele>
 </trkpt>
 <trkpt lat="51.85555299" lon="8.30669797">
  <ele>77.871</ele>
 </trkpt>
 <trkpt lat="51.85517203" lon="8.30664902">
  <ele>77.660</ele>
 </trkpt>
 <trkpt lat="51.85479099" lon="8.30657601">
  <ele>77.225</ele>
 </trkpt>
 <trkpt lat="51.85432898" lon="8.30650896">
  <ele>77.477</ele>
 </trkpt>
 <trkpt lat="51.85357201" lon="8.30637803">
  <ele>77.296</ele>
 </trkpt>
 <trkpt lat="51.85300103" lon="8.30628499">
  <ele>77.397</ele>
 </trkpt>
 <trkpt lat="51.85242000" lon="8.30619799">
  <ele>77.400</ele>
 </trkpt>
 <trkpt lat="51.85204198" lon="8.30613898">
  <ele>77.329</ele>
 </trkpt>
 <trkpt lat="51.85114997" lon="8.30599196">
  <ele>77.501</ele>
 </trkpt>
 <trkpt lat="51.85054103" lon="8.30589800">
  <ele>77.484</ele>
 </trkpt>
 <trkpt lat="51.85014398" lon="8.30585299">
  <ele>77.251</ele>
 </trkpt>
 <trkpt lat="51.84939497" lon="8.30571201">
  <ele>77.759</ele>
 </trkpt>
 <trkpt lat="51.84897596" lon="8.30564101">
  <ele>77.333</ele>
 </trkpt>
 <trkpt lat="51.84874898" lon="8.30560204">
  <ele>77.343</ele>
 </trkpt>
 <trkpt lat="51.84844698" lon="8.30557304">
  <ele>77.889</ele>
 </trkpt>
 <trkpt lat="51.84782001" lon="8.30545502">
  <ele>77.006</ele>
 </trkpt>
 <trkpt lat="51.84713596" lon="8.30525000">
  <ele>77.848</ele>
 </trkpt>
 <trkpt lat="51.84700504" lon="8.30519903">
  <ele>77.496</ele>
 </trkpt>
 <trkpt lat="51.84640297" lon="8.30484599">
  <ele>77.171</ele>
 </trkpt>
 <trkpt lat="51.84619199" lon="8.30468497">
  <ele>77.720</ele>
 </trkpt>
 <trkpt lat="51.84605101" lon="8.30457098">
  <ele>76.512</ele>
 </trkpt>
 <trkpt lat="51.84546897" lon="8.30397997">
  <ele>76.266</ele>
 </trkpt>
 <trkpt lat="51.84490596" lon="8.30333297">
  <ele>76.692</ele>
 </trkpt>
 <trkpt lat="51.84450304" lon="8.30282997">
  <ele>76.880</ele>
 </trkpt>
 <trkpt lat="51.84444504" lon="8.30275403">
  <ele>77.531</ele>
 </trkpt>
 <trkpt lat="51.84432199" lon="8.30261297">
  <ele>77.168</ele>
 </trkpt>
 <trkpt lat="51.84393500" lon="8.30213998">
  <ele>76.982</ele>
 </trkpt>
 <trkpt lat="51.84336998" lon="8.30145098">
  <ele>77.017</ele>
 </trkpt>
 <trkpt lat="51.84310502" lon="8.30112602">
  <ele>77.465</ele>
 </trkpt>
 <trkpt lat="51.84293001" lon="8.30091697">
  <ele>76.127</ele>
 </trkpt>
 <trkpt lat="51.84247898" lon="8.30039696">
  <ele>76.054</ele>
 </trkpt>
 <trkpt lat="51.84185503" lon="8.29964904">
  <ele>76.666</ele>
 </trkpt>
 <trkpt lat="51.84169401" lon="8.29947403">
  <ele>75.718</ele>
 </trkpt>
 <trkpt lat="51.84129604" lon="8.29907496">
  <ele>77.240</ele>
 </trkpt>
 <trkpt lat="51.84119504" lon="8.29880197">
  <ele>76.459</ele>
 </trkpt>
 <trkpt lat="51.84102899" lon="8.29883398">
  <ele>76.173</ele>
 </trkpt>
 <trkpt lat="51.84095599" lon="8.29890900">
  <ele>76.938</ele>
 </trkpt>
 <trkpt lat="51.84088499" lon="8.29888998">
  <ele>76.263</ele>
 </trkpt>
 <trkpt lat="51.84072004" lon="8.29883298">
  <ele>76.372</ele>
 </trkpt>
 <trkpt lat="51.84012501" lon="8.29867498">
  <ele>75.798</ele>
 </trkpt>
 <trkpt lat="51.84003398" lon="8.29865998">
  <ele>76.240</ele>
 </trkpt>
 <trkpt lat="51.83957700" lon="8.29868303">
  <ele>76.228</ele>
 </trkpt>
 <trkpt lat="51.83926502" lon="8.29874002">
  <ele>76.218</ele>
 </trkpt>
 <trkpt lat="51.83850797" lon="8.29907899">
  <ele>75.970</ele>
 </trkpt>
 <trkpt lat="51.83804898" lon="8.29941502">
  <ele>76.198</ele>
 </trkpt>
 <trkpt lat="51.83732796" lon="8.30000804">
  <ele>77.208</ele>
 </trkpt>
 <trkpt lat="51.83660603" lon="8.30057600">
  <ele>77.613</ele>
 </trkpt>
 <trkpt lat="51.83644996" lon="8.30069996">
  <ele>77.607</ele>
 </trkpt>
 <trkpt lat="51.83591796" lon="8.30112803">
  <ele>77.252</ele>
 </trkpt>
 <trkpt lat="51.83535696" lon="8.30166003">
  <ele>77.776</ele>
 </trkpt>
 <trkpt lat="51.83520500" lon="8.30186304">
  <ele>76.486</ele>
 </trkpt>
 <trkpt lat="51.83469999" lon="8.30266703">
  <ele>77.201</ele>
 </trkpt>
 <trkpt lat="51.83453000" lon="8.30299501">
  <ele>77.333</ele>
 </trkpt>
 <trkpt lat="51.83428198" lon="8.30287800">
  <ele>77.284</ele>
 </trkpt>
 <trkpt lat="51.83398903" lon="8.30268597">
  <ele>77.344</ele>
 </trkpt>
 <trkpt lat="51.83383497" lon="8.30324102">
  <ele>77.153</ele>
 </trkpt>
 <trkpt lat="51.83372400" lon="8.30367696">
  <ele>76.424</ele>
 </trkpt>
 <trkpt lat="51.83351303" lon="8.30452597">
  <ele>75.924</ele>
 </trkpt>
 <trkpt lat="51.83324003" lon="8.30490097">
  <ele>76.745</ele>
 </trkpt>
 <trkpt lat="51.83318596" lon="8.30507398">
  <ele>77.766</ele>
 </trkpt>
 <trkpt lat="51.83327498" lon="8.30550204">
  <ele>76.753</ele>
 </trkpt>
 <trkpt lat="51.83325402" lon="8.30619103">
  <ele>76.262</ele>
 </trkpt>
 <trkpt lat="51.83330499" lon="8.30718102">
  <ele>76.498</ele>
 </trkpt>
 <trkpt lat="51.83330004" lon="8.30747296">
  <ele>77.125</ele>
 </trkpt>
 <trkpt lat="51.83331898" lon="8.30767002">
  <ele>76.925</ele>
 </trkpt>
 <trkpt lat="51.83344899" lon="8.30760498">
  <ele>76.399</ele>
 </trkpt>
 <trkpt lat="51.83413203" lon="8.30799499">
  <ele>76.539</ele>
 </trkpt>
 <trkpt lat="51.83446102" lon="8.30850402">
  <ele>76.520</ele>
 </trkpt>
 <trkpt lat="51.83478003" lon="8.30885497">
  <ele>77.507</ele>
 </trkpt>
 <trkpt lat="51.83514699" lon="8.30918899">
  <ele>77.191</ele>
 </trkpt>
 <trkpt lat="51.83533902" lon="8.30938504">
  <ele>76.063</ele>
 </trkpt>
 <trkpt lat="51.83587496" lon="8.30960800">
  <ele>75.598</ele>
 </trkpt>
 <trkpt lat="51.83621904" lon="8.30973297">
  <ele>75.933</ele>
 </trkpt>
 <trkpt lat="51.83627604" lon="8.30974303">
  <ele>76.233</ele>
 </trkpt>
 <trkpt lat="51.83634804" lon="8.30992299">
  <ele>76.426</ele>
 </trkpt>
 <trkpt lat="51.83641803" lon="8.31041501">
  <ele>76.900</ele>
 </trkpt>
 <trkpt lat="51.83651098" lon="8.31042197">
  <ele>76.900</ele>
 </trkpt>
 <trkpt lat="51.83669203" lon="8.31013799">
  <ele>76.557</ele>
 </trkpt>
 <trkpt lat="51.83682597" lon="8.31017403">
  <ele>76.945</ele>
 </trkpt>
 <trkpt lat="51.83733802" lon="8.31086503">
  <ele>76.009</ele>
 </trkpt>
 <trkpt lat="51.83768797" lon="8.31136904">
  <ele>76.245</ele>
 </trkpt>
 <trkpt lat="51.83789701" lon="8.31171001">
  <ele>76.033</ele>
 </trkpt>
 <trkpt lat="51.83807203" lon="8.31227202">
  <ele>75.559</ele>
 </trkpt>
 <trkpt lat="51.83817504" lon="8.31301399">
  <ele>75.655</ele>
 </trkpt>
 <trkpt lat="51.83818401" lon="8.31323803">
  <ele>75.188</ele>
 </trkpt>
 <trkpt lat="51.83817999" lon="8.31353802">
  <ele>75.886</ele>
 </trkpt>
 <trkpt lat="51.83805803" lon="8.31421503">
  <ele>77.461</ele>
 </trkpt>
 <trkpt lat="51.83799801" lon="8.31439298">
  <ele>76.560</ele>
 </trkpt>
 <trkpt lat="51.83788796" lon="8.31470897">
  <ele>76.297</ele>
 </trkpt>
 <trkpt lat="51.83757397" lon="8.31544298">
  <ele>75.739</ele>
 </trkpt>
 <trkpt lat="51.83718799" lon="8.31599702">
  <ele>76.294</ele>
 </trkpt>
 <trkpt lat="51.83660402" lon="8.31665399">
  <ele>76.098</ele>
 </trkpt>
 <trkpt lat="51.83622499" lon="8.31702800">
  <ele>75.879</ele>
 </trkpt>
 <trkpt lat="51.83610697" lon="8.31716596">
  <ele>75.489</ele>
 </trkpt>
 <trkpt lat="51.83555997" lon="8.31756704">
  <ele>75.919</ele>
 </trkpt>
 <trkpt lat="51.83489202" lon="8.31796199">
  <ele>75.765</ele>
 </trkpt>
 <trkpt lat="51.83428902" lon="8.31831504">
  <ele>76.145</ele>
 </trkpt>
 <trkpt lat="51.83374302" lon="8.31863497">
  <ele>76.680</ele>
 </trkpt>
 <trkpt lat="51.83364797" lon="8.31872701">
  <ele>77.608</ele>
 </trkpt>
 <trkpt lat="51.83359198" lon="8.31890202">
  <ele>76.699</ele>
 </trkpt>
 <trkpt lat="51.83355602" lon="8.31890898">
  <ele>77.240</ele>
 </trkpt>
 <trkpt lat="51.83345502" lon="8.31876900">
  <ele>76.544</ele>
 </trkpt>
 <trkpt lat="51.83299997" lon="8.31903202">
  <ele>76.315</ele>
 </trkpt>
 <trkpt lat="51.83240804" lon="8.31934299">
  <ele>75.032</ele>
 </trkpt>
 <trkpt lat="51.83165601" lon="8.31975404">
  <ele>75.284</ele>
 </trkpt>
 <trkpt lat="51.83145300" lon="8.32002603">
  <ele>75.546</ele>
 </trkpt>
 <trkpt lat="51.83144001" lon="8.32075300">
  <ele>74.653</ele>
 </trkpt>
 <trkpt lat="51.83141302" lon="8.32089700">
  <ele>75.434</ele>
 </trkpt>
 <trkpt lat="51.83109803" lon="8.32170300">
  <ele>74.841</ele>
 </trkpt>
 <trkpt lat="51.83087398" lon="8.32225797">
  <ele>76.360</ele>
 </trkpt>
 <trkpt lat="51.83104598" lon="8.32250901">
  <ele>75.997</ele>
 </trkpt>
 <trkpt lat="51.83121102" lon="8.32284001">
  <ele>76.572</ele>
 </trkpt>
 <trkpt lat="51.83121102" lon="8.32336798">
  <ele>77.177</ele>
 </trkpt>
 <trkpt lat="51.83120197" lon="8.32382002">
  <ele>78.373</ele>
 </trkpt>
 <trkpt lat="51.83108001" lon="8.32385899">
  <ele>77.970</ele>
 </trkpt>
 <trkpt lat="51.83109803" lon="8.32393602">
  <ele>77.692</ele>
 </trkpt>
 <trkpt lat="51.83109904" lon="8.32410500">
  <ele>78.036</ele>
 </trkpt>
 <trkpt lat="51.83114204" lon="8.32432997">
  <ele>77.972</ele>
 </trkpt>
 <trkpt lat="51.83137598" lon="8.32534896">
  <ele>77.894</ele>
 </trkpt>
 <trkpt lat="51.83150103" lon="8.32651698">
  <ele>78.673</ele>
 </trkpt>
 <trkpt lat="51.83159198" lon="8.32763697">
  <ele>77.658</ele>
 </trkpt>
 <trkpt lat="51.83164897" lon="8.32816000">
  <ele>76.976</ele>
 </trkpt>
 <trkpt lat="51.83179197" lon="8.32945199">
  <ele>77.255</ele>
 </trkpt>
 <trkpt lat="51.83179901" lon="8.32963203">
  <ele>77.817</ele>
 </trkpt>
 <trkpt lat="51.83183497" lon="8.32986203">
  <ele>78.155</ele>
 </trkpt>
 <trkpt lat="51.83190202" lon="8.33055404">
  <ele>78.625</ele>
 </trkpt>
 <trkpt lat="51.83207603" lon="8.33199103">
  <ele>76.365</ele>
 </trkpt>
 <trkpt lat="51.83225096" lon="8.33382399">
  <ele>75.921</ele>
 </trkpt>
 <trkpt lat="51.83241801" lon="8.33538897">
  <ele>76.695</ele>
 </trkpt>
 <trkpt lat="51.83249404" lon="8.33610202">
  <ele>77.265</ele>
 </trkpt>
 <trkpt lat="51.83259697" lon="8.33718002">
  <ele>76.261</ele>
 </trkpt>
 <trkpt lat="51.83260401" lon="8.33799399">
  <ele>76.861</ele>
 </trkpt>
 <trkpt lat="51.83250804" lon="8.33883000">
  <ele>76.925</ele>
 </trkpt>
 <trkpt lat="51.83243101" lon="8.33947498">
  <ele>78.135</ele>
 </trkpt>
 <trkpt lat="51.83234199" lon="8.34033304">
  <ele>78.206</ele>
 </trkpt>
 <trkpt lat="51.83234400" lon="8.34145403">
  <ele>77.670</ele>
 </trkpt>
 <trkpt lat="51.83237996" lon="8.34227798">
  <ele>77.778</ele>
 </trkpt>
 <trkpt lat="51.83233403" lon="8.34317199">
  <ele>78.001</ele>
 </trkpt>
 <trkpt lat="51.83227703" lon="8.34421998">
  <ele>77.802</ele>
 </trkpt>
 <trkpt lat="51.83221299" lon="8.34563199">
  <ele>77.268</ele>
 </trkpt>
 <trkpt lat="51.83213797" lon="8.34719203">
  <ele>78.139</ele>
 </trkpt>
 <trkpt lat="51.83209699" lon="8.34829099">
  <ele>77.974</ele>
 </trkpt>
 <trkpt lat="51.83208500" lon="8.34856600">
  <ele>78.371</ele>
 </trkpt>
 <trkpt lat="51.83207997" lon="8.34879801">
  <ele>78.111</ele>
 </trkpt>
 <trkpt lat="51.83203404" lon="8.34976402">
  <ele>77.553</ele>
 </trkpt>
 <trkpt lat="51.83196397" lon="8.35131099">
  <ele>77.519</ele>
 </trkpt>
 <trkpt lat="51.83190504" lon="8.35250599">
  <ele>76.450</ele>
 </trkpt>
 <trkpt lat="51.83188098" lon="8.35300698">
  <ele>78.534</ele>
 </trkpt>
 <trkpt lat="51.83186104" lon="8.35321996">
  <ele>79.102</ele>
 </trkpt>
 <trkpt lat="51.83184402" lon="8.35354401">
  <ele>78.785</ele>
 </trkpt>
 <trkpt lat="51.83173698" lon="8.35506499">
  <ele>77.838</ele>
 </trkpt>
 <trkpt lat="51.83150397" lon="8.35572003">
  <ele>78.708</ele>
 </trkpt>
 <trkpt lat="51.83114296" lon="8.35671698">
  <ele>78.618</ele>
 </trkpt>
 <trkpt lat="51.83110096" lon="8.35685201">
  <ele>79.844</ele>
 </trkpt>
 <trkpt lat="51.83102502" lon="8.35709400">
  <ele>80.448</ele>
 </trkpt>
 <trkpt lat="51.83076703" lon="8.35785599">
  <ele>81.549</ele>
 </trkpt>
 <trkpt lat="51.83046604" lon="8.35876702">
  <ele>80.764</ele>
 </trkpt>
 <trkpt lat="51.83005004" lon="8.35999497">
  <ele>80.960</ele>
 </trkpt>
 <trkpt lat="51.82957697" lon="8.36141797">
  <ele>81.256</ele>
 </trkpt>
 <trkpt lat="51.82923901" lon="8.36245297">
  <ele>81.230</ele>
 </trkpt>
 <trkpt lat="51.82885302" lon="8.36361403">
  <ele>80.960</ele>
 </trkpt>
 <trkpt lat="51.82852697" lon="8.36458800">
  <ele>80.919</ele>
 </trkpt>
 <trkpt lat="51.82816101" lon="8.36567497">
  <ele>81.182</ele>
 </trkpt>
 <trkpt lat="51.82800402" lon="8.36614201">
  <ele>80.034</ele>
 </trkpt>
 <trkpt lat="51.82793101" lon="8.36637402">
  <ele>80.388</ele>
 </trkpt>
 <trkpt lat="51.82761703" lon="8.36732503">
  <ele>81.190</ele>
 </trkpt>
 <trkpt lat="51.82717597" lon="8.36865599">
  <ele>80.697</ele>
 </trkpt>
 <trkpt lat="51.82677297" lon="8.36986600">
  <ele>80.610</ele>
 </trkpt>
 <trkpt lat="51.82641397" lon="8.37094903">
  <ele>79.103</ele>
 </trkpt>
 <trkpt lat="51.82612203" lon="8.37180700">
  <ele>79.237</ele>
 </trkpt>
 <trkpt lat="51.82570604" lon="8.37308600">
  <ele>79.599</ele>
 </trkpt>
 <trkpt lat="51.82538199" lon="8.37412703">
  <ele>79.741</ele>
 </trkpt>
 <trkpt lat="51.82515099" lon="8.37487101">
  <ele>79.433</ele>
 </trkpt>
 <trkpt lat="51.82491504" lon="8.37560702">
  <ele>79.938</ele>
 </trkpt>
 <trkpt lat="51.82498000" lon="8.37596099">
  <ele>79.985</ele>
 </trkpt>
 <trkpt lat="51.82516599" lon="8.37617699">
  <ele>80.491</ele>
 </trkpt>
 <trkpt lat="51.82531402" lon="8.37654596">
  <ele>80.024</ele>
 </trkpt>
 <trkpt lat="51.82549498" lon="8.37752103">
  <ele>81.456</ele>
 </trkpt>
 <trkpt lat="51.82572498" lon="8.37878997">
  <ele>81.201</ele>
 </trkpt>
 <trkpt lat="51.82575398" lon="8.37908702">
  <ele>81.128</ele>
 </trkpt>
 <trkpt lat="51.82573001" lon="8.38014096">
  <ele>80.368</ele>
 </trkpt>
 <trkpt lat="51.82571098" lon="8.38080598">
  <ele>80.918</ele>
 </trkpt>
 <trkpt lat="51.82578298" lon="8.38196503">
  <ele>80.966</ele>
 </trkpt>
 <trkpt lat="51.82581500" lon="8.38285502">
  <ele>80.733</ele>
 </trkpt>
 <trkpt lat="51.82576303" lon="8.38343203">
  <ele>81.937</ele>
 </trkpt>
 <trkpt lat="51.82572900" lon="8.38370201">
  <ele>81.475</ele>
 </trkpt>
 <trkpt lat="51.82553002" lon="8.38471999">
  <ele>81.790</ele>
 </trkpt>
 <trkpt lat="51.82523204" lon="8.38609002">
  <ele>81.865</ele>
 </trkpt>
 <trkpt lat="51.82504504" lon="8.38719903">
  <ele>80.982</ele>
 </trkpt>
 <trkpt lat="51.82492702" lon="8.38799899">
  <ele>81.877</ele>
 </trkpt>
 <trkpt lat="51.82494898" lon="8.38797896">
  <ele>82.209</ele>
 </trkpt>
 <trkpt lat="51.82491504" lon="8.38821298">
  <ele>81.370</ele>
 </trkpt>
 <trkpt lat="51.82480196" lon="8.38910197">
  <ele>81.466</ele>
 </trkpt>
 <trkpt lat="51.82478604" lon="8.38960103">
  <ele>82.217</ele>
 </trkpt>
 <trkpt lat="51.82481202" lon="8.38982700">
  <ele>81.584</ele>
 </trkpt>
 <trkpt lat="51.82486902" lon="8.39014702">
  <ele>81.716</ele>
 </trkpt>
 <trkpt lat="51.82475897" lon="8.39033101">
  <ele>81.882</ele>
 </trkpt>
 <trkpt lat="51.82475000" lon="8.39046503">
  <ele>81.712</ele>
 </trkpt>
 <trkpt lat="51.82474698" lon="8.39130498">
  <ele>81.911</ele>
 </trkpt>
 <trkpt lat="51.82471102" lon="8.39263100">
  <ele>81.322</ele>
 </trkpt>
 <trkpt lat="51.82460700" lon="8.39335998">
  <ele>81.419</ele>
 </trkpt>
 <trkpt lat="51.82450499" lon="8.39374797">
  <ele>81.968</ele>
 </trkpt>
 <trkpt lat="51.82446803" lon="8.39393598">
  <ele>81.522</ele>
 </trkpt>
 <trkpt lat="51.82426502" lon="8.39473402">
  <ele>80.977</ele>
 </trkpt>
 <trkpt lat="51.82411901" lon="8.39530902">
  <ele>80.571</ele>
 </trkpt>
 <trkpt lat="51.82393997" lon="8.39607898">
  <ele>80.735</ele>
 </trkpt>
 <trkpt lat="51.82374802" lon="8.39682204">
  <ele>80.960</ele>
 </trkpt>
 <trkpt lat="51.82357402" lon="8.39761798">
  <ele>81.092</ele>
 </trkpt>
 <trkpt lat="51.82349699" lon="8.39798000">
  <ele>80.705</ele>
 </trkpt>
 <trkpt lat="51.82343999" lon="8.39824797">
  <ele>79.687</ele>
 </trkpt>
 <trkpt lat="51.82327696" lon="8.39906302">
  <ele>80.574</ele>
 </trkpt>
 <trkpt lat="51.82301201" lon="8.40037999">
  <ele>81.057</ele>
 </trkpt>
 <trkpt lat="51.82288100" lon="8.40113201">
  <ele>81.003</ele>
 </trkpt>
 <trkpt lat="51.82284697" lon="8.40131499">
  <ele>83.206</ele>
 </trkpt>
 <trkpt lat="51.82283096" lon="8.40154197">
  <ele>82.308</ele>
 </trkpt>
 <trkpt lat="51.82279500" lon="8.40181497">
  <ele>81.421</ele>
 </trkpt>
 <trkpt lat="51.82265804" lon="8.40269599">
  <ele>81.727</ele>
 </trkpt>
 <trkpt lat="51.82246903" lon="8.40389703">
  <ele>81.490</ele>
 </trkpt>
 <trkpt lat="51.82233903" lon="8.40468602">
  <ele>81.543</ele>
 </trkpt>
 <trkpt lat="51.82222302" lon="8.40559504">
  <ele>82.284</ele>
 </trkpt>
 <trkpt lat="51.82219896" lon="8.40656097">
  <ele>82.052</ele>
 </trkpt>
 <trkpt lat="51.82222897" lon="8.40785497">
  <ele>82.680</ele>
 </trkpt>
 <trkpt lat="51.82222897" lon="8.40886599">
  <ele>82.927</ele>
 </trkpt>
 <trkpt lat="51.82222101" lon="8.40904503">
  <ele>83.401</ele>
 </trkpt>
 <trkpt lat="51.82220902" lon="8.40930898">
  <ele>83.466</ele>
 </trkpt>
 <trkpt lat="51.82215898" lon="8.41032503">
  <ele>82.753</ele>
 </trkpt>
 <trkpt lat="51.82208003" lon="8.41134503">
  <ele>83.012</ele>
 </trkpt>
 <trkpt lat="51.82203099" lon="8.41251204">
  <ele>83.233</ele>
 </trkpt>
 <trkpt lat="51.82201498" lon="8.41284103">
  <ele>83.957</ele>
 </trkpt>
 <trkpt lat="51.82201004" lon="8.41307899">
  <ele>84.060</ele>
 </trkpt>
 <trkpt lat="51.82196100" lon="8.41395197">
  <ele>83.844</ele>
 </trkpt>
 <trkpt lat="51.82189303" lon="8.41527002">
  <ele>82.699</ele>
 </trkpt>
 <trkpt lat="51.82182999" lon="8.41644198">
  <ele>82.867</ele>
 </trkpt>
 <trkpt lat="51.82174299" lon="8.41737304">
  <ele>82.814</ele>
 </trkpt>
 <trkpt lat="51.82160402" lon="8.41839697">
  <ele>82.440</ele>
 </trkpt>
 <trkpt lat="51.82142699" lon="8.41934396">
  <ele>82.816</ele>
 </trkpt>
 <trkpt lat="51.82123203" lon="8.42023797">
  <ele>83.004</ele>
 </trkpt>
 <trkpt lat="51.82105500" lon="8.42087600">
  <ele>83.384</ele>
 </trkpt>
 <trkpt lat="51.82097403" lon="8.42115797">
  <ele>83.090</ele>
 </trkpt>
 <trkpt lat="51.82066097" lon="8.42211703">
  <ele>83.285</ele>
 </trkpt>
 <trkpt lat="51.82041002" lon="8.42289596">
  <ele>82.299</ele>
 </trkpt>
 <trkpt lat="51.82001104" lon="8.42414201">
  <ele>82.580</ele>
 </trkpt>
 <trkpt lat="51.81963603" lon="8.42530701">
  <ele>82.800</ele>
 </trkpt>
 <trkpt lat="51.81918500" lon="8.42670000">
  <ele>81.985</ele>
 </trkpt>
 <trkpt lat="51.81883397" lon="8.42782603">
  <ele>82.721</ele>
 </trkpt>
 <trkpt lat="51.81863900" lon="8.42871602">
  <ele>83.732</ele>
 </trkpt>
 <trkpt lat="51.81856398" lon="8.42915598">
  <ele>84.198</ele>
 </trkpt>
 <trkpt lat="51.81849198" lon="8.42969603">
  <ele>84.334</ele>
 </trkpt>
 <trkpt lat="51.81844496" lon="8.42984699">
  <ele>83.958</ele>
 </trkpt>
 <trkpt lat="51.81831999" lon="8.42988504">
  <ele>84.247</ele>
 </trkpt>
 <trkpt lat="51.81834899" lon="8.43018201">
  <ele>84.556</ele>
 </trkpt>
 <trkpt lat="51.81834497" lon="8.43035803">
  <ele>84.680</ele>
 </trkpt>
 <trkpt lat="51.81828202" lon="8.43086002">
  <ele>84.779</ele>
 </trkpt>
 <trkpt lat="51.81824103" lon="8.43126303">
  <ele>84.673</ele>
 </trkpt>
 <trkpt lat="51.81804104" lon="8.43254202">
  <ele>85.451</ele>
 </trkpt>
 <trkpt lat="51.81787600" lon="8.43364500">
  <ele>85.413</ele>
 </trkpt>
 <trkpt lat="51.81772001" lon="8.43479197">
  <ele>84.769</ele>
 </trkpt>
 <trkpt lat="51.81751499" lon="8.43624003">
  <ele>85.494</ele>
 </trkpt>
 <trkpt lat="51.81746403" lon="8.43662401">
  <ele>85.492</ele>
 </trkpt>
 <trkpt lat="51.81745699" lon="8.43684101">
  <ele>84.235</ele>
 </trkpt>
 <trkpt lat="51.81738599" lon="8.43734602">
  <ele>84.875</ele>
 </trkpt>
 <trkpt lat="51.81719203" lon="8.43867397">
  <ele>84.928</ele>
 </trkpt>
 <trkpt lat="51.81702498" lon="8.43983000">
  <ele>85.193</ele>
 </trkpt>
 <trkpt lat="51.81696396" lon="8.44024801">
  <ele>84.566</ele>
 </trkpt>
 <trkpt lat="51.81694100" lon="8.44047700">
  <ele>85.080</ele>
 </trkpt>
 <trkpt lat="51.81681099" lon="8.44138300">
  <ele>84.265</ele>
 </trkpt>
 <trkpt lat="51.81663103" lon="8.44261296">
  <ele>84.263</ele>
 </trkpt>
 <trkpt lat="51.81646298" lon="8.44377503">
  <ele>84.454</ele>
 </trkpt>
 <trkpt lat="51.81634597" lon="8.44454097">
  <ele>84.566</ele>
 </trkpt>
 <trkpt lat="51.81618797" lon="8.44504396">
  <ele>86.085</ele>
 </trkpt>
 <trkpt lat="51.81617900" lon="8.44509903">
  <ele>85.440</ele>
 </trkpt>
 <trkpt lat="51.81617799" lon="8.44531897">
  <ele>85.140</ele>
 </trkpt>
 <trkpt lat="51.81618998" lon="8.44561402">
  <ele>84.313</ele>
 </trkpt>
 <trkpt lat="51.81607598" lon="8.44653402">
  <ele>84.330</ele>
 </trkpt>
 <trkpt lat="51.81601304" lon="8.44695998">
  <ele>84.713</ele>
 </trkpt>
 <trkpt lat="51.81597398" lon="8.44716500">
  <ele>84.326</ele>
 </trkpt>
 <trkpt lat="51.81586300" lon="8.44790999">
  <ele>84.486</ele>
 </trkpt>
 <trkpt lat="51.81572503" lon="8.44882001">
  <ele>84.588</ele>
 </trkpt>
 <trkpt lat="51.81570500" lon="8.44899897">
  <ele>83.941</ele>
 </trkpt>
 <trkpt lat="51.81564901" lon="8.44938001">
  <ele>83.731</ele>
 </trkpt>
 <trkpt lat="51.81560400" lon="8.44968603">
  <ele>84.032</ele>
 </trkpt>
 <trkpt lat="51.81557399" lon="8.44993003">
  <ele>84.505</ele>
 </trkpt>
 <trkpt lat="51.81538498" lon="8.45123702">
  <ele>84.436</ele>
 </trkpt>
 <trkpt lat="51.81520100" lon="8.45252599">
  <ele>84.122</ele>
 </trkpt>
 <trkpt lat="51.81501903" lon="8.45377799">
  <ele>84.779</ele>
 </trkpt>
 <trkpt lat="51.81482398" lon="8.45508498">
  <ele>84.738</ele>
 </trkpt>
 <trkpt lat="51.81473999" lon="8.45562603">
  <ele>84.643</ele>
 </trkpt>
 <trkpt lat="51.81458702" lon="8.45665097">
  <ele>85.786</ele>
 </trkpt>
 <trkpt lat="51.81453799" lon="8.45700603">
  <ele>85.486</ele>
 </trkpt>
 <trkpt lat="51.81444998" lon="8.45762696">
  <ele>85.581</ele>
 </trkpt>
 <trkpt lat="51.81441897" lon="8.45787297">
  <ele>86.047</ele>
 </trkpt>
 <trkpt lat="51.81436398" lon="8.45883898">
  <ele>85.737</ele>
 </trkpt>
 <trkpt lat="51.81435099" lon="8.46001103">
  <ele>85.801</ele>
 </trkpt>
 <trkpt lat="51.81432702" lon="8.46103496">
  <ele>86.001</ele>
 </trkpt>
 <trkpt lat="51.81420498" lon="8.46212704">
  <ele>85.989</ele>
 </trkpt>
 <trkpt lat="51.81391697" lon="8.46343998">
  <ele>86.340</ele>
 </trkpt>
 <trkpt lat="51.81358798" lon="8.46447699">
  <ele>86.162</ele>
 </trkpt>
 <trkpt lat="51.81326604" lon="8.46578700">
  <ele>86.315</ele>
 </trkpt>
 <trkpt lat="51.81312002" lon="8.46709600">
  <ele>86.272</ele>
 </trkpt>
 <trkpt lat="51.81306998" lon="8.46830802">
  <ele>86.427</ele>
 </trkpt>
 <trkpt lat="51.81303998" lon="8.46943597">
  <ele>86.433</ele>
 </trkpt>
 <trkpt lat="51.81299597" lon="8.47081899">
  <ele>86.291</ele>
 </trkpt>
 <trkpt lat="51.81297602" lon="8.47144101">
  <ele>86.444</ele>
 </trkpt>
 <trkpt lat="51.81298197" lon="8.47166103">
  <ele>86.456</ele>
 </trkpt>
 <trkpt lat="51.81310896" lon="8.47237903">
  <ele>85.972</ele>
 </trkpt>
 <trkpt lat="51.81345899" lon="8.47379901">
  <ele>85.875</ele>
 </trkpt>
 <trkpt lat="51.81374297" lon="8.47501497">
  <ele>86.875</ele>
 </trkpt>
 <trkpt lat="51.81356996" lon="8.47531797">
  <ele>86.943</ele>
 </trkpt>
 <trkpt lat="51.81296898" lon="8.47592298">
  <ele>86.762</ele>
 </trkpt>
 <trkpt lat="51.81276496" lon="8.47608902">
  <ele>86.860</ele>
 </trkpt>
 <trkpt lat="51.81252097" lon="8.47620796">
  <ele>87.608</ele>
 </trkpt>
 <trkpt lat="51.81241100" lon="8.47670903">
  <ele>88.012</ele>
 </trkpt>
 <trkpt lat="51.81226498" lon="8.47764303">
  <ele>87.932</ele>
 </trkpt>
 <trkpt lat="51.81221402" lon="8.47845297">
  <ele>88.104</ele>
 </trkpt>
 <trkpt lat="51.81216801" lon="8.47929896">
  <ele>88.143</ele>
 </trkpt>
 <trkpt lat="51.81213104" lon="8.48025198">
  <ele>88.602</ele>
 </trkpt>
 <trkpt lat="51.81209701" lon="8.48101499">
  <ele>88.659</ele>
 </trkpt>
 <trkpt lat="51.81201101" lon="8.48170800">
  <ele>88.797</ele>
 </trkpt>
 <trkpt lat="51.81187397" lon="8.48249900">
  <ele>89.030</ele>
 </trkpt>
 <trkpt lat="51.81178797" lon="8.48284400">
  <ele>89.561</ele>
 </trkpt>
 <trkpt lat="51.81172402" lon="8.48305204">
  <ele>89.348</ele>
 </trkpt>
 <trkpt lat="51.81153400" lon="8.48356803">
  <ele>88.939</ele>
 </trkpt>
 <trkpt lat="51.81116402" lon="8.48448602">
  <ele>88.998</ele>
 </trkpt>
 <trkpt lat="51.81094400" lon="8.48500502">
  <ele>88.733</ele>
 </trkpt>
 <trkpt lat="51.81082799" lon="8.48533502">
  <ele>89.038</ele>
 </trkpt>
 <trkpt lat="51.81050596" lon="8.48612602">
  <ele>88.558</ele>
 </trkpt>
 <trkpt lat="51.81031996" lon="8.48657998">
  <ele>89.187</ele>
 </trkpt>
 <trkpt lat="51.81024302" lon="8.48676397">
  <ele>88.187</ele>
 </trkpt>
 <trkpt lat="51.81011704" lon="8.48707502">
  <ele>88.564</ele>
 </trkpt>
 <trkpt lat="51.81002400" lon="8.48731298">
  <ele>88.547</ele>
 </trkpt>
 <trkpt lat="51.80969199" lon="8.48813700">
  <ele>88.617</ele>
 </trkpt>
 <trkpt lat="51.80938999" lon="8.48885802">
  <ele>88.301</ele>
 </trkpt>
 <trkpt lat="51.80921699" lon="8.48927996">
  <ele>88.822</ele>
 </trkpt>
 <trkpt lat="51.80910903" lon="8.48946101">
  <ele>88.505</ele>
 </trkpt>
 <trkpt lat="51.80886797" lon="8.49012201">
  <ele>88.942</ele>
 </trkpt>
 <trkpt lat="51.80846304" lon="8.49097403">
  <ele>89.143</ele>
 </trkpt>
 <trkpt lat="51.80797697" lon="8.49170200">
  <ele>88.954</ele>
 </trkpt>
 <trkpt lat="51.80756399" lon="8.49216099">
  <ele>88.840</ele>
 </trkpt>
 <trkpt lat="51.80726903" lon="8.49243902">
  <ele>88.644</ele>
 </trkpt>
 <trkpt lat="51.80659999" lon="8.49293497">
  <ele>88.435</ele>
 </trkpt>
 <trkpt lat="51.80617796" lon="8.49321501">
  <ele>88.651</ele>
 </trkpt>
 <trkpt lat="51.80575501" lon="8.49350503">
  <ele>88.535</ele>
 </trkpt>
 <trkpt lat="51.80519099" lon="8.49386897">
  <ele>88.255</ele>
 </trkpt>
 <trkpt lat="51.80501296" lon="8.49398003">
  <ele>88.259</ele>
 </trkpt>
 <trkpt lat="51.80437803" lon="8.49441497">
  <ele>87.979</ele>
 </trkpt>
 <trkpt lat="51.80369097" lon="8.49488896">
  <ele>88.558</ele>
 </trkpt>
 <trkpt lat="51.80302997" lon="8.49533999">
  <ele>88.639</ele>
 </trkpt>
 <trkpt lat="51.80289402" lon="8.49544502">
  <ele>87.665</ele>
 </trkpt>
 <trkpt lat="51.80257902" lon="8.49565901">
  <ele>87.502</ele>
 </trkpt>
 <trkpt lat="51.80241801" lon="8.49576797">
  <ele>87.662</ele>
 </trkpt>
 <trkpt lat="51.80227300" lon="8.49585800">
  <ele>87.429</ele>
 </trkpt>
 <trkpt lat="51.80174201" lon="8.49621699">
  <ele>87.727</ele>
 </trkpt>
 <trkpt lat="51.80121303" lon="8.49657297">
  <ele>87.683</ele>
 </trkpt>
 <trkpt lat="51.80062898" lon="8.49695703">
  <ele>87.684</ele>
 </trkpt>
 <trkpt lat="51.80013201" lon="8.49730798">
  <ele>88.296</ele>
 </trkpt>
 <trkpt lat="51.79960596" lon="8.49767100">
  <ele>88.235</ele>
 </trkpt>
 <trkpt lat="51.79909098" lon="8.49800804">
  <ele>87.594</ele>
 </trkpt>
 <trkpt lat="51.79867398" lon="8.49829797">
  <ele>87.495</ele>
 </trkpt>
 <trkpt lat="51.79826603" lon="8.49860097">
  <ele>89.105</ele>
 </trkpt>
 <trkpt lat="51.79808398" lon="8.49872896">
  <ele>87.980</ele>
 </trkpt>
 <trkpt lat="51.79757101" lon="8.49912199">
  <ele>88.597</ele>
 </trkpt>
 <trkpt lat="51.79733204" lon="8.49938996">
  <ele>88.731</ele>
 </trkpt>
 <trkpt lat="51.79716004" lon="8.49959197">
  <ele>87.942</ele>
 </trkpt>
 <trkpt lat="51.79681102" lon="8.50015297">
  <ele>87.695</ele>
 </trkpt>
 <trkpt lat="51.79656400" lon="8.50056997">
  <ele>86.890</ele>
 </trkpt>
 <trkpt lat="51.79622504" lon="8.50110800">
  <ele>86.823</ele>
 </trkpt>
 <trkpt lat="51.79576596" lon="8.50184896">
  <ele>86.743</ele>
 </trkpt>
 <trkpt lat="51.79560704" lon="8.50208600">
  <ele>86.141</ele>
 </trkpt>
 <trkpt lat="51.79526498" lon="8.50265496">
  <ele>86.076</ele>
 </trkpt>
 <trkpt lat="51.79478897" lon="8.50341001">
  <ele>85.914</ele>
 </trkpt>
 <trkpt lat="51.79419201" lon="8.50434501">
  <ele>85.754</ele>
 </trkpt>
 <trkpt lat="51.79372204" lon="8.50508303">
  <ele>85.916</ele>
 </trkpt>
 <trkpt lat="51.79336103" lon="8.50566197">
  <ele>86.276</ele>
 </trkpt>
 <trkpt lat="51.79307403" lon="8.50607503">
  <ele>86.383</ele>
 </trkpt>
 <trkpt lat="51.79272903" lon="8.50653897">
  <ele>86.581</ele>
 </trkpt>
 <trkpt lat="51.79236098" lon="8.50702797">
  <ele>86.450</ele>
 </trkpt>
 <trkpt lat="51.79223802" lon="8.50720298">
  <ele>86.304</ele>
 </trkpt>
 <trkpt lat="51.79208304" lon="8.50743198">
  <ele>86.739</ele>
 </trkpt>
 <trkpt lat="51.79175103" lon="8.50786901">
  <ele>87.159</ele>
 </trkpt>
 <trkpt lat="51.79129799" lon="8.50849799">
  <ele>87.145</ele>
 </trkpt>
 <trkpt lat="51.79087101" lon="8.50908799">
  <ele>87.421</ele>
 </trkpt>
 <trkpt lat="51.79051001" lon="8.50957196">
  <ele>87.021</ele>
 </trkpt>
 <trkpt lat="51.79010700" lon="8.51019197">
  <ele>87.695</ele>
 </trkpt>
 <trkpt lat="51.79001103" lon="8.51035198">
  <ele>87.967</ele>
 </trkpt>
 <trkpt lat="51.78965497" lon="8.51100300">
  <ele>88.232</ele>
 </trkpt>
 <trkpt lat="51.78924501" lon="8.51177598">
  <ele>87.807</ele>
 </trkpt>
 <trkpt lat="51.78877898" lon="8.51272901">
  <ele>88.021</ele>
 </trkpt>
 <trkpt lat="51.78855903" lon="8.51324801">
  <ele>88.553</ele>
 </trkpt>
 <trkpt lat="51.78850103" lon="8.51332102">
  <ele>88.045</ele>
 </trkpt>
 <trkpt lat="51.78842300" lon="8.51356502">
  <ele>88.491</ele>
 </trkpt>
 <trkpt lat="51.78819199" lon="8.51434898">
  <ele>88.154</ele>
 </trkpt>
 <trkpt lat="51.78802201" lon="8.51495499">
  <ele>87.910</ele>
 </trkpt>
 <trkpt lat="51.78784196" lon="8.51556896">
  <ele>88.121</ele>
 </trkpt>
 <trkpt lat="51.78768103" lon="8.51610096">
  <ele>87.943</ele>
 </trkpt>
 <trkpt lat="51.78754097" lon="8.51664604">
  <ele>87.924</ele>
 </trkpt>
 <trkpt lat="51.78737702" lon="8.51725901">
  <ele>87.842</ele>
 </trkpt>
 <trkpt lat="51.78717200" lon="8.51783400">
  <ele>88.265</ele>
 </trkpt>
 <trkpt lat="51.78681803" lon="8.51845301">
  <ele>87.803</ele>
 </trkpt>
 <trkpt lat="51.78621998" lon="8.51943897">
  <ele>88.215</ele>
 </trkpt>
 <trkpt lat="51.78570298" lon="8.52028596">
  <ele>88.235</ele>
 </trkpt>
 <trkpt lat="51.78533401" lon="8.52091402">
  <ele>88.211</ele>
 </trkpt>
 <trkpt lat="51.78531297" lon="8.52106799">
  <ele>88.074</ele>
 </trkpt>
 <trkpt lat="51.78526101" lon="8.52117696">
  <ele>87.931</ele>
 </trkpt>
 <trkpt lat="51.78512002" lon="8.52139296">
  <ele>87.733</ele>
 </trkpt>
 <trkpt lat="51.78482498" lon="8.52185698">
  <ele>87.865</ele>
 </trkpt>
 <trkpt lat="51.78453497" lon="8.52223400">
  <ele>87.807</ele>
 </trkpt>
 <trkpt lat="51.78392300" lon="8.52281202">
  <ele>86.567</ele>
 </trkpt>
 <trkpt lat="51.78325698" lon="8.52330697">
  <ele>86.168</ele>
 </trkpt>
 <trkpt lat="51.78312697" lon="8.52339598">
  <ele>86.146</ele>
 </trkpt>
 <trkpt lat="51.78298700" lon="8.52348198">
  <ele>85.285</ele>
 </trkpt>
 <trkpt lat="51.78244603" lon="8.52371299">
  <ele>84.729</ele>
 </trkpt>
 <trkpt lat="51.78154103" lon="8.52397400">
  <ele>84.032</ele>
 </trkpt>
 <trkpt lat="51.78105799" lon="8.52410803">
  <ele>84.461</ele>
 </trkpt>
 <trkpt lat="51.78094198" lon="8.52414197">
  <ele>84.464</ele>
 </trkpt>
 <trkpt lat="51.78041501" lon="8.52429503">
  <ele>85.205</ele>
 </trkpt>
 <trkpt lat="51.77951496" lon="8.52457196">
  <ele>86.082</ele>
 </trkpt>
 <trkpt lat="51.77875103" lon="8.52480196">
  <ele>86.588</ele>
 </trkpt>
 <trkpt lat="51.77798300" lon="8.52503599">
  <ele>86.978</ele>
 </trkpt>
 <trkpt lat="51.77735897" lon="8.52522902">
  <ele>87.889</ele>
 </trkpt>
 <trkpt lat="51.77667903" lon="8.52545198">
  <ele>88.540</ele>
 </trkpt>
 <trkpt lat="51.77629497" lon="8.52564803">
  <ele>89.732</ele>
 </trkpt>
 <trkpt lat="51.77580203" lon="8.52608599">
  <ele>91.130</ele>
 </trkpt>
 <trkpt lat="51.77569499" lon="8.52624700">
  <ele>90.982</ele>
 </trkpt>
 <trkpt lat="51.77542099" lon="8.52666501">
  <ele>91.414</ele>
 </trkpt>
 <trkpt lat="51.77512703" lon="8.52724596">
  <ele>91.437</ele>
 </trkpt>
 <trkpt lat="51.77499401" lon="8.52756497">
  <ele>91.588</ele>
 </trkpt>
 <trkpt lat="51.77465396" lon="8.52836796">
  <ele>91.511</ele>
 </trkpt>
 <trkpt lat="51.77442103" lon="8.52892896">
  <ele>91.405</ele>
 </trkpt>
 <trkpt lat="51.77412800" lon="8.52980202">
  <ele>92.344</ele>
 </trkpt>
 <trkpt lat="51.77394100" lon="8.53048196">
  <ele>92.341</ele>
 </trkpt>
 <trkpt lat="51.77371703" lon="8.53147103">
  <ele>92.126</ele>
 </trkpt>
 <trkpt lat="51.77364302" lon="8.53255003">
  <ele>92.709</ele>
 </trkpt>
 <trkpt lat="51.77366498" lon="8.53379298">
  <ele>93.292</ele>
 </trkpt>
 <trkpt lat="51.77363900" lon="8.53441098">
  <ele>94.245</ele>
 </trkpt>
 <trkpt lat="51.77368904" lon="8.53484097">
  <ele>95.176</ele>
 </trkpt>
 <trkpt lat="51.77370203" lon="8.53525897">
  <ele>94.916</ele>
 </trkpt>
 <trkpt lat="51.77369700" lon="8.53606498">
  <ele>96.028</ele>
 </trkpt>
 <trkpt lat="51.77365601" lon="8.53675699">
  <ele>96.098</ele>
 </trkpt>
 <trkpt lat="51.77361997" lon="8.53699403">
  <ele>95.991</ele>
 </trkpt>
 <trkpt lat="51.77359499" lon="8.53721003">
  <ele>95.747</ele>
 </trkpt>
 <trkpt lat="51.77349198" lon="8.53771898">
  <ele>96.661</ele>
 </trkpt>
 <trkpt lat="51.77333096" lon="8.53831803">
  <ele>97.677</ele>
 </trkpt>
 <trkpt lat="51.77321697" lon="8.53865800">
  <ele>97.906</ele>
 </trkpt>
 <trkpt lat="51.77294397" lon="8.53932001">
  <ele>98.702</ele>
 </trkpt>
 <trkpt lat="51.77266602" lon="8.53989098">
  <ele>99.336</ele>
 </trkpt>
 <trkpt lat="51.77241499" lon="8.54045098">
  <ele>99.560</ele>
 </trkpt>
 <trkpt lat="51.77214702" lon="8.54123603">
  <ele>99.863</ele>
 </trkpt>
 <trkpt lat="51.77203403" lon="8.54166904">
  <ele>99.477</ele>
 </trkpt>
 <trkpt lat="51.77199497" lon="8.54184296">
  <ele>99.442</ele>
 </trkpt>
 <trkpt lat="51.77192900" lon="8.54222903">
  <ele>100.099</ele>
 </trkpt>
 <trkpt lat="51.77181300" lon="8.54313201">
  <ele>100.685</ele>
 </trkpt>
 <trkpt lat="51.77174804" lon="8.54416701">
  <ele>101.549</ele>
 </trkpt>
 <trkpt lat="51.77176103" lon="8.54507703">
  <ele>102.530</ele>
 </trkpt>
 <trkpt lat="51.77178802" lon="8.54578799">
  <ele>103.951</ele>
 </trkpt>
 <trkpt lat="51.77181199" lon="8.54630699">
  <ele>103.988</ele>
 </trkpt>
 <trkpt lat="51.77184099" lon="8.54658804">
  <ele>103.658</ele>
 </trkpt>
 <trkpt lat="51.77186396" lon="8.54679499">
  <ele>104.740</ele>
 </trkpt>
 <trkpt lat="51.77188299" lon="8.54730302">
  <ele>104.645</ele>
 </trkpt>
 <trkpt lat="51.77188701" lon="8.54778900">
  <ele>104.985</ele>
 </trkpt>
 <trkpt lat="51.77188902" lon="8.54825503">
  <ele>105.280</ele>
 </trkpt>
 <trkpt lat="51.77185801" lon="8.54878804">
  <ele>105.093</ele>
 </trkpt>
 <trkpt lat="51.77182297" lon="8.54933697">
  <ele>105.972</ele>
 </trkpt>
 <trkpt lat="51.77180998" lon="8.54958700">
  <ele>105.274</ele>
 </trkpt>
 <trkpt lat="51.77171200" lon="8.55002202">
  <ele>105.936</ele>
 </trkpt>
 <trkpt lat="51.77147001" lon="8.55069702">
  <ele>107.134</ele>
 </trkpt>
 <trkpt lat="51.77121998" lon="8.55124603">
  <ele>106.866</ele>
 </trkpt>
 <trkpt lat="51.77091303" lon="8.55176101">
  <ele>108.308</ele>
 </trkpt>
 <trkpt lat="51.77059704" lon="8.55213501">
  <ele>108.372</ele>
 </trkpt>
 <trkpt lat="51.77018196" lon="8.55246903">
  <ele>108.371</ele>
 </trkpt>
 <trkpt lat="51.76985197" lon="8.55265796">
  <ele>109.032</ele>
 </trkpt>
 <trkpt lat="51.76951200" lon="8.55280800">
  <ele>109.159</ele>
 </trkpt>
 <trkpt lat="51.76934101" lon="8.55285703">
  <ele>109.748</ele>
 </trkpt>
 <trkpt lat="51.76901998" lon="8.55301403">
  <ele>110.151</ele>
 </trkpt>
 <trkpt lat="51.76864497" lon="8.55318803">
  <ele>110.171</ele>
 </trkpt>
 <trkpt lat="51.76835001" lon="8.55333698">
  <ele>110.698</ele>
 </trkpt>
 <trkpt lat="51.76801499" lon="8.55356597">
  <ele>111.276</ele>
 </trkpt>
 <trkpt lat="51.76749003" lon="8.55407299">
  <ele>110.854</ele>
 </trkpt>
 <trkpt lat="51.76724000" lon="8.55442897">
  <ele>111.825</ele>
 </trkpt>
 <trkpt lat="51.76713497" lon="8.55460399">
  <ele>111.332</ele>
 </trkpt>
 <trkpt lat="51.76676298" lon="8.55549498">
  <ele>111.858</ele>
 </trkpt>
 <trkpt lat="51.76654899" lon="8.55644398">
  <ele>112.065</ele>
 </trkpt>
 <trkpt lat="51.76648404" lon="8.55705997">
  <ele>112.179</ele>
 </trkpt>
 <trkpt lat="51.76652703" lon="8.55726399">
  <ele>112.545</ele>
 </trkpt>
 <trkpt lat="51.76654003" lon="8.55752198">
  <ele>112.375</ele>
 </trkpt>
 <trkpt lat="51.76662602" lon="8.55824299">
  <ele>112.780</ele>
 </trkpt>
 <trkpt lat="51.76672200" lon="8.55895897">
  <ele>113.174</ele>
 </trkpt>
 <trkpt lat="51.76674999" lon="8.55917900">
  <ele>113.134</ele>
 </trkpt>
 <trkpt lat="51.76678201" lon="8.55935896">
  <ele>113.116</ele>
 </trkpt>
 <trkpt lat="51.76678796" lon="8.55942803">
  <ele>113.183</ele>
 </trkpt>
 <trkpt lat="51.76679199" lon="8.55959298">
  <ele>112.049</ele>
 </trkpt>
 <trkpt lat="51.76679299" lon="8.55962701">
  <ele>112.146</ele>
 </trkpt>
 <trkpt lat="51.76681403" lon="8.55986296">
  <ele>112.342</ele>
 </trkpt>
 <trkpt lat="51.76693004" lon="8.56049303">
  <ele>111.548</ele>
 </trkpt>
 <trkpt lat="51.76711704" lon="8.56135704">
  <ele>111.818</ele>
 </trkpt>
 <trkpt lat="51.76735600" lon="8.56218500">
  <ele>110.498</ele>
 </trkpt>
 <trkpt lat="51.76738299" lon="8.56301003">
  <ele>110.817</ele>
 </trkpt>
 <trkpt lat="51.76738802" lon="8.56324296">
  <ele>110.817</ele>
 </trkpt>
 <trkpt lat="51.76737696" lon="8.56337397">
  <ele>110.477</ele>
 </trkpt>
 <trkpt lat="51.76744804" lon="8.56391796">
  <ele>110.560</ele>
 </trkpt>
 <trkpt lat="51.76754703" lon="8.56457401">
  <ele>110.683</ele>
 </trkpt>
 <trkpt lat="51.76761702" lon="8.56548001">
  <ele>111.058</ele>
 </trkpt>
 <trkpt lat="51.76767100" lon="8.56646597">
  <ele>109.524</ele>
 </trkpt>
 <trkpt lat="51.76773696" lon="8.56756099">
  <ele>109.144</ele>
 </trkpt>
 <trkpt lat="51.76785599" lon="8.56860302">
  <ele>108.521</ele>
 </trkpt>
 <trkpt lat="51.76798498" lon="8.56936402">
  <ele>108.016</ele>
 </trkpt>
 <trkpt lat="51.76804801" lon="8.56996500">
  <ele>108.074</ele>
 </trkpt>
 <trkpt lat="51.76808104" lon="8.57012501">
  <ele>107.934</ele>
 </trkpt>
 <trkpt lat="51.76823703" lon="8.57068299">
  <ele>107.932</ele>
 </trkpt>
 <trkpt lat="51.76840902" lon="8.57132899">
  <ele>107.768</ele>
 </trkpt>
 <trkpt lat="51.76849896" lon="8.57172897">
  <ele>107.557</ele>
 </trkpt>
 <trkpt lat="51.76838103" lon="8.57183903">
  <ele>107.223</ele>
 </trkpt>
 <trkpt lat="51.76781902" lon="8.57208696">
  <ele>107.356</ele>
 </trkpt>
 <trkpt lat="51.76769497" lon="8.57214396">
  <ele>106.974</ele>
 </trkpt>
 <trkpt lat="51.76748098" lon="8.57224999">
  <ele>108.602</ele>
 </trkpt>
 <trkpt lat="51.76733396" lon="8.57243699">
  <ele>107.962</ele>
 </trkpt>
 <trkpt lat="51.76708804" lon="8.57255802">
  <ele>108.432</ele>
 </trkpt>
 <trkpt lat="51.76707496" lon="8.57279398">
  <ele>108.372</ele>
 </trkpt>
 <trkpt lat="51.76716699" lon="8.57381598">
  <ele>107.490</ele>
 </trkpt>
 <trkpt lat="51.76700598" lon="8.57495299">
  <ele>106.280</ele>
 </trkpt>
 <trkpt lat="51.76688503" lon="8.57573703">
  <ele>104.493</ele>
 </trkpt>
 <trkpt lat="51.76676902" lon="8.57583904">
  <ele>105.368</ele>
 </trkpt>
 <trkpt lat="51.76679903" lon="8.57584901">
  <ele>105.887</ele>
 </trkpt>
 <trkpt lat="51.76685301" lon="8.57583300">
  <ele>106.066</ele>
 </trkpt>
 <trkpt lat="51.76684496" lon="8.57588103">
  <ele>105.741</ele>
 </trkpt>
 <trkpt lat="51.76665897" lon="8.57607096">
  <ele>107.082</ele>
 </trkpt>
 <trkpt lat="51.76657699" lon="8.57615797">
  <ele>107.342</ele>
 </trkpt>
 <trkpt lat="51.76652100" lon="8.57626903">
  <ele>107.113</ele>
 </trkpt>
 <trkpt lat="51.76625102" lon="8.57716598">
  <ele>105.572</ele>
 </trkpt>
 <trkpt lat="51.76576202" lon="8.57866701">
  <ele>104.418</ele>
 </trkpt>
 <trkpt lat="51.76555800" lon="8.57954803">
  <ele>103.223</ele>
 </trkpt>
 <trkpt lat="51.76541400" lon="8.58054598">
  <ele>102.187</ele>
 </trkpt>
 <trkpt lat="51.76515802" lon="8.58107203">
  <ele>101.582</ele>
 </trkpt>
 <trkpt lat="51.76487404" lon="8.58158299">
  <ele>100.492</ele>
 </trkpt>
 <trkpt lat="51.76478704" lon="8.58171400">
  <ele>99.593</ele>
 </trkpt>
 <trkpt lat="51.76479500" lon="8.58183201">
  <ele>99.896</ele>
 </trkpt>
 <trkpt lat="51.76500002" lon="8.58279300">
  <ele>99.579</ele>
 </trkpt>
 <trkpt lat="51.76503598" lon="8.58296198">
  <ele>99.504</ele>
 </trkpt>
 <trkpt lat="51.76510496" lon="8.58319701">
  <ele>99.155</ele>
 </trkpt>
 <trkpt lat="51.76518903" lon="8.58341301">
  <ele>98.998</ele>
 </trkpt>
 <trkpt lat="51.76526204" lon="8.58354502">
  <ele>99.401</ele>
 </trkpt>
 <trkpt lat="51.76579596" lon="8.58401299">
  <ele>99.550</ele>
 </trkpt>
 <trkpt lat="51.76616896" lon="8.58430300">
  <ele>99.514</ele>
 </trkpt>
 <trkpt lat="51.76681696" lon="8.58480097">
  <ele>99.909</ele>
 </trkpt>
 <trkpt lat="51.76717697" lon="8.58507397">
  <ele>99.778</ele>
 </trkpt>
 <trkpt lat="51.76730596" lon="8.58516499">
  <ele>99.724</ele>
 </trkpt>
 <trkpt lat="51.76748903" lon="8.58520799">
  <ele>100.498</ele>
 </trkpt>
 <trkpt lat="51.76790804" lon="8.58519601">
  <ele>99.454</ele>
 </trkpt>
 <trkpt lat="51.76803804" lon="8.58520104">
  <ele>100.208</ele>
 </trkpt>
 <trkpt lat="51.76813502" lon="8.58531897">
  <ele>100.200</ele>
 </trkpt>
 <trkpt lat="51.76821297" lon="8.58569398">
  <ele>99.752</ele>
 </trkpt>
 <trkpt lat="51.76842503" lon="8.58674096">
  <ele>100.095</ele>
 </trkpt>
 <trkpt lat="51.76864497" lon="8.58792004">
  <ele>100.983</ele>
 </trkpt>
 <trkpt lat="51.76883801" lon="8.58898002">
  <ele>100.277</ele>
 </trkpt>
 <trkpt lat="51.76894002" lon="8.58960296">
  <ele>100.351</ele>
 </trkpt>
 <trkpt lat="51.76912501" lon="8.59026597">
  <ele>100.630</ele>
 </trkpt>
 <trkpt lat="51.76916901" lon="8.59048499">
  <ele>101.035</ele>
 </trkpt>
 <trkpt lat="51.76935199" lon="8.59146802">
  <ele>99.586</ele>
 </trkpt>
 <trkpt lat="51.76956397" lon="8.59256001">
  <ele>97.977</ele>
 </trkpt>
 <trkpt lat="51.76957997" lon="8.59263604">
  <ele>98.768</ele>
 </trkpt>
 <trkpt lat="51.77014600" lon="8.59408703">
  <ele>99.014</ele>
 </trkpt>
 <trkpt lat="51.77045798" lon="8.59487199">
  <ele>99.182</ele>
 </trkpt>
 <trkpt lat="51.77032999" lon="8.59508498">
  <ele>98.600</ele>
 </trkpt>
 <trkpt lat="51.77011197" lon="8.59531598">
  <ele>98.566</ele>
 </trkpt>
 <trkpt lat="51.76962901" lon="8.59584304">
  <ele>98.857</ele>
 </trkpt>
 <trkpt lat="51.76915501" lon="8.59634796">
  <ele>99.092</ele>
 </trkpt>
 <trkpt lat="51.76907597" lon="8.59643698">
  <ele>98.821</ele>
 </trkpt>
 <trkpt lat="51.76898503" lon="8.59669204">
  <ele>99.212</ele>
 </trkpt>
 <trkpt lat="51.76895100" lon="8.59782301">
  <ele>99.541</ele>
 </trkpt>
 <trkpt lat="51.76897698" lon="8.59883697">
  <ele>99.586</ele>
 </trkpt>
 <trkpt lat="51.76906700" lon="8.59991496">
  <ele>98.487</ele>
 </trkpt>
 <trkpt lat="51.76918703" lon="8.60102498">
  <ele>98.940</ele>
 </trkpt>
 <trkpt lat="51.76906801" lon="8.60136797">
  <ele>98.229</ele>
 </trkpt>
 <trkpt lat="51.76809001" lon="8.60200399">
  <ele>98.382</ele>
 </trkpt>
 <trkpt lat="51.76743002" lon="8.60245904">
  <ele>98.191</ele>
 </trkpt>
 <trkpt lat="51.76696901" lon="8.60277998">
  <ele>97.557</ele>
 </trkpt>
 <trkpt lat="51.76646199" lon="8.60313797">
  <ele>98.232</ele>
 </trkpt>
 <trkpt lat="51.76635101" lon="8.60322003">
  <ele>97.480</ele>
 </trkpt>
 <trkpt lat="51.76587199" lon="8.60355103">
  <ele>97.922</ele>
 </trkpt>
 <trkpt lat="51.76526003" lon="8.60396300">
  <ele>99.344</ele>
 </trkpt>
 <trkpt lat="51.76487203" lon="8.60412201">
  <ele>98.651</ele>
 </trkpt>
 <trkpt lat="51.76446400" lon="8.60432502">
  <ele>98.822</ele>
 </trkpt>
 <trkpt lat="51.76444899" lon="8.60448000">
  <ele>98.877</ele>
 </trkpt>
 <trkpt lat="51.76456098" lon="8.60534099">
  <ele>99.338</ele>
 </trkpt>
 <trkpt lat="51.76464496" lon="8.60625696">
  <ele>98.686</ele>
 </trkpt>
 <trkpt lat="51.76474202" lon="8.60707596">
  <ele>98.488</ele>
 </trkpt>
 <trkpt lat="51.76483104" lon="8.60798104">
  <ele>97.906</ele>
 </trkpt>
 <trkpt lat="51.76495702" lon="8.60920697">
  <ele>97.672</ele>
 </trkpt>
 <trkpt lat="51.76503103" lon="8.60980804">
  <ele>97.552</ele>
 </trkpt>
 <trkpt lat="51.76505601" lon="8.61007702">
  <ele>97.515</ele>
 </trkpt>
 <trkpt lat="51.76516498" lon="8.61176102">
  <ele>98.473</ele>
 </trkpt>
 <trkpt lat="51.76515500" lon="8.61221700">
  <ele>99.128</ele>
 </trkpt>
 <trkpt lat="51.76515098" lon="8.61248103">
  <ele>99.270</ele>
 </trkpt>
 <trkpt lat="51.76510697" lon="8.61310498">
  <ele>98.507</ele>
 </trkpt>
 <trkpt lat="51.76504796" lon="8.61377704">
  <ele>98.921</ele>
 </trkpt>
 <trkpt lat="51.76497102" lon="8.61487499">
  <ele>99.450</ele>
 </trkpt>
 <trkpt lat="51.76494696" lon="8.61573103">
  <ele>98.029</ele>
 </trkpt>
 <trkpt lat="51.76493104" lon="8.61606002">
  <ele>98.430</ele>
 </trkpt>
 <trkpt lat="51.76497504" lon="8.61678899">
  <ele>98.502</ele>
 </trkpt>
 <trkpt lat="51.76500396" lon="8.61751000">
  <ele>99.032</ele>
 </trkpt>
 <trkpt lat="51.76509297" lon="8.61834400">
  <ele>99.512</ele>
 </trkpt>
 <trkpt lat="51.76519398" lon="8.61962400">
  <ele>99.735</ele>
 </trkpt>
 <trkpt lat="51.76529598" lon="8.62083100">
  <ele>99.414</ele>
 </trkpt>
 <trkpt lat="51.76541400" lon="8.62226799">
  <ele>99.497</ele>
 </trkpt>
 <trkpt lat="51.76549204" lon="8.62314499">
  <ele>99.075</ele>
 </trkpt>
 <trkpt lat="51.76550302" lon="8.62339100">
  <ele>99.828</ele>
 </trkpt>
 <trkpt lat="51.76553696" lon="8.62370297">
  <ele>99.472</ele>
 </trkpt>
 <trkpt lat="51.76556203" lon="8.62393599">
  <ele>100.322</ele>
 </trkpt>
 <trkpt lat="51.76564501" lon="8.62505699">
  <ele>100.620</ele>
 </trkpt>
 <trkpt lat="51.76572002" lon="8.62598201">
  <ele>100.540</ele>
 </trkpt>
 <trkpt lat="51.76583201" lon="8.62735103">
  <ele>99.887</ele>
 </trkpt>
 <trkpt lat="51.76593100" lon="8.62855199">
  <ele>99.758</ele>
 </trkpt>
 <trkpt lat="51.76606603" lon="8.63017598">
  <ele>99.354</ele>
 </trkpt>
 <trkpt lat="51.76616997" lon="8.63150602">
  <ele>98.983</ele>
 </trkpt>
 <trkpt lat="51.76626200" lon="8.63256902">
  <ele>99.861</ele>
 </trkpt>
 <trkpt lat="51.76633702" lon="8.63342204">
  <ele>99.506</ele>
 </trkpt>
 <trkpt lat="51.76641899" lon="8.63431597">
  <ele>99.891</ele>
 </trkpt>
 <trkpt lat="51.76647297" lon="8.63525097">
  <ele>100.676</ele>
 </trkpt>
 <trkpt lat="51.76653097" lon="8.63597500">
  <ele>100.834</ele>
 </trkpt>
 <trkpt lat="51.76660499" lon="8.63679802">
  <ele>100.975</ele>
 </trkpt>
 <trkpt lat="51.76668797" lon="8.63772799">
  <ele>101.751</ele>
 </trkpt>
 <trkpt lat="51.76676701" lon="8.63868504">
  <ele>101.568</ele>
 </trkpt>
 <trkpt lat="51.76683096" lon="8.63971299">
  <ele>102.726</ele>
 </trkpt>
 <trkpt lat="51.76691000" lon="8.64083399">
  <ele>101.596</ele>
 </trkpt>
 <trkpt lat="51.76701402" lon="8.64192498">
  <ele>101.596</ele>
 </trkpt>
 <trkpt lat="51.76708996" lon="8.64295302">
  <ele>101.685</ele>
 </trkpt>
 <trkpt lat="51.76715299" lon="8.64374100">
  <ele>101.400</ele>
 </trkpt>
 <trkpt lat="51.76723103" lon="8.64472898">
  <ele>101.005</ele>
 </trkpt>
 <trkpt lat="51.76731602" lon="8.64572198">
  <ele>101.443</ele>
 </trkpt>
 <trkpt lat="51.76739104" lon="8.64661398">
  <ele>101.804</ele>
 </trkpt>
 <trkpt lat="51.76743999" lon="8.64763197">
  <ele>101.935</ele>
 </trkpt>
 <trkpt lat="51.76739599" lon="8.64836999">
  <ele>101.105</ele>
 </trkpt>
 <trkpt lat="51.76735701" lon="8.64873402">
  <ele>101.470</ele>
 </trkpt>
 <trkpt lat="51.76735299" lon="8.64885002">
  <ele>101.577</ele>
 </trkpt>
 <trkpt lat="51.76751400" lon="8.64879504">
  <ele>101.568</ele>
 </trkpt>
 <trkpt lat="51.76750302" lon="8.64901003">
  <ele>101.246</ele>
 </trkpt>
 <trkpt lat="51.76748299" lon="8.64949903">
  <ele>101.232</ele>
 </trkpt>
 <trkpt lat="51.76744200" lon="8.65010597">
  <ele>101.425</ele>
 </trkpt>
 <trkpt lat="51.76737604" lon="8.65091398">
  <ele>101.442</ele>
 </trkpt>
 <trkpt lat="51.76732901" lon="8.65170398">
  <ele>101.440</ele>
 </trkpt>
 <trkpt lat="51.76731996" lon="8.65198703">
  <ele>101.707</ele>
 </trkpt>
 <trkpt lat="51.76725400" lon="8.65271400">
  <ele>101.709</ele>
 </trkpt>
 <trkpt lat="51.76721402" lon="8.65323996">
  <ele>101.826</ele>
 </trkpt>
 <trkpt lat="51.76715601" lon="8.65409601">
  <ele>101.517</ele>
 </trkpt>
 <trkpt lat="51.76701503" lon="8.65413004">
  <ele>101.118</ele>
 </trkpt>
 <trkpt lat="51.76693699" lon="8.65432299">
  <ele>101.798</ele>
 </trkpt>
 <trkpt lat="51.76693398" lon="8.65455198">
  <ele>101.674</ele>
 </trkpt>
 <trkpt lat="51.76687002" lon="8.65556703">
  <ele>101.525</ele>
 </trkpt>
 <trkpt lat="51.76680104" lon="8.65655802">
  <ele>101.800</ele>
 </trkpt>
 <trkpt lat="51.76674203" lon="8.65739596">
  <ele>101.260</ele>
 </trkpt>
 <trkpt lat="51.76670599" lon="8.65802100">
  <ele>101.729</ele>
 </trkpt>
 <trkpt lat="51.76658403" lon="8.65870597">
  <ele>100.576</ele>
 </trkpt>
 <trkpt lat="51.76652703" lon="8.65893697">
  <ele>100.275</ele>
 </trkpt>
 <trkpt lat="51.76647096" lon="8.65935599">
  <ele>100.488</ele>
 </trkpt>
 <trkpt lat="51.76623300" lon="8.66026098">
  <ele>100.431</ele>
 </trkpt>
 <trkpt lat="51.76592899" lon="8.66119699">
  <ele>100.288</ele>
 </trkpt>
 <trkpt lat="51.76566998" lon="8.66192403">
  <ele>100.716</ele>
 </trkpt>
 <trkpt lat="51.76548097" lon="8.66247003">
  <ele>100.689</ele>
 </trkpt>
 <trkpt lat="51.76525198" lon="8.66311099">
  <ele>100.739</ele>
 </trkpt>
 <trkpt lat="51.76537897" lon="8.66330998">
  <ele>100.829</ele>
 </trkpt>
 <trkpt lat="51.76544703" lon="8.66342104">
  <ele>101.058</ele>
 </trkpt>
 <trkpt lat="51.76535198" lon="8.66379001">
  <ele>99.828</ele>
 </trkpt>
 <trkpt lat="51.76504604" lon="8.66463700">
  <ele>100.266</ele>
 </trkpt>
 <trkpt lat="51.76484697" lon="8.66525198">
  <ele>99.768</ele>
 </trkpt>
 <trkpt lat="51.76456701" lon="8.66599998">
  <ele>100.210</ele>
 </trkpt>
 <trkpt lat="51.76450096" lon="8.66620400">
  <ele>100.239</ele>
 </trkpt>
 <trkpt lat="51.76421396" lon="8.66697396">
  <ele>99.235</ele>
 </trkpt>
 <trkpt lat="51.76409503" lon="8.66736498">
  <ele>98.626</ele>
 </trkpt>
 <trkpt lat="51.76417499" lon="8.66763404">
  <ele>98.688</ele>
 </trkpt>
 <trkpt lat="51.76396997" lon="8.66815598">
  <ele>98.602</ele>
 </trkpt>
 <trkpt lat="51.76363796" lon="8.66902602">
  <ele>97.682</ele>
 </trkpt>
 <trkpt lat="51.76335197" lon="8.66979699">
  <ele>97.843</ele>
 </trkpt>
 <trkpt lat="51.76296003" lon="8.67081899">
  <ele>97.897</ele>
 </trkpt>
 <trkpt lat="51.76266197" lon="8.67160597">
  <ele>97.657</ele>
 </trkpt>
 <trkpt lat="51.76238998" lon="8.67232203">
  <ele>97.732</ele>
 </trkpt>
 <trkpt lat="51.76206199" lon="8.67323499">
  <ele>98.379</ele>
 </trkpt>
 <trkpt lat="51.76201698" lon="8.67336600">
  <ele>98.514</ele>
 </trkpt>
 <trkpt lat="51.76179998" lon="8.67349600">
  <ele>99.652</ele>
 </trkpt>
 <trkpt lat="51.76171398" lon="8.67344496">
  <ele>99.023</ele>
 </trkpt>
 <trkpt lat="51.76164399" lon="8.67337799">
  <ele>99.474</ele>
 </trkpt>
 <trkpt lat="51.76160602" lon="8.67338100">
  <ele>99.504</ele>
 </trkpt>
 <trkpt lat="51.76152396" lon="8.67355099">
  <ele>99.176</ele>
 </trkpt>
 <trkpt lat="51.76136596" lon="8.67414602">
  <ele>99.447</ele>
 </trkpt>
 <trkpt lat="51.76126303" lon="8.67462999">
  <ele>99.777</ele>
 </trkpt>
 <trkpt lat="51.76113303" lon="8.67532100">
  <ele>99.297</ele>
 </trkpt>
 <trkpt lat="51.76108802" lon="8.67585098">
  <ele>99.277</ele>
 </trkpt>
 <trkpt lat="51.76109103" lon="8.67647200">
  <ele>99.779</ele>
 </trkpt>
 <trkpt lat="51.76109497" lon="8.67680501">
  <ele>99.949</ele>
 </trkpt>
 <trkpt lat="51.76112004" lon="8.67727096">
  <ele>99.865</ele>
 </trkpt>
 <trkpt lat="51.76113797" lon="8.67749803">
  <ele>100.106</ele>
 </trkpt>
 <trkpt lat="51.76116597" lon="8.67778804">
  <ele>99.682</ele>
 </trkpt>
 <trkpt lat="51.76123403" lon="8.67842599">
  <ele>99.753</ele>
 </trkpt>
 <trkpt lat="51.76126303" lon="8.67862598">
  <ele>99.446</ele>
 </trkpt>
 <trkpt lat="51.76134400" lon="8.67928103">
  <ele>98.819</ele>
 </trkpt>
 <trkpt lat="51.76136102" lon="8.67949602">
  <ele>99.025</ele>
 </trkpt>
 <trkpt lat="51.76145799" lon="8.67994999">
  <ele>99.478</ele>
 </trkpt>
 <trkpt lat="51.76151499" lon="8.68022600">
  <ele>98.982</ele>
 </trkpt>
 <trkpt lat="51.76161197" lon="8.68064602">
  <ele>98.346</ele>
 </trkpt>
 <trkpt lat="51.76168296" lon="8.68122102">
  <ele>98.828</ele>
 </trkpt>
 <trkpt lat="51.76171398" lon="8.68140098">
  <ele>98.544</ele>
 </trkpt>
 <trkpt lat="51.76174801" lon="8.68166903">
  <ele>98.445</ele>
 </trkpt>
 <trkpt lat="51.76179101" lon="8.68269900">
  <ele>99.242</ele>
 </trkpt>
 <trkpt lat="51.76173099" lon="8.68356703">
  <ele>97.903</ele>
 </trkpt>
 <trkpt lat="51.76166000" lon="8.68408796">
  <ele>98.678</ele>
 </trkpt>
 <trkpt lat="51.76157098" lon="8.68486002">
  <ele>98.027</ele>
 </trkpt>
 <trkpt lat="51.76151700" lon="8.68529999">
  <ele>97.671</ele>
 </trkpt>
 <trkpt lat="51.76126404" lon="8.68729798">
  <ele>98.380</ele>
 </trkpt>
 <trkpt lat="51.76121199" lon="8.68764499">
  <ele>98.381</ele>
 </trkpt>
 <trkpt lat="51.76112196" lon="8.68827498">
  <ele>98.591</ele>
 </trkpt>
 <trkpt lat="51.76100998" lon="8.68903798">
  <ele>98.276</ele>
 </trkpt>
 <trkpt lat="51.76099104" lon="8.68918399">
  <ele>98.537</ele>
 </trkpt>
 <trkpt lat="51.76095097" lon="8.68940704">
  <ele>98.244</ele>
 </trkpt>
 <trkpt lat="51.76078300" lon="8.69050004">
  <ele>98.082</ele>
 </trkpt>
 <trkpt lat="51.76060497" lon="8.69119498">
  <ele>98.699</ele>
 </trkpt>
 <trkpt lat="51.76044697" lon="8.69160997">
  <ele>98.776</ele>
 </trkpt>
 <trkpt lat="51.76012703" lon="8.69230298">
  <ele>97.957</ele>
 </trkpt>
 <trkpt lat="51.75986099" lon="8.69272803">
  <ele>99.394</ele>
 </trkpt>
 <trkpt lat="51.75969897" lon="8.69311301">
  <ele>96.849</ele>
 </trkpt>
 <trkpt lat="51.75970500" lon="8.69323203">
  <ele>97.493</ele>
 </trkpt>
 <trkpt lat="51.75951800" lon="8.69366697">
  <ele>97.507</ele>
 </trkpt>
 <trkpt lat="51.75928004" lon="8.69366102">
  <ele>99.261</ele>
 </trkpt>
 <trkpt lat="51.75921399" lon="8.69369497">
  <ele>98.858</ele>
 </trkpt>
 <trkpt lat="51.75907100" lon="8.69387803">
  <ele>99.423</ele>
 </trkpt>
 <trkpt lat="51.75885097" lon="8.69419696">
  <ele>100.483</ele>
 </trkpt>
 <trkpt lat="51.75867001" lon="8.69448404">
  <ele>99.159</ele>
 </trkpt>
 <trkpt lat="51.75837697" lon="8.69495602">
  <ele>99.046</ele>
 </trkpt>
 <trkpt lat="51.75823398" lon="8.69518099">
  <ele>99.769</ele>
 </trkpt>
 <trkpt lat="51.75776501" lon="8.69589597">
  <ele>100.444</ele>
 </trkpt>
 <trkpt lat="51.75739503" lon="8.69646301">
  <ele>100.291</ele>
 </trkpt>
 <trkpt lat="51.75696203" lon="8.69710900">
  <ele>100.335</ele>
 </trkpt>
 <trkpt lat="51.75662298" lon="8.69760697">
  <ele>100.492</ele>
 </trkpt>
 <trkpt lat="51.75651804" lon="8.69775700">
  <ele>100.613</ele>
 </trkpt>
 <trkpt lat="51.75631897" lon="8.69806001">
  <ele>100.871</ele>
 </trkpt>
 <trkpt lat="51.75612903" lon="8.69834298">
  <ele>100.829</ele>
 </trkpt>
 <trkpt lat="51.75577004" lon="8.69887398">
  <ele>100.997</ele>
 </trkpt>
 <trkpt lat="51.75563903" lon="8.69907497">
  <ele>101.221</ele>
 </trkpt>
 <trkpt lat="51.75526503" lon="8.69964201">
  <ele>100.253</ele>
 </trkpt>
 <trkpt lat="51.75486596" lon="8.70019203">
  <ele>99.877</ele>
 </trkpt>
 <trkpt lat="51.75455801" lon="8.70060802">
  <ele>99.718</ele>
 </trkpt>
 <trkpt lat="51.75450001" lon="8.70074297">
  <ele>99.897</ele>
 </trkpt>
 <trkpt lat="51.75435198" lon="8.70103902">
  <ele>98.875</ele>
 </trkpt>
 <trkpt lat="51.75387598" lon="8.70177998">
  <ele>97.843</ele>
 </trkpt>
 <trkpt lat="51.75322998" lon="8.70243897">
  <ele>98.038</ele>
 </trkpt>
 <trkpt lat="51.75250503" lon="8.70282202">
  <ele>99.091</ele>
 </trkpt>
 <trkpt lat="51.75180397" lon="8.70309896">
  <ele>99.489</ele>
 </trkpt>
 <trkpt lat="51.75155704" lon="8.70305797">
  <ele>99.006</ele>
 </trkpt>
 <trkpt lat="51.75122604" lon="8.70270702">
  <ele>98.550</ele>
 </trkpt>
 <trkpt lat="51.75071399" lon="8.70251499">
  <ele>98.514</ele>
 </trkpt>
 <trkpt lat="51.75028500" lon="8.70252999">
  <ele>97.842</ele>
 </trkpt>
 <trkpt lat="51.74986700" lon="8.70270702">
  <ele>99.044</ele>
 </trkpt>
 <trkpt lat="51.74952200" lon="8.70303903">
  <ele>99.105</ele>
 </trkpt>
 <trkpt lat="51.74949199" lon="8.70308697">
  <ele>99.614</ele>
 </trkpt>
 <trkpt lat="51.74939099" lon="8.70328302">
  <ele>98.908</ele>
 </trkpt>
 <trkpt lat="51.74911296" lon="8.70409599">
  <ele>98.770</ele>
 </trkpt>
 <trkpt lat="51.74890299" lon="8.70490300">
  <ele>99.543</ele>
 </trkpt>
 <trkpt lat="51.74863201" lon="8.70553801">
  <ele>100.405</ele>
 </trkpt>
 <trkpt lat="51.74851902" lon="8.70577899">
  <ele>99.691</ele>
 </trkpt>
 <trkpt lat="51.74812499" lon="8.70629598">
  <ele>100.200</ele>
 </trkpt>
 <trkpt lat="51.74759801" lon="8.70659798">
  <ele>100.358</ele>
 </trkpt>
 <trkpt lat="51.74708596" lon="8.70670200">
  <ele>100.778</ele>
 </trkpt>
 <trkpt lat="51.74654701" lon="8.70676302">
  <ele>101.553</ele>
 </trkpt>
 <trkpt lat="51.74624300" lon="8.70721699">
  <ele>101.298</ele>
 </trkpt>
 <trkpt lat="51.74586598" lon="8.70744204">
  <ele>100.913</ele>
 </trkpt>
 <trkpt lat="51.74538000" lon="8.70725504">
  <ele>101.286</ele>
 </trkpt>
 <trkpt lat="51.74527598" lon="8.70719402">
  <ele>101.441</ele>
 </trkpt>
 <trkpt lat="51.74527002" lon="8.70723400">
  <ele>101.582</ele>
 </trkpt>
 <trkpt lat="51.74525896" lon="8.70728103">
  <ele>101.841</ele>
 </trkpt>
 <trkpt lat="51.74526500" lon="8.70738102">
  <ele>101.516</ele>
 </trkpt>
 <trkpt lat="51.74538997" lon="8.70783096">
  <ele>103.467</ele>
 </trkpt>
 <trkpt lat="51.74555300" lon="8.70847302">
  <ele>103.065</ele>
 </trkpt>
 <trkpt lat="51.74576196" lon="8.70917198">
  <ele>102.474</ele>
 </trkpt>
 <trkpt lat="51.74593404" lon="8.70985603">
  <ele>103.014</ele>
 </trkpt>
 <trkpt lat="51.74605097" lon="8.71028502">
  <ele>103.034</ele>
 </trkpt>
 <trkpt lat="51.74593999" lon="8.71052499">
  <ele>102.543</ele>
 </trkpt>
 <trkpt lat="51.74568501" lon="8.71077301">
  <ele>101.835</ele>
 </trkpt>
 <trkpt lat="51.74544898" lon="8.71090603">
  <ele>102.637</ele>
 </trkpt>
 <trkpt lat="51.74505201" lon="8.71129897">
  <ele>102.220</ele>
 </trkpt>
 <trkpt lat="51.74487004" lon="8.71146804">
  <ele>102.138</ele>
 </trkpt>
 <trkpt lat="51.74464398" lon="8.71184003">
  <ele>102.413</ele>
 </trkpt>
 <trkpt lat="51.74453904" lon="8.71201797">
  <ele>103.269</ele>
 </trkpt>
 <trkpt lat="51.74433704" lon="8.71225803">
  <ele>102.098</ele>
 </trkpt>
 <trkpt lat="51.74424601" lon="8.71237596">
  <ele>102.969</ele>
 </trkpt>
 <trkpt lat="51.74438104" lon="8.71284703">
  <ele>102.605</ele>
 </trkpt>
 <trkpt lat="51.74454499" lon="8.71325003">
  <ele>102.611</ele>
 </trkpt>
 <trkpt lat="51.74493098" lon="8.71364901">
  <ele>102.914</ele>
 </trkpt>
 <trkpt lat="51.74517397" lon="8.71381002">
  <ele>102.852</ele>
 </trkpt>
 <trkpt lat="51.74531797" lon="8.71388001">
  <ele>102.698</ele>
 </trkpt>
 <trkpt lat="51.74584502" lon="8.71415704">
  <ele>102.954</ele>
 </trkpt>
 <trkpt lat="51.74607402" lon="8.71430397">
  <ele>102.805</ele>
 </trkpt>
 <trkpt lat="51.74645003" lon="8.71446004">
  <ele>102.054</ele>
 </trkpt>
 <trkpt lat="51.74652999" lon="8.71448401">
  <ele>102.332</ele>
 </trkpt>
 <trkpt lat="51.74716098" lon="8.71475399">
  <ele>102.337</ele>
 </trkpt>
 <trkpt lat="51.74751403" lon="8.71484703">
  <ele>103.174</ele>
 </trkpt>
 <trkpt lat="51.74759701" lon="8.71488500">
  <ele>103.317</ele>
 </trkpt>
 <trkpt lat="51.74761000" lon="8.71509103">
  <ele>102.425</ele>
 </trkpt>
 <trkpt lat="51.74759500" lon="8.71522497">
  <ele>102.810</ele>
 </trkpt>
 <trkpt lat="51.74766499" lon="8.71556000">
  <ele>103.000</ele>
 </trkpt>
 <trkpt lat="51.74802298" lon="8.71623700">
  <ele>102.370</ele>
 </trkpt>
 <trkpt lat="51.74802801" lon="8.71650103">
  <ele>102.187</ele>
 </trkpt>
 <trkpt lat="51.74801099" lon="8.71729497">
  <ele>102.604</ele>
 </trkpt>
 <trkpt lat="51.74816103" lon="8.71816199">
  <ele>103.683</ele>
 </trkpt>
 <trkpt lat="51.74837904" lon="8.71920797">
  <ele>103.671</ele>
 </trkpt>
 <trkpt lat="51.74855297" lon="8.72050800">
  <ele>104.909</ele>
 </trkpt>
 <trkpt lat="51.74860602" lon="8.72098200">
  <ele>105.432</ele>
 </trkpt>
    </trkseg>
  </trk>

</gpx>
